EDW,2007-05-01 00:55:00+00,86.18,15.62,7.21,300.00,16.00,0.00,29.84,M,21.00,None,None,None,None,M,M,M,M,None,
EDW,2007-05-01 01:55:00+00,81.86,18.14,9.24,300.00,16.00,0.00,29.84,M,M,None,None,None,None,M,M,M,M,None,
EDW,2007-05-01 02:55:00+00,77.00,28.04,16.43,300.00,15.00,0.00,29.85,M,21.00,None,None,None,None,M,M,M,M,None,
EDW,2007-05-01 03:55:00+00,73.94,27.50,17.79,230.00,8.00,0.00,29.88,M,M,None,None,None,None,M,M,M,M,None,
EDW,2007-05-01 04:55:00+00,68.36,26.60,20.72,220.00,8.00,0.00,29.90,M,M,None,None,None,None,M,M,M,M,None,
EDW,2007-05-01 05:55:00+00,64.04,26.96,24.43,230.00,9.00,0.00,29.90,M,M,None,None,None,None,M,M,M,M,None,
EDW,2007-05-01 06:55:00+00,63.32,31.46,30.11,220.00,8.00,0.00,29.90,M,M,None,None,None,None,M,M,M,M,None,
EDW,2007-05-01 07:55:00+00,59.18,30.56,33.62,220.00,7.00,0.00,29.89,M,M,None,None,None,None,M,M,M,M,None,
EDW,2007-05-01 08:55:00+00,59.54,29.12,31.30,190.00,8.00,0.00,29.88,M,M,None,None,None,None,M,M,M,M,None,
EDW,2007-05-01 09:55:00+00,60.08,31.28,33.52,210.00,9.00,0.00,29.86,M,M,None,None,None,None,M,M,M,M,None,
EDW,2007-05-01 10:55:00+00,59.00,31.10,34.59,220.00,10.00,0.00,29.87,M,M,None,None,None,None,M,M,M,M,None,
EDW,2007-05-01 11:55:00+00,61.88,33.44,34.31,240.00,8.00,0.00,29.86,M,M,None,None,None,None,M,M,M,M,None,
EDW,2007-05-01 12:55:00+00,57.38,34.16,41.46,230.00,9.00,0.00,29.87,M,M,None,None,None,None,M,M,M,M,None,
EDW,2007-05-01 13:55:00+00,60.98,37.94,42.33,220.00,12.00,0.00,29.87,M,M,None,None,None,None,M,M,M,M,None,
EDW,2007-05-01 14:55:00+00,63.68,39.20,40.43,220.00,10.00,0.00,29.89,M,M,None,None,None,None,M,M,M,M,None,
EDW,2007-05-01 15:55:00+00,66.20,39.02,36.77,230.00,11.00,0.00,29.90,M,M,None,None,None,None,M,M,M,M,None,
EDW,2007-05-01 16:55:00+00,70.70,38.30,30.63,230.00,11.00,0.00,29.91,M,M,None,None,None,None,M,M,M,M,None,
EDW,2007-05-01 17:55:00+00,76.46,34.16,21.42,230.00,10.00,0.00,29.90,M,M,None,None,None,None,M,M,M,M,None,
EDW,2007-05-01 18:55:00+00,79.34,32.72,18.39,250.00,12.00,0.00,29.89,M,19.00,None,None,None,None,M,M,M,M,None,
EDW,2007-05-01 19:55:00+00,82.94,25.52,12.18,250.00,21.00,0.00,29.86,M,26.00,None,None,None,None,M,M,M,M,None,
EDW,2007-05-01 20:55:00+00,84.74,23.00,10.35,240.00,18.00,0.00,29.84,M,28.00,None,None,None,None,M,M,M,M,None,
EDW,2007-05-01 21:55:00+00,84.74,29.84,13.73,270.00,17.00,0.00,29.82,M,27.00,None,None,None,None,M,M,M,M,None,
EDW,2007-05-01 22:55:00+00,84.92,27.50,12.41,280.00,20.00,0.00,29.81,M,28.00,None,None,None,None,M,M,M,M,None,
EDW,2007-05-01 23:55:00+00,81.68,24.80,12.32,290.00,21.00,0.00,29.81,M,26.00,None,None,None,None,M,M,M,M,None,
EDW,2007-05-02 00:55:00+00,79.34,29.66,16.25,290.00,18.00,0.00,29.81,M,25.00,None,None,None,None,M,M,M,M,None,
EDW,2007-05-02 01:55:00+00,76.46,32.00,19.65,290.00,19.00,0.00,29.81,M,29.00,None,None,None,None,M,M,M,M,None,
EDW,2007-05-02 02:55:00+00,71.78,40.28,31.90,250.00,16.00,0.00,29.83,M,20.00,None,None,None,None,M,M,M,M,None,
EDW,2007-05-02 03:55:00+00,68.18,42.62,39.48,240.00,14.00,0.00,29.86,M,M,None,None,None,None,M,M,M,M,None,
EDW,2007-05-02 04:55:00+00,66.56,38.66,35.81,240.00,16.00,0.00,29.86,M,M,None,None,None,None,M,M,M,M,None,
EDW,2007-05-02 05:55:00+00,70.34,33.26,25.39,270.00,15.00,0.00,29.87,M,M,None,None,None,None,M,M,M,M,None,
EDW,2007-05-02 06:55:00+00,66.02,32.36,28.42,260.00,16.00,0.00,29.86,M,M,None,None,None,None,M,M,M,M,None,
EDW,2007-05-02 07:55:00+00,63.68,31.28,29.52,240.00,13.00,0.00,29.88,M,16.00,None,None,None,None,M,M,M,M,None,
EDW,2007-05-02 08:55:00+00,59.18,40.10,49.11,230.00,15.00,0.00,29.88,M,20.00,None,None,None,None,M,M,M,M,None,
EDW,2007-05-02 09:55:00+00,59.36,39.02,46.78,220.00,15.00,0.00,29.88,M,M,None,None,None,None,M,M,M,M,None,
EDW,2007-05-02 10:55:00+00,58.28,39.20,48.97,220.00,15.00,0.00,29.88,M,M,None,None,None,None,M,M,M,M,None,
EDW,2007-05-02 11:55:00+00,57.38,40.10,52.38,210.00,11.00,0.00,29.89,M,M,None,None,None,None,M,M,M,M,None,
EDW,2007-05-02 12:55:00+00,55.58,40.82,57.49,240.00,11.00,0.00,29.89,M,M,None,None,None,None,M,M,M,M,None,
EDW,2007-05-02 13:55:00+00,55.22,41.00,58.66,220.00,5.00,0.00,29.91,M,M,None,None,None,None,M,M,M,M,None,
EDW,2007-05-02 14:55:00+00,61.70,39.56,43.97,270.00,17.00,0.00,29.92,M,M,None,None,None,None,M,M,M,M,None,
EDW,2007-05-02 15:55:00+00,65.30,39.20,38.21,280.00,12.00,0.00,29.92,M,M,None,None,None,None,M,M,M,M,None,
EDW,2007-05-02 16:55:00+00,68.00,37.94,33.12,250.00,8.00,0.00,29.91,M,M,None,None,None,None,M,M,M,M,None,
EDW,2007-05-02 17:55:00+00,73.04,36.32,26.17,310.00,9.00,0.00,29.90,M,17.00,None,None,None,None,M,M,M,M,None,
EDW,2007-05-02 18:55:00+00,76.82,36.50,23.23,250.00,17.00,0.00,29.88,M,27.00,None,None,None,None,M,M,M,M,None,
EDW,2007-05-02 19:55:00+00,78.98,39.20,24.05,250.00,20.00,0.00,29.87,M,29.00,None,None,None,None,M,M,M,M,None,
EDW,2007-05-02 20:55:00+00,77.54,41.54,27.62,230.00,20.00,0.00,29.87,M,26.00,None,None,None,None,M,M,M,M,None,
EDW,2007-05-02 21:55:00+00,76.10,43.52,31.26,250.00,21.00,0.00,29.86,M,28.00,None,None,None,None,M,M,M,M,None,
EDW,2007-05-02 22:55:00+00,74.48,44.06,33.69,250.00,23.00,0.00,29.85,M,31.00,None,None,None,None,M,M,M,M,None,
EDW,2007-05-02 23:55:00+00,72.14,46.40,39.84,240.00,20.00,0.00,29.85,M,30.00,None,None,None,None,M,M,M,M,None,
EDW,2007-05-03 00:55:00+00,67.82,45.50,44.62,240.00,25.00,0.00,29.87,M,32.00,None,None,None,None,M,M,M,M,None,
EDW,2007-05-03 01:55:00+00,64.94,46.76,51.71,230.00,18.00,0.00,29.89,M,23.00,None,None,None,None,M,M,M,M,None,
EDW,2007-05-03 02:55:00+00,62.78,45.68,53.54,260.00,14.00,0.00,29.89,M,21.00,None,None,None,None,M,M,M,M,None,
EDW,2007-05-03 03:55:00+00,60.62,45.68,57.79,240.00,12.00,0.00,29.91,M,M,None,None,None,None,M,M,M,M,None,
EDW,2007-05-03 04:55:00+00,60.08,43.52,54.26,270.00,10.00,0.00,29.93,M,M,None,None,None,None,M,M,M,M,None,
EDW,2007-05-03 05:55:00+00,57.92,44.24,60.26,260.00,14.00,0.00,29.91,M,M,None,None,None,None,M,M,M,M,None,
EDW,2007-05-03 06:55:00+00,55.22,42.62,62.44,260.00,12.00,0.00,29.92,M,M,None,None,None,None,M,M,M,M,None,
EDW,2007-05-03 07:55:00+00,55.04,39.74,56.22,300.00,17.00,0.00,29.94,M,22.00,None,None,None,None,M,M,M,M,None,
EDW,2007-05-03 08:55:00+00,53.96,40.46,60.14,280.00,17.00,0.00,29.92,M,22.00,None,None,None,None,M,M,M,M,None,
EDW,2007-05-03 09:55:00+00,53.06,38.84,58.36,270.00,17.00,0.00,29.93,M,22.00,None,None,None,None,M,M,M,M,None,
EDW,2007-05-03 10:55:00+00,50.36,36.14,57.98,250.00,15.00,0.00,29.95,M,M,None,None,None,None,M,M,M,M,None,
EDW,2007-05-03 11:55:00+00,48.92,35.60,59.88,260.00,19.00,0.00,29.95,M,24.00,None,None,None,None,M,M,M,M,None,
EDW,2007-05-03 12:55:00+00,46.76,34.70,62.66,240.00,21.00,0.00,29.94,M,29.00,None,None,None,None,M,M,M,M,None,
EDW,2007-05-03 13:55:00+00,46.94,33.44,59.18,250.00,18.00,0.00,29.98,M,24.00,None,None,None,None,M,M,M,M,None,
EDW,2007-05-03 14:55:00+00,50.72,34.88,54.42,280.00,20.00,0.00,29.99,M,27.00,None,None,None,None,M,M,M,M,None,
EDW,2007-05-03 15:55:00+00,52.52,33.80,48.77,280.00,24.00,0.00,29.98,M,31.00,None,None,None,None,M,M,M,M,None,
EDW,2007-05-03 16:55:00+00,54.14,32.00,42.76,280.00,30.00,0.00,29.97,M,36.00,None,None,None,None,M,M,M,M,None,
EDW,2007-05-03 17:55:00+00,58.28,29.84,33.72,280.00,20.00,0.00,29.98,M,26.00,None,None,None,None,M,M,M,M,None,
EDW,2007-05-03 18:55:00+00,61.88,27.32,26.76,270.00,21.00,0.00,29.95,M,27.00,None,None,None,None,M,M,M,M,None,
EDW,2007-05-03 19:55:00+00,64.22,26.06,23.39,280.00,23.00,0.00,29.91,M,M,None,None,None,None,M,M,M,M,None,
EDW,2007-05-03 20:55:00+00,65.30,26.96,23.38,290.00,21.00,0.00,29.88,M,30.00,None,None,None,None,M,M,M,M,None,
EDW,2007-05-03 21:55:00+00,66.02,23.72,19.93,300.00,22.00,0.00,29.87,M,28.00,None,None,None,None,M,M,M,M,None,
EDW,2007-05-03 22:55:00+00,66.20,25.52,21.35,290.00,23.00,0.00,29.86,M,29.00,None,None,None,None,M,M,M,M,None,
EDW,2007-05-03 23:55:00+00,63.86,27.68,25.33,290.00,27.00,0.00,29.84,M,37.00,None,None,None,None,M,M,M,M,None,
EDW,2007-05-04 00:55:00+00,63.32,25.52,23.61,270.00,26.00,0.00,29.84,M,35.00,None,None,None,None,M,M,M,M,None,
EDW,2007-05-04 01:55:00+00,59.00,27.14,29.42,280.00,23.00,0.00,29.86,M,29.00,None,None,None,None,M,M,M,M,None,
EDW,2007-05-04 02:55:00+00,56.66,25.88,30.38,220.00,19.00,0.00,29.88,M,26.00,None,None,None,None,M,M,M,M,None,
EDW,2007-05-04 03:08:00+00,57.20,24.80,28.48,280.00,20.00,0.00,29.89,M,32.00,None,None,None,None,M,M,M,M,None,
EDW,2007-05-04 03:55:00+00,55.22,24.62,30.37,290.00,25.00,0.00,29.88,M,30.00,None,None,None,None,M,M,M,M,None,
EDW,2007-05-04 04:55:00+00,55.22,23.54,29.03,280.00,33.00,0.00,29.86,M,43.00,None,None,None,None,M,M,M,M,None,
EDW,2007-05-04 04:59:00+00,55.40,23.00,28.20,280.00,33.00,0.00,29.85,M,46.00,None,None,None,None,M,M,M,M,None,
EDW,2007-05-04 05:04:00+00,55.40,24.80,30.40,290.00,37.00,0.00,29.85,M,47.00,None,None,None,None,M,M,M,M,None,
EDW,2007-05-04 05:07:00+00,55.40,24.80,30.40,290.00,36.00,0.00,29.85,M,47.00,None,None,None,None,M,M,M,M,None,
EDW,2007-05-04 05:08:00+00,55.40,24.80,30.40,290.00,34.00,0.00,29.85,M,47.00,None,None,None,None,M,M,M,M,None,
EDW,2007-05-04 05:14:00+00,55.40,24.80,30.40,300.00,33.00,0.00,29.85,M,42.00,None,None,None,None,M,M,M,M,None,
EDW,2007-05-04 05:40:00+00,55.40,26.60,32.76,280.00,29.00,0.00,29.85,M,44.00,None,None,None,None,M,M,M,M,None,
EDW,2007-05-04 05:41:00+00,55.40,26.60,32.76,280.00,29.00,0.00,29.85,M,44.00,None,None,None,None,M,M,M,M,None,
EDW,2007-05-04 05:42:00+00,55.40,26.60,32.76,280.00,29.00,0.00,29.86,M,44.00,None,None,None,None,M,M,M,M,None,
EDW,2007-05-04 05:43:00+00,55.40,26.60,32.76,280.00,30.00,0.00,29.85,M,44.00,None,None,None,None,M,M,M,M,None,
EDW,2007-05-04 05:46:00+00,55.40,26.60,32.76,300.00,27.00,0.00,29.88,M,40.00,None,None,None,None,M,M,M,M,None,
EDW,2007-05-04 05:50:00+00,55.40,26.60,32.76,290.00,23.00,0.00,29.89,M,40.00,None,None,None,None,M,M,M,M,None,
EDW,2007-05-04 05:51:00+00,55.40,26.60,32.76,290.00,23.00,0.00,29.90,M,40.00,None,None,None,None,M,M,M,M,None,
EDW,2007-05-04 05:52:00+00,55.40,26.60,32.76,280.00,21.00,0.00,29.90,M,40.00,None,None,None,None,M,M,M,M,None,
EDW,2007-05-04 05:53:00+00,55.40,26.60,32.76,280.00,19.00,0.00,29.91,M,38.00,None,None,None,None,M,M,M,M,None,
EDW,2007-05-04 05:55:00+00,54.50,27.50,35.13,280.00,22.00,16.76,29.91,M,35.00,None,None,None,None,M,M,M,M,None,
EDW,2007-05-04 06:55:00+00,53.24,29.12,39.31,260.00,10.00,0.00,29.91,M,M,None,None,None,None,M,M,M,M,None,
EDW,2007-05-04 07:55:00+00,51.26,28.22,40.76,260.00,17.00,0.00,29.88,M,22.00,None,None,None,None,M,M,M,M,None,
EDW,2007-05-04 08:55:00+00,51.08,27.68,40.13,230.00,8.00,0.00,29.89,M,16.00,None,None,None,None,M,M,M,M,None,
EDW,2007-05-04 09:55:00+00,51.08,26.42,38.10,280.00,26.00,0.00,29.83,M,32.00,None,None,None,None,M,M,M,M,None,
EDW,2007-05-04 10:55:00+00,51.62,27.68,39.34,310.00,23.00,0.76,29.85,M,39.00,None,None,None,None,M,M,M,M,None,
EDW,2007-05-04 11:55:00+00,50.72,28.04,41.28,290.00,23.00,0.00,29.85,M,30.00,None,None,None,None,M,M,M,M,None,
EDW,2007-05-04 12:55:00+00,46.94,28.04,47.54,260.00,8.00,0.00,29.88,M,M,None,None,None,None,M,M,M,M,None,
EDW,2007-05-04 13:55:00+00,46.94,29.48,50.43,220.00,7.00,0.00,29.87,M,M,None,None,None,None,M,M,M,M,None,
EDW,2007-05-04 14:55:00+00,52.70,30.38,42.21,250.00,12.00,0.00,29.87,M,M,None,None,None,None,M,M,M,M,None,
EDW,2007-05-04 15:55:00+00,55.22,32.72,42.31,240.00,17.00,0.00,29.84,M,M,None,None,None,None,M,M,M,M,None,
EDW,2007-05-04 16:55:00+00,60.08,36.50,41.30,270.00,21.00,0.00,29.83,M,27.00,None,None,None,None,M,M,M,M,None,
EDW,2007-05-04 17:55:00+00,62.60,38.48,40.83,290.00,16.00,0.00,29.83,M,29.00,None,None,None,None,M,M,M,M,None,
EDW,2007-05-04 18:55:00+00,63.50,37.58,38.19,290.00,18.00,0.00,29.81,M,26.00,None,None,None,None,M,M,M,M,None,
EDW,2007-05-04 19:16:00+00,64.40,37.40,36.74,230.00,23.00,0.00,29.81,M,28.00,None,None,None,None,M,M,M,M,None,
EDW,2007-05-04 19:55:00+00,63.68,37.22,37.41,300.00,8.00,0.00,29.81,M,M,None,None,None,None,M,M,M,M,None,
EDW,2007-05-04 20:55:00+00,66.20,35.06,31.46,260.00,14.00,0.00,29.79,M,20.00,None,None,None,None,M,M,M,M,None,
EDW,2007-05-04 21:55:00+00,66.20,33.44,29.49,250.00,25.00,0.00,29.77,M,29.00,None,None,None,None,M,M,M,M,None,
EDW,2007-05-04 22:55:00+00,66.02,33.62,29.89,260.00,16.00,0.00,29.78,M,25.00,None,None,None,None,M,M,M,M,None,
EDW,2007-05-04 23:55:00+00,63.32,34.88,34.54,320.00,19.00,0.00,29.80,M,24.00,None,None,None,None,M,M,M,M,None,
EDW,2007-05-05 00:55:00+00,61.16,33.08,34.69,320.00,30.00,0.00,29.81,M,38.00,None,None,None,None,M,M,M,M,None,
EDW,2007-05-05 01:55:00+00,59.18,34.88,39.99,290.00,37.00,0.00,29.76,M,45.00,None,None,None,None,M,M,M,M,None,
EDW,2007-05-05 02:55:00+00,57.38,35.42,43.59,280.00,35.00,0.00,29.77,M,48.00,None,None,None,None,M,M,M,M,None,
EDW,2007-05-05 03:55:00+00,56.30,34.34,43.42,300.00,26.00,0.00,29.81,M,39.00,None,None,None,None,M,M,M,M,None,
EDW,2007-05-05 04:58:00+00,54.86,36.32,49.49,280.00,24.00,0.00,29.86,M,34.00,None,None,None,None,M,M,M,M,None,
EDW,2007-05-05 05:55:00+00,53.96,37.22,52.99,280.00,20.00,0.00,29.88,M,25.00,None,None,None,None,M,M,M,M,None,
EDW,2007-05-05 06:55:00+00,53.06,35.42,51.00,290.00,26.00,0.00,29.87,M,32.00,None,None,None,None,M,M,M,M,None,
EDW,2007-05-05 07:55:00+00,51.44,35.42,54.14,280.00,23.00,0.00,29.87,M,30.00,None,None,None,None,M,M,M,M,None,
EDW,2007-05-05 08:55:00+00,50.54,35.06,55.18,280.00,23.00,0.00,29.86,M,29.00,None,None,None,None,M,M,M,M,None,
EDW,2007-05-05 09:55:00+00,49.28,34.34,56.19,220.00,10.00,0.00,29.89,M,16.00,None,None,None,None,M,M,M,M,None,
EDW,2007-05-05 10:55:00+00,48.38,33.62,56.47,190.00,7.00,0.00,29.90,M,M,None,None,None,None,M,M,M,M,None,
EDW,2007-05-05 12:55:00+00,48.20,33.44,56.44,280.00,11.00,0.00,29.89,M,M,None,None,None,None,M,M,M,M,None,
EDW,2007-05-05 13:55:00+00,49.82,33.44,53.13,260.00,5.00,0.00,29.91,M,M,None,None,None,None,M,M,M,M,None,
EDW,2007-05-05 14:55:00+00,53.96,33.08,44.95,340.00,11.00,0.00,29.92,M,M,None,None,None,None,M,M,M,M,None,
EDW,2007-05-05 15:55:00+00,57.56,31.82,37.50,310.00,12.00,0.00,29.92,M,20.00,None,None,None,None,M,M,M,M,None,
EDW,2007-05-05 16:55:00+00,59.00,33.08,37.46,300.00,16.00,0.00,29.91,M,21.00,None,None,None,None,M,M,M,M,None,
EDW,2007-05-05 17:55:00+00,60.80,32.00,33.64,270.00,10.00,0.00,29.91,M,16.00,None,None,None,None,M,M,M,M,None,
EDW,2007-05-05 18:55:00+00,63.68,31.28,29.52,270.00,8.00,0.00,29.89,M,M,None,None,None,None,M,M,M,M,None,
EDW,2007-05-05 19:55:00+00,66.74,31.28,26.53,270.00,9.00,0.00,29.87,M,16.00,None,None,None,None,M,M,M,M,None,
EDW,2007-05-05 20:55:00+00,68.00,24.44,19.18,60.00,6.00,0.00,29.85,M,M,None,None,None,None,M,M,M,M,None,
EDW,2007-05-05 21:55:00+00,69.26,24.08,18.09,10.00,10.00,0.00,29.84,M,15.00,None,None,None,None,M,M,M,M,None,
EDW,2007-05-05 22:55:00+00,71.60,23.00,15.97,30.00,12.00,0.00,29.83,M,M,None,None,None,None,M,M,M,M,None,
EDW,2007-05-05 23:55:00+00,70.88,19.94,14.37,30.00,14.00,0.00,29.83,M,20.00,None,None,None,None,M,M,M,M,None,
EDW,2007-05-06 00:55:00+00,70.52,14.36,11.44,50.00,27.00,0.00,29.85,M,31.00,None,None,None,None,M,M,M,M,None,
EDW,2007-05-06 01:55:00+00,66.20,14.00,13.06,60.00,25.00,0.00,29.88,M,31.00,None,None,None,None,M,M,M,M,None,
EDW,2007-05-06 02:55:00+00,63.50,15.44,15.28,50.00,23.00,0.00,29.92,M,30.00,None,None,None,None,M,M,M,M,None,
EDW,2007-05-06 03:55:00+00,60.98,14.72,16.18,40.00,16.00,0.00,29.95,M,M,None,None,None,None,M,M,M,M,None,
EDW,2007-05-06 04:55:00+00,59.36,15.26,17.55,10.00,13.00,0.00,29.98,M,M,None,None,None,None,M,M,M,M,None,
EDW,2007-05-06 05:55:00+00,56.66,13.82,18.16,20.00,10.00,0.00,29.99,M,M,None,None,None,None,M,M,M,M,None,
EDW,2007-05-06 06:55:00+00,54.68,13.28,19.06,360.00,10.00,0.00,30.01,M,M,None,None,None,None,M,M,M,M,None,
EDW,2007-05-06 07:55:00+00,53.78,13.82,20.17,20.00,7.00,0.00,30.02,M,M,None,None,None,None,M,M,M,M,None,
EDW,2007-05-06 08:55:00+00,53.06,14.36,21.20,30.00,9.00,0.00,30.03,M,M,None,None,None,None,M,M,M,M,None,
EDW,2007-05-06 09:55:00+00,53.42,15.26,21.76,40.00,9.00,0.00,30.04,M,M,None,None,None,None,M,M,M,M,None,
EDW,2007-05-06 10:55:00+00,53.06,15.26,22.05,20.00,14.00,0.00,30.05,M,M,None,None,None,None,M,M,M,M,None,
EDW,2007-05-06 11:55:00+00,52.52,15.98,23.21,30.00,13.00,0.00,30.04,M,M,None,None,None,None,M,M,M,M,None,
EDW,2007-05-06 12:55:00+00,50.36,15.08,24.17,20.00,8.00,0.00,30.04,M,M,None,None,None,None,M,M,M,M,None,
EDW,2007-05-06 13:55:00+00,52.34,15.26,22.64,50.00,5.00,0.00,30.07,M,M,None,None,None,None,M,M,M,M,None,
EDW,2007-05-06 14:55:00+00,57.74,16.52,19.65,M,M,0.00,30.08,M,M,None,None,None,None,M,M,M,M,None,
EDW,2007-05-06 15:55:00+00,64.22,15.98,15.25,30.00,17.00,0.00,30.08,M,M,None,None,None,None,M,M,M,M,None,
EDW,2007-05-06 16:55:00+00,67.46,13.46,12.21,50.00,21.00,0.00,30.06,M,25.00,None,None,None,None,M,M,M,M,None,
EDW,2007-05-06 17:55:00+00,69.80,13.46,11.27,60.00,18.00,0.00,30.06,M,23.00,None,None,None,None,M,M,M,M,None,
EDW,2007-05-06 18:55:00+00,72.32,12.74,10.02,80.00,14.00,0.00,30.05,M,24.00,None,None,None,None,M,M,M,M,None,
EDW,2007-05-06 19:55:00+00,73.58,13.28,9.83,70.00,18.00,0.00,30.03,M,23.00,None,None,None,None,M,M,M,M,None,
EDW,2007-05-06 20:55:00+00,75.38,10.40,8.15,70.00,8.00,0.00,30.01,M,15.00,None,None,None,None,M,M,M,M,None,
EDW,2007-05-06 21:55:00+00,76.10,8.06,7.16,10.00,9.00,0.00,30.00,M,20.00,None,None,None,None,M,M,M,M,None,
EDW,2007-05-06 22:55:00+00,77.90,6.08,6.17,50.00,9.00,0.00,29.97,M,14.00,None,None,None,None,M,M,M,M,None,
EDW,2007-05-06 23:55:00+00,77.90,5.90,6.12,60.00,11.00,0.00,29.96,M,15.00,None,None,None,None,M,M,M,M,None,
EDW,2007-05-07 00:55:00+00,77.72,1.94,5.13,40.00,6.00,0.00,29.95,M,M,None,None,None,None,M,M,M,M,None,
EDW,2007-05-07 01:55:00+00,76.64,1.04,5.10,40.00,8.00,0.00,29.96,M,M,None,None,None,None,M,M,M,M,None,
EDW,2007-05-07 02:55:00+00,70.70,3.92,7.11,50.00,8.00,0.00,29.97,M,M,None,None,None,None,M,M,M,M,None,
EDW,2007-05-07 03:55:00+00,66.92,14.72,13.14,290.00,7.00,0.00,29.99,M,M,None,None,None,None,M,M,M,M,None,
EDW,2007-05-07 04:55:00+00,64.58,24.44,21.59,310.00,8.00,0.00,30.02,M,M,None,None,None,None,M,M,M,M,None,
EDW,2007-05-07 05:55:00+00,59.54,23.90,25.23,M,M,0.00,30.03,M,M,None,None,None,None,M,M,M,M,None,
EDW,2007-05-07 06:55:00+00,55.04,25.16,31.27,200.00,6.00,0.00,30.04,M,M,None,None,None,None,M,M,M,M,None,
EDW,2007-05-07 07:55:00+00,51.44,22.82,32.35,220.00,3.00,0.00,30.05,M,M,None,None,None,None,M,M,M,M,None,
EDW,2007-05-07 08:55:00+00,48.92,23.36,36.35,220.00,4.00,0.00,30.05,M,M,None,None,None,None,M,M,M,M,None,
EDW,2007-05-07 09:55:00+00,49.46,24.44,37.27,240.00,6.00,0.00,30.05,M,M,None,None,None,None,M,M,M,M,None,
EDW,2007-05-07 10:55:00+00,48.56,23.54,37.12,220.00,7.00,0.00,30.05,M,M,None,None,None,None,M,M,M,M,None,
EDW,2007-05-07 11:55:00+00,49.10,22.82,35.29,250.00,6.00,0.00,30.07,M,M,None,None,None,None,M,M,M,M,None,
EDW,2007-05-07 12:55:00+00,46.76,21.38,36.26,220.00,4.00,0.00,30.08,M,M,None,None,None,None,M,M,M,M,None,
EDW,2007-05-07 13:55:00+00,51.08,22.46,32.29,250.00,4.00,0.00,30.10,M,M,None,None,None,None,M,M,M,M,None,
EDW,2007-05-07 14:55:00+00,59.36,23.90,25.39,230.00,5.00,0.00,30.11,M,M,None,None,None,None,M,M,M,M,None,
EDW,2007-05-07 15:58:00+00,67.46,24.26,19.39,M,1.00,0.00,30.11,M,M,None,None,None,None,M,M,M,M,None,
EDW,2007-05-07 16:55:00+00,74.12,24.08,15.35,80.00,6.00,0.00,30.09,M,M,None,None,None,None,M,M,M,M,None,
EDW,2007-05-07 17:55:00+00,77.90,23.36,13.13,60.00,12.00,0.00,30.08,M,20.00,None,None,None,None,M,M,M,M,None,
EDW,2007-05-07 18:55:00+00,80.06,21.56,11.34,60.00,16.00,0.00,30.07,M,23.00,None,None,None,None,M,M,M,M,None,
EDW,2007-05-07 19:55:00+00,80.78,21.74,11.16,60.00,9.00,0.00,30.06,M,M,None,None,None,None,M,M,M,M,None,
EDW,2007-05-07 20:55:00+00,82.76,19.94,9.69,80.00,15.00,0.00,30.04,M,18.00,None,None,None,None,M,M,M,M,None,
EDW,2007-05-07 21:55:00+00,83.84,19.76,9.29,70.00,12.00,0.00,30.02,M,15.00,None,None,None,None,M,M,M,M,None,
EDW,2007-05-07 22:55:00+00,84.20,17.24,8.24,40.00,14.00,0.00,29.99,M,18.00,None,None,None,None,M,M,M,M,None,
EDW,2007-05-07 23:55:00+00,84.02,17.24,8.29,50.00,14.00,0.00,29.98,M,18.00,None,None,None,None,M,M,M,M,None,
EDW,2007-05-08 00:55:00+00,83.12,16.52,8.27,50.00,12.00,0.00,29.97,M,18.00,None,None,None,None,M,M,M,M,None,
EDW,2007-05-08 01:55:00+00,82.04,18.50,9.33,60.00,8.00,0.00,29.97,M,15.00,None,None,None,None,M,M,M,M,None,
EDW,2007-05-08 02:55:00+00,77.00,14.54,9.27,90.00,6.00,0.00,29.98,M,M,None,None,None,None,M,M,M,M,None,
EDW,2007-05-08 03:55:00+00,71.06,14.36,11.23,90.00,7.00,0.00,30.00,M,M,None,None,None,None,M,M,M,M,None,
EDW,2007-05-08 04:55:00+00,66.92,12.92,12.15,M,M,0.00,30.02,M,M,None,None,None,None,M,M,M,M,None,
EDW,2007-05-08 05:55:00+00,63.14,11.84,13.21,M,M,0.00,30.03,M,M,None,None,None,None,M,M,M,M,None,
EDW,2007-05-08 06:55:00+00,56.48,12.20,17.02,M,M,0.00,30.03,M,M,None,None,None,None,M,M,M,M,None,
EDW,2007-05-08 07:55:00+00,55.58,8.78,15.10,80.00,3.00,0.00,30.04,M,M,None,None,None,None,M,M,M,M,None,
EDW,2007-05-08 08:55:00+00,54.32,11.84,18.12,M,M,0.00,30.03,M,M,None,None,None,None,M,M,M,M,None,
EDW,2007-05-08 09:55:00+00,54.50,10.76,17.16,M,M,0.00,30.02,M,M,None,None,None,None,M,M,M,M,None,
EDW,2007-05-08 10:55:00+00,49.64,12.92,22.59,M,M,0.00,30.02,M,M,None,None,None,None,M,M,M,M,None,
EDW,2007-05-08 11:55:00+00,47.84,15.08,26.56,240.00,4.00,0.00,30.02,M,M,None,None,None,None,M,M,M,M,None,
EDW,2007-05-08 12:55:00+00,46.40,14.00,26.75,220.00,6.00,0.00,30.03,M,M,None,None,None,None,M,M,M,M,None,
EDW,2007-05-08 13:55:00+00,50.36,16.70,25.94,240.00,5.00,0.00,30.05,M,M,None,None,None,None,M,M,M,M,None,
EDW,2007-05-08 14:55:00+00,58.64,21.20,23.25,210.00,6.00,0.00,30.05,M,M,None,None,None,None,M,M,M,M,None,
EDW,2007-05-08 15:55:00+00,65.12,24.62,21.35,M,3.00,0.00,30.06,M,M,None,None,None,None,M,M,M,M,None,
EDW,2007-05-08 16:55:00+00,72.68,22.82,15.28,50.00,3.00,0.00,30.05,M,M,None,None,None,None,M,M,M,M,None,
EDW,2007-05-08 17:55:00+00,77.00,19.04,11.26,30.00,4.00,0.00,30.04,M,M,None,None,None,None,M,M,M,M,None,
EDW,2007-05-08 18:55:00+00,81.50,20.48,10.33,M,4.00,0.00,30.02,M,M,None,None,None,None,M,M,M,M,None,
EDW,2007-05-08 19:55:00+00,83.84,22.28,10.34,M,2.00,0.00,29.99,M,M,None,None,None,None,M,M,M,M,None,
EDW,2007-05-08 20:55:00+00,85.64,21.20,9.32,M,6.00,0.00,29.97,M,M,None,None,None,None,M,M,M,M,None,
EDW,2007-05-08 21:55:00+00,86.18,18.86,8.29,M,M,0.00,29.95,M,M,None,None,None,None,M,M,M,M,None,
EDW,2007-05-08 22:55:00+00,87.44,19.76,8.28,10.00,6.00,0.00,29.92,M,M,None,None,None,None,M,M,M,M,None,
EDW,2007-05-08 23:55:00+00,87.62,19.94,8.29,140.00,3.00,0.00,29.91,M,M,None,None,None,None,M,M,M,M,None,
EDW,2007-05-09 00:55:00+00,87.98,17.06,7.25,M,M,0.00,29.89,M,M,None,None,None,None,M,M,M,M,None,
EDW,2007-05-09 01:55:00+00,86.54,19.04,8.26,M,M,0.00,29.88,M,M,None,None,None,None,M,M,M,M,None,
EDW,2007-05-09 02:55:00+00,78.80,18.32,10.29,230.00,5.00,0.00,29.89,M,M,None,None,None,None,M,M,M,M,None,
EDW,2007-05-09 03:55:00+00,77.18,25.88,14.94,250.00,13.00,0.00,29.90,M,M,None,None,None,None,M,M,M,M,None,
EDW,2007-05-09 04:55:00+00,72.14,25.52,17.42,220.00,10.00,0.00,29.93,M,M,None,None,None,None,M,M,M,M,None,
EDW,2007-05-09 05:55:00+00,67.64,25.70,20.46,190.00,7.00,0.00,29.93,M,M,None,None,None,None,M,M,M,M,None,
EDW,2007-05-09 06:55:00+00,65.48,25.52,21.89,200.00,5.00,0.00,29.93,M,M,None,None,None,None,M,M,M,M,None,
EDW,2007-05-09 07:55:00+00,60.62,24.80,25.20,200.00,7.00,0.00,29.93,M,M,None,None,None,None,M,M,M,M,None,
EDW,2007-05-09 08:55:00+00,61.16,26.24,26.25,220.00,6.00,0.00,29.92,M,M,None,None,None,None,M,M,M,M,None,
EDW,2007-05-09 09:55:00+00,59.36,24.26,25.77,M,M,0.00,29.92,M,M,None,None,None,None,M,M,M,M,None,
EDW,2007-05-09 10:55:00+00,56.12,23.72,28.31,250.00,6.00,0.00,29.92,M,M,None,None,None,None,M,M,M,M,None,
EDW,2007-05-09 11:55:00+00,57.20,25.52,29.35,240.00,8.00,0.00,29.93,M,M,None,None,None,None,M,M,M,M,None,
EDW,2007-05-09 12:55:00+00,57.74,24.98,28.15,250.00,5.00,0.00,29.94,M,M,None,None,None,None,M,M,M,M,None,
EDW,2007-05-09 13:55:00+00,58.10,24.08,26.76,M,M,0.00,29.97,M,M,None,None,None,None,M,M,M,M,None,
EDW,2007-05-09 14:55:00+00,60.80,23.36,23.58,M,M,0.00,29.98,M,M,None,None,None,None,M,M,M,M,None,
EDW,2007-05-09 15:55:00+00,76.10,31.46,19.45,240.00,7.00,0.00,30.00,M,M,None,None,None,None,M,M,M,M,None,
EDW,2007-05-09 16:55:00+00,81.14,32.72,17.34,240.00,5.00,0.00,29.99,M,M,None,None,None,None,M,M,M,M,None,
EDW,2007-05-09 17:55:00+00,84.56,29.48,13.61,240.00,8.00,0.00,29.99,M,M,None,None,None,None,M,M,M,M,None,
EDW,2007-05-09 18:55:00+00,87.80,27.68,11.40,250.00,11.00,0.00,29.98,M,M,None,None,None,None,M,M,M,M,None,
EDW,2007-05-09 19:55:00+00,89.24,23.90,9.31,250.00,8.00,0.00,29.97,M,16.00,None,None,None,None,M,M,M,M,None,
EDW,2007-05-09 20:55:00+00,89.96,24.44,9.31,240.00,12.00,0.00,29.96,M,21.00,None,None,None,None,M,M,M,M,None,
EDW,2007-05-09 21:55:00+00,91.04,22.64,8.35,220.00,15.00,0.00,29.95,M,23.00,None,None,None,None,M,M,M,M,None,
EDW,2007-05-09 23:55:00+00,89.96,26.96,10.34,240.00,19.00,0.00,29.92,M,25.00,None,None,None,None,M,M,M,M,None,
EDW,2007-05-10 00:55:00+00,87.44,24.98,10.31,240.00,18.00,0.00,29.93,M,25.00,None,None,None,None,M,M,M,M,None,
EDW,2007-05-10 01:55:00+00,84.38,24.98,11.37,230.00,17.00,0.00,29.93,M,24.00,None,None,None,None,M,M,M,M,None,
EDW,2007-05-10 04:55:00+00,73.04,33.80,23.68,250.00,14.00,0.00,29.98,M,M,None,None,None,None,M,M,M,M,None,
EDW,2007-05-10 06:55:00+00,68.36,26.78,20.88,250.00,9.00,0.00,30.00,M,M,None,None,None,None,M,M,M,M,None,
EDW,2007-05-10 07:55:00+00,66.74,27.86,23.08,270.00,7.00,0.00,30.00,M,M,None,None,None,None,M,M,M,M,None,
EDW,2007-05-10 08:55:00+00,60.26,26.42,27.30,180.00,6.00,0.00,30.00,M,M,None,None,None,None,M,M,M,M,None,
EDW,2007-05-10 09:55:00+00,60.80,28.58,29.27,190.00,7.00,0.00,30.00,M,M,None,None,None,None,M,M,M,M,None,
EDW,2007-05-10 10:55:00+00,59.72,26.96,28.46,200.00,10.00,0.00,29.99,M,M,None,None,None,None,M,M,M,M,None,
EDW,2007-05-10 11:55:00+00,57.56,27.14,30.98,210.00,6.00,0.00,30.00,M,M,None,None,None,None,M,M,M,M,None,
EDW,2007-05-10 12:25:00+00,55.40,26.60,32.76,150.00,6.00,0.00,30.00,M,M,None,None,None,None,M,M,M,M,None,
EDW,2007-05-10 12:55:00+00,56.30,27.14,32.42,200.00,7.00,0.00,30.01,M,M,None,None,None,None,M,M,M,M,None,
EDW,2007-05-10 13:55:00+00,59.72,26.96,28.46,M,M,0.00,30.03,M,M,None,None,None,None,M,M,M,M,None,
EDW,2007-05-10 14:55:00+00,61.88,25.88,25.21,160.00,6.00,0.00,30.04,M,M,None,None,None,None,M,M,M,M,None,
EDW,2007-05-10 15:55:00+00,71.96,32.72,23.52,240.00,6.00,0.00,30.05,M,M,None,None,None,None,M,M,M,M,None,
EDW,2007-05-10 16:55:00+00,78.26,25.34,14.09,240.00,8.00,0.00,30.04,M,M,None,None,None,None,M,M,M,M,None,
EDW,2007-05-10 17:55:00+00,80.78,21.20,10.90,240.00,5.00,0.00,30.04,M,M,None,None,None,None,M,M,M,M,None,
EDW,2007-05-10 18:55:00+00,82.94,19.04,9.27,260.00,6.00,0.00,30.03,M,M,None,None,None,None,M,M,M,M,None,
EDW,2007-05-10 19:55:00+00,85.28,20.84,9.28,M,5.00,0.00,30.00,M,M,None,None,None,None,M,M,M,M,None,
EDW,2007-05-10 20:55:00+00,87.80,19.94,8.25,180.00,4.00,0.00,29.98,M,M,None,None,None,None,M,M,M,M,None,
EDW,2007-05-10 21:55:00+00,89.78,18.32,7.23,230.00,9.00,0.00,29.96,M,17.00,None,None,None,None,M,M,M,M,None,
EDW,2007-05-10 22:55:00+00,90.14,21.92,8.33,260.00,12.00,0.00,29.94,M,20.00,None,None,None,None,M,M,M,M,None,
EDW,2007-05-10 23:55:00+00,88.52,23.36,9.31,240.00,19.00,0.00,29.94,M,24.00,None,None,None,None,M,M,M,M,None,
EDW,2007-05-11 00:55:00+00,85.64,24.08,10.52,240.00,20.00,0.00,29.94,M,26.00,None,None,None,None,M,M,M,M,None,
EDW,2007-05-11 01:55:00+00,82.22,27.32,13.44,260.00,19.00,0.00,29.94,M,M,None,None,None,None,M,M,M,M,None,
EDW,2007-05-11 02:55:00+00,77.36,26.78,15.41,260.00,13.00,0.00,29.96,M,M,None,None,None,None,M,M,M,M,None,
EDW,2007-05-11 03:55:00+00,75.02,21.56,13.39,240.00,10.00,0.00,29.98,M,19.00,None,None,None,None,M,M,M,M,None,
EDW,2007-05-11 04:55:00+00,71.24,18.32,13.25,250.00,11.00,0.00,30.00,M,M,None,None,None,None,M,M,M,M,None,
EDW,2007-05-11 05:55:00+00,67.64,24.44,19.42,230.00,10.00,0.00,30.00,M,M,None,None,None,None,M,M,M,M,None,
EDW,2007-05-11 06:55:00+00,64.40,26.06,23.25,220.00,6.00,0.00,30.01,M,M,None,None,None,None,M,M,M,M,None,
EDW,2007-05-11 07:55:00+00,63.50,25.34,23.28,220.00,9.00,0.00,30.01,M,M,None,None,None,None,M,M,M,M,None,
EDW,2007-05-11 08:55:00+00,60.08,24.44,25.31,190.00,7.00,0.00,30.00,M,M,None,None,None,None,M,M,M,M,None,
EDW,2007-05-11 09:55:00+00,55.76,22.64,27.41,170.00,4.00,0.00,29.99,M,M,None,None,None,None,M,M,M,M,None,
EDW,2007-05-11 10:55:00+00,57.56,24.08,27.28,210.00,4.00,0.00,29.99,M,M,None,None,None,None,M,M,M,M,None,
EDW,2007-05-11 11:55:00+00,57.74,23.72,26.70,210.00,7.00,0.00,29.98,M,M,None,None,None,None,M,M,M,M,None,
EDW,2007-05-11 12:55:00+00,53.24,22.10,29.37,M,M,0.00,30.00,M,M,None,None,None,None,M,M,M,M,None,
EDW,2007-05-11 13:55:00+00,56.66,22.46,26.33,260.00,3.00,0.00,30.02,M,M,None,None,None,None,M,M,M,M,None,
EDW,2007-05-11 14:55:00+00,63.14,24.08,22.37,180.00,4.00,0.00,30.03,M,M,None,None,None,None,M,M,M,M,None,
EDW,2007-05-11 15:55:00+00,69.26,26.96,20.39,M,5.00,0.00,30.03,M,M,None,None,None,None,M,M,M,M,None,
EDW,2007-05-11 16:55:00+00,74.66,25.70,16.12,260.00,7.00,0.00,30.03,M,M,None,None,None,None,M,M,M,M,None,
EDW,2007-05-11 17:55:00+00,79.16,15.08,8.84,240.00,7.00,0.00,30.02,M,M,None,None,None,None,M,M,M,M,None,
EDW,2007-05-11 18:55:00+00,81.14,16.52,8.82,M,2.00,0.00,30.01,M,M,None,None,None,None,M,M,M,M,None,
EDW,2007-05-11 19:55:00+00,84.74,17.60,8.22,270.00,11.00,0.00,29.99,M,15.00,None,None,None,None,M,M,M,M,None,
EDW,2007-05-11 20:55:00+00,85.82,18.50,8.26,260.00,12.00,0.00,29.98,M,19.00,None,None,None,None,M,M,M,M,None,
EDW,2007-05-11 21:55:00+00,87.26,19.76,8.32,240.00,8.00,0.00,29.96,M,18.00,None,None,None,None,M,M,M,M,None,
EDW,2007-05-11 22:55:00+00,87.44,19.76,8.28,250.00,17.00,0.00,29.93,M,23.00,None,None,None,None,M,M,M,M,None,
EDW,2007-05-11 23:55:00+00,86.18,18.86,8.29,250.00,18.00,0.00,29.92,M,23.00,None,None,None,None,M,M,M,M,None,
EDW,2007-05-12 00:55:00+00,82.76,18.86,9.25,250.00,22.00,0.00,29.93,M,28.00,None,None,None,None,M,M,M,M,None,
EDW,2007-05-12 01:55:00+00,78.80,20.48,11.29,250.00,24.00,0.00,29.92,M,29.00,None,None,None,None,M,M,M,M,None,
EDW,2007-05-12 02:55:00+00,73.22,19.94,13.28,250.00,22.00,0.00,29.94,M,28.00,None,None,None,None,M,M,M,M,None,
EDW,2007-05-12 03:55:00+00,69.62,19.76,14.89,240.00,15.00,0.00,29.96,M,M,None,None,None,None,M,M,M,M,None,
EDW,2007-05-12 04:55:00+00,66.74,31.82,27.12,240.00,15.00,0.00,29.97,M,21.00,None,None,None,None,M,M,M,M,None,
EDW,2007-05-12 05:55:00+00,64.22,34.52,32.99,250.00,13.00,0.00,29.97,M,M,None,None,None,None,M,M,M,M,None,
EDW,2007-05-12 06:55:00+00,64.40,31.82,29.42,240.00,13.00,0.00,29.96,M,M,None,None,None,None,M,M,M,M,None,
EDW,2007-05-12 07:55:00+00,62.42,31.64,31.31,230.00,10.00,0.00,29.96,M,M,None,None,None,None,M,M,M,M,None,
EDW,2007-05-12 08:55:00+00,59.72,32.90,36.25,220.00,10.00,0.00,29.95,M,M,None,None,None,None,M,M,M,M,None,
EDW,2007-05-12 09:55:00+00,57.38,26.42,30.27,220.00,8.00,0.00,29.95,M,M,None,None,None,None,M,M,M,M,None,
EDW,2007-05-12 10:55:00+00,56.48,27.14,32.21,220.00,11.00,0.00,29.94,M,M,None,None,None,None,M,M,M,M,None,
EDW,2007-05-12 11:55:00+00,57.56,28.04,32.15,220.00,11.00,0.00,29.94,M,M,None,None,None,None,M,M,M,M,None,
EDW,2007-05-12 12:55:00+00,58.28,32.36,37.34,230.00,12.00,0.00,29.95,M,M,None,None,None,None,M,M,M,M,None,
EDW,2007-05-12 13:55:00+00,62.24,33.26,33.63,230.00,11.00,0.00,29.97,M,M,None,None,None,None,M,M,M,M,None,
EDW,2007-05-12 14:55:00+00,64.94,33.08,30.37,220.00,11.00,0.00,29.97,M,M,None,None,None,None,M,M,M,M,None,
EDW,2007-05-12 15:55:00+00,69.08,33.62,26.90,220.00,11.00,0.00,29.97,M,M,None,None,None,None,M,M,M,M,None,
EDW,2007-05-12 16:55:00+00,73.94,35.42,24.50,220.00,13.00,0.00,29.97,M,M,None,None,None,None,M,M,M,M,None,
EDW,2007-05-12 17:55:00+00,77.00,33.44,20.45,230.00,11.00,0.00,29.97,M,M,None,None,None,None,M,M,M,M,None,
EDW,2007-05-12 18:55:00+00,80.78,32.00,17.04,210.00,9.00,0.00,29.96,M,16.00,None,None,None,None,M,M,M,M,None,
EDW,2007-05-12 19:55:00+00,84.02,29.66,13.95,240.00,7.00,0.00,29.93,M,15.00,None,None,None,None,M,M,M,M,None,
EDW,2007-05-12 20:55:00+00,86.72,23.54,9.94,240.00,10.00,0.00,29.92,M,16.00,None,None,None,None,M,M,M,M,None,
EDW,2007-05-12 21:55:00+00,86.90,26.06,10.97,230.00,15.00,0.00,29.91,M,21.00,None,None,None,None,M,M,M,M,None,
EDW,2007-05-12 22:55:00+00,87.08,29.30,12.47,240.00,15.00,0.00,29.89,M,23.00,None,None,None,None,M,M,M,M,None,
EDW,2007-05-12 23:55:00+00,83.48,35.96,18.29,240.00,23.00,0.00,29.89,M,28.00,None,None,None,None,M,M,M,M,None,
EDW,2007-05-13 00:55:00+00,80.60,37.76,21.56,240.00,21.00,0.00,29.90,M,26.00,None,None,None,None,M,M,M,M,None,
EDW,2007-05-13 01:55:00+00,76.82,36.86,23.56,230.00,17.00,0.00,29.91,M,22.00,None,None,None,None,M,M,M,M,None,
EDW,2007-05-13 02:55:00+00,71.42,36.68,28.04,230.00,18.00,0.00,29.93,M,24.00,None,None,None,None,M,M,M,M,None,
EDW,2007-05-13 03:55:00+00,67.28,37.58,33.48,240.00,12.00,0.00,29.95,M,M,None,None,None,None,M,M,M,M,None,
EDW,2007-05-13 04:55:00+00,64.58,36.68,35.49,230.00,11.00,0.00,29.97,M,M,None,None,None,None,M,M,M,M,None,
EDW,2007-05-13 05:55:00+00,63.14,35.42,35.51,230.00,13.00,0.00,29.97,M,M,None,None,None,None,M,M,M,M,None,
EDW,2007-05-13 06:55:00+00,61.16,34.34,36.48,220.00,11.00,0.00,29.96,M,M,None,None,None,None,M,M,M,M,None,
EDW,2007-05-13 07:55:00+00,58.82,34.16,39.37,230.00,12.00,0.00,29.96,M,M,None,None,None,None,M,M,M,M,None,
EDW,2007-05-13 08:55:00+00,60.08,35.96,40.43,220.00,12.00,0.00,29.95,M,M,None,None,None,None,M,M,M,M,None,
EDW,2007-05-13 09:55:00+00,59.00,36.86,43.54,220.00,12.00,0.00,29.94,M,M,None,None,None,None,M,M,M,M,None,
EDW,2007-05-13 10:55:00+00,57.56,37.22,46.50,220.00,14.00,0.00,29.93,M,M,None,None,None,None,M,M,M,M,None,
EDW,2007-05-13 11:55:00+00,55.76,38.12,51.41,230.00,14.00,0.00,29.92,M,M,None,None,None,None,M,M,M,M,None,
EDW,2007-05-13 12:55:00+00,55.04,38.48,53.52,230.00,13.00,0.00,29.93,M,M,None,None,None,None,M,M,M,M,None,
EDW,2007-05-13 13:55:00+00,57.56,38.66,49.20,230.00,13.00,0.00,29.94,M,M,None,None,None,None,M,M,M,M,None,
EDW,2007-05-13 14:55:00+00,63.68,35.96,35.60,230.00,11.00,0.00,29.95,M,M,None,None,None,None,M,M,M,M,None,
EDW,2007-05-13 15:55:00+00,69.62,35.60,28.57,240.00,15.00,0.00,29.96,M,M,None,None,None,None,M,M,M,M,None,
EDW,2007-05-13 16:55:00+00,73.76,35.24,24.48,220.00,11.00,0.00,29.95,M,M,None,None,None,None,M,M,M,M,None,
EDW,2007-05-13 17:55:00+00,77.18,33.08,20.03,230.00,9.00,0.00,29.94,M,18.00,None,None,None,None,M,M,M,M,None,
EDW,2007-05-13 18:55:00+00,80.42,32.36,17.49,300.00,10.00,0.00,29.93,M,18.00,None,None,None,None,M,M,M,M,None,
EDW,2007-05-13 19:55:00+00,82.04,31.28,15.89,220.00,6.00,0.00,29.92,M,M,None,None,None,None,M,M,M,M,None,
EDW,2007-05-13 20:55:00+00,85.46,26.96,11.93,260.00,15.00,0.00,29.90,M,19.00,None,None,None,None,M,M,M,M,None,
EDW,2007-05-13 21:55:00+00,86.72,24.98,10.55,260.00,14.00,0.00,29.89,M,24.00,None,None,None,None,M,M,M,M,None,
EDW,2007-05-13 22:55:00+00,86.36,27.86,12.02,280.00,17.00,0.00,29.87,M,22.00,None,None,None,None,M,M,M,M,None,
EDW,2007-05-13 23:55:00+00,83.48,29.30,13.99,290.00,16.00,0.00,29.88,M,22.00,None,None,None,None,M,M,M,M,None,
EDW,2007-05-14 00:55:00+00,80.60,32.00,17.14,290.00,15.00,0.00,29.88,M,M,None,None,None,None,M,M,M,M,None,
EDW,2007-05-14 01:55:00+00,76.10,33.44,21.07,270.00,15.00,0.00,29.89,M,M,None,None,None,None,M,M,M,M,None,
EDW,2007-05-14 02:55:00+00,71.24,33.98,25.35,260.00,13.00,0.00,29.92,M,M,None,None,None,None,M,M,M,M,None,
EDW,2007-05-14 03:55:00+00,67.10,34.88,30.28,230.00,11.00,0.00,29.93,M,M,None,None,None,None,M,M,M,M,None,
EDW,2007-05-14 04:55:00+00,64.58,35.24,33.52,220.00,15.00,0.00,29.94,M,M,None,None,None,None,M,M,M,M,None,
EDW,2007-05-14 05:55:00+00,62.24,35.96,37.45,220.00,9.00,0.00,29.95,M,M,None,None,None,None,M,M,M,M,None,
EDW,2007-05-14 06:55:00+00,60.80,35.96,39.41,220.00,10.00,0.00,29.94,M,M,None,None,None,None,M,M,M,M,None,
EDW,2007-05-14 07:55:00+00,61.70,35.42,37.36,240.00,11.00,0.00,29.93,M,M,None,None,None,None,M,M,M,M,None,
EDW,2007-05-14 08:55:00+00,58.46,35.78,42.53,240.00,7.00,0.00,29.93,M,M,None,None,None,None,M,M,M,M,None,
EDW,2007-05-14 09:55:00+00,55.40,34.88,45.83,210.00,5.00,0.00,29.92,M,M,None,None,None,None,M,M,M,M,None,
EDW,2007-05-14 10:55:00+00,53.96,30.92,41.20,200.00,8.00,0.00,29.93,M,M,None,None,None,None,M,M,M,M,None,
EDW,2007-05-14 11:55:00+00,53.24,31.28,42.92,220.00,6.00,0.00,29.93,M,M,None,None,None,None,M,M,M,M,None,
EDW,2007-05-14 12:55:00+00,50.00,30.20,46.31,M,M,0.00,29.95,M,M,None,None,None,None,M,M,M,M,None,
EDW,2007-05-14 13:55:00+00,51.62,30.38,43.93,M,M,0.00,29.97,M,M,None,None,None,None,M,M,M,M,None,
EDW,2007-05-14 14:55:00+00,57.20,32.18,38.54,260.00,3.00,0.00,29.98,M,M,None,None,None,None,M,M,M,M,None,
EDW,2007-05-14 15:55:00+00,61.70,32.90,33.78,50.00,3.00,0.00,29.99,M,M,None,None,None,None,M,M,M,M,None,
EDW,2007-05-14 16:55:00+00,67.10,34.16,29.42,M,M,0.00,29.99,M,M,None,None,None,None,M,M,M,M,None,
EDW,2007-05-14 17:55:00+00,73.58,35.06,24.45,M,3.00,0.00,29.98,M,M,None,None,None,None,M,M,M,M,None,
EDW,2007-05-14 18:55:00+00,78.44,33.44,19.50,30.00,5.00,0.00,29.98,M,M,None,None,None,None,M,M,M,M,None,
EDW,2007-05-14 19:55:00+00,83.66,30.20,14.43,M,3.00,0.00,29.96,M,M,None,None,None,None,M,M,M,M,None,
EDW,2007-05-14 20:55:00+00,89.06,21.56,8.49,80.00,10.00,0.00,29.93,M,19.00,None,None,None,None,M,M,M,M,None,
EDW,2007-05-14 21:55:00+00,91.22,18.14,6.85,80.00,5.00,0.00,29.90,M,22.00,None,None,None,None,M,M,M,M,None,
EDW,2007-05-14 22:55:00+00,91.58,12.02,5.19,110.00,9.00,0.00,29.88,M,M,None,None,None,None,M,M,M,M,None,
EDW,2007-05-14 23:55:00+00,91.58,13.64,5.57,130.00,7.00,0.00,29.87,M,M,None,None,None,None,M,M,M,M,None,
EDW,2007-05-15 00:55:00+00,90.68,15.44,6.20,80.00,3.00,0.00,29.86,M,M,None,None,None,None,M,M,M,M,None,
EDW,2007-05-15 01:55:00+00,84.56,39.92,20.63,250.00,21.00,0.00,29.88,M,25.00,None,None,None,None,M,M,M,M,None,
EDW,2007-05-15 02:55:00+00,77.00,39.02,25.49,240.00,15.00,0.00,29.90,M,20.00,None,None,None,None,M,M,M,M,None,
EDW,2007-05-15 03:55:00+00,74.12,34.52,23.50,240.00,11.00,0.00,29.92,M,M,None,None,None,None,M,M,M,M,None,
EDW,2007-05-15 04:55:00+00,72.14,37.22,27.96,240.00,11.00,0.00,29.94,M,M,None,None,None,None,M,M,M,M,None,
EDW,2007-05-15 05:55:00+00,67.10,36.32,32.06,210.00,13.00,0.00,29.95,M,M,None,None,None,None,M,M,M,M,None,
EDW,2007-05-15 06:55:00+00,65.12,32.90,29.96,220.00,11.00,0.00,29.95,M,M,None,None,None,None,M,M,M,M,None,
EDW,2007-05-15 07:55:00+00,61.34,36.86,40.06,200.00,8.00,0.00,29.96,M,M,None,None,None,None,M,M,M,M,None,
EDW,2007-05-15 08:55:00+00,60.26,40.82,48.59,200.00,10.00,0.00,29.95,M,M,None,None,None,None,M,M,M,M,None,
EDW,2007-05-15 09:55:00+00,59.36,40.82,50.18,200.00,8.00,0.00,29.94,M,M,None,None,None,None,M,M,M,M,None,
EDW,2007-05-15 10:55:00+00,56.48,41.36,56.82,210.00,6.00,0.00,29.94,M,M,None,None,None,None,M,M,M,M,None,
EDW,2007-05-15 11:55:00+00,56.30,38.12,50.42,230.00,7.00,0.00,29.94,M,M,None,None,None,None,M,M,M,M,None,
EDW,2007-05-15 12:55:00+00,55.04,36.86,50.22,230.00,5.00,0.00,29.95,M,M,None,None,None,None,M,M,M,M,None,
EDW,2007-05-15 13:55:00+00,57.92,35.96,43.67,250.00,3.00,0.00,29.97,M,M,None,None,None,None,M,M,M,M,None,
EDW,2007-05-15 14:55:00+00,62.24,35.06,36.13,M,2.00,0.00,29.98,M,M,None,None,None,None,M,M,M,M,None,
EDW,2007-05-15 15:55:00+00,67.10,36.68,32.52,30.00,5.00,0.00,29.99,M,M,None,None,None,None,M,M,M,M,None,
EDW,2007-05-15 16:55:00+00,71.60,38.12,29.50,310.00,2.00,0.00,29.98,M,M,None,None,None,None,M,M,M,M,None,
EDW,2007-05-15 17:55:00+00,77.18,38.12,24.47,40.00,4.00,0.00,29.98,M,M,None,None,None,None,M,M,M,M,None,
EDW,2007-05-15 18:55:00+00,81.68,36.14,19.52,M,4.00,0.00,29.97,M,M,None,None,None,None,M,M,M,M,None,
EDW,2007-05-15 19:55:00+00,85.46,32.54,14.97,M,5.00,0.00,29.96,M,M,None,None,None,None,M,M,M,M,None,
EDW,2007-05-15 20:55:00+00,88.88,28.40,11.35,30.00,6.00,0.00,29.93,M,M,None,None,None,None,M,M,M,M,None,
EDW,2007-05-15 21:55:00+00,91.22,26.06,9.57,320.00,6.00,0.00,29.90,M,M,None,None,None,None,M,M,M,M,None,
EDW,2007-05-15 22:55:00+00,92.30,26.42,9.40,30.00,5.00,0.00,29.87,M,M,None,None,None,None,M,M,M,M,None,
EDW,2007-05-15 23:55:00+00,92.84,26.24,9.17,210.00,8.00,0.00,29.86,M,M,None,None,None,None,M,M,M,M,None,
EDW,2007-05-16 00:55:00+00,88.52,36.86,16.13,240.00,19.00,0.00,29.87,M,25.00,None,None,None,None,M,M,M,M,None,
EDW,2007-05-16 01:55:00+00,84.02,33.98,16.61,250.00,22.00,0.00,29.88,M,26.00,None,None,None,None,M,M,M,M,None,
EDW,2007-05-16 02:55:00+00,81.32,33.08,17.49,260.00,15.00,0.00,29.90,M,21.00,None,None,None,None,M,M,M,M,None,
EDW,2007-05-16 03:55:00+00,77.72,42.62,28.62,260.00,10.00,0.00,29.92,M,M,None,None,None,None,M,M,M,M,None,
EDW,2007-05-16 04:55:00+00,71.24,41.90,34.59,240.00,9.00,0.00,29.93,M,M,None,None,None,None,M,M,M,M,None,
EDW,2007-05-16 05:55:00+00,69.44,42.44,37.55,210.00,8.00,0.00,29.94,M,M,None,None,None,None,M,M,M,M,None,
EDW,2007-05-16 06:55:00+00,66.02,44.06,44.95,210.00,10.00,0.00,29.94,M,M,None,None,None,None,M,M,M,M,None,
EDW,2007-05-16 07:55:00+00,65.48,42.80,43.65,210.00,10.00,0.00,29.94,M,M,None,None,None,None,M,M,M,M,None,
EDW,2007-05-16 08:55:00+00,64.76,39.02,38.66,210.00,10.00,0.00,29.92,M,M,None,None,None,None,M,M,M,M,None,
EDW,2007-05-16 09:55:00+00,63.86,39.92,41.32,220.00,11.00,0.00,29.91,M,M,None,None,None,None,M,M,M,M,None,
EDW,2007-05-16 10:55:00+00,62.42,39.74,43.16,210.00,9.00,0.00,29.91,M,M,None,None,None,None,M,M,M,M,None,
EDW,2007-05-16 11:55:00+00,59.72,39.74,47.50,220.00,5.00,0.00,29.92,M,M,None,None,None,None,M,M,M,M,None,
EDW,2007-05-16 12:55:00+00,56.30,38.84,51.86,230.00,3.00,0.00,29.92,M,M,None,None,None,None,M,M,M,M,None,
EDW,2007-05-16 13:55:00+00,61.88,36.14,38.20,230.00,7.00,0.00,29.94,M,M,None,None,None,None,M,M,M,M,None,
EDW,2007-05-16 14:55:00+00,64.58,37.22,36.25,220.00,2.00,0.00,29.95,M,M,None,None,None,None,M,M,M,M,None,
EDW,2007-05-16 15:55:00+00,69.08,38.48,32.60,M,M,0.00,29.96,M,M,None,None,None,None,M,M,M,M,None,
EDW,2007-05-16 17:55:00+00,78.44,40.46,25.71,M,M,0.00,29.96,M,M,None,None,None,None,M,M,M,M,None,
EDW,2007-05-16 18:55:00+00,82.94,38.30,20.40,70.00,4.00,0.00,29.95,M,M,None,None,None,None,M,M,M,M,None,
EDW,2007-05-16 19:55:00+00,87.44,33.98,14.89,M,5.00,0.00,29.93,M,M,None,None,None,None,M,M,M,M,None,
EDW,2007-05-16 20:55:00+00,89.42,34.88,14.49,M,6.00,0.00,29.90,M,M,None,None,None,None,M,M,M,M,None,
EDW,2007-05-16 21:55:00+00,91.04,34.34,13.48,60.00,5.00,0.00,29.87,M,M,None,None,None,None,M,M,M,M,None,
EDW,2007-05-17 00:55:00+00,90.50,37.58,15.59,290.00,18.00,0.00,29.82,M,22.00,None,None,None,None,M,M,M,M,None,
EDW,2007-05-17 01:55:00+00,85.28,39.74,20.02,280.00,17.00,0.00,29.83,M,M,None,None,None,None,M,M,M,M,None,
EDW,2007-05-17 02:55:00+00,79.70,41.18,25.37,280.00,17.00,0.00,29.85,M,M,None,None,None,None,M,M,M,M,None,
EDW,2007-05-17 03:55:00+00,76.46,41.54,28.62,270.00,15.00,0.00,29.87,M,M,None,None,None,None,M,M,M,M,None,
EDW,2007-05-17 04:55:00+00,73.94,41.18,30.71,250.00,10.00,0.00,29.89,M,M,None,None,None,None,M,M,M,M,None,
EDW,2007-05-17 05:55:00+00,70.70,39.38,31.95,230.00,11.00,0.00,29.90,M,M,None,None,None,None,M,M,M,M,None,
EDW,2007-05-17 05:55:00+00,70.70,39.38,31.95,230.00,11.00,0.00,29.90,M,M,None,None,None,None,M,M,M,M,None,
EDW,2007-05-17 06:55:00+00,68.54,37.04,31.38,210.00,9.00,0.00,29.91,M,M,None,None,None,None,M,M,M,M,None,
EDW,2007-05-17 07:55:00+00,66.20,34.34,30.57,220.00,9.00,0.00,29.91,M,M,None,None,None,None,M,M,M,M,None,
EDW,2007-05-17 08:55:00+00,65.66,36.32,33.70,220.00,12.00,0.00,29.90,M,M,None,None,None,None,M,M,M,M,None,
EDW,2007-05-17 08:55:00+00,65.66,36.32,33.70,220.00,12.00,0.00,29.90,M,M,None,None,None,None,M,M,M,M,None,
EDW,2007-05-17 09:55:00+00,65.12,35.42,33.13,210.00,9.00,0.00,29.90,M,M,None,None,None,None,M,M,M,M,None,
EDW,2007-05-17 10:55:00+00,62.24,35.24,36.39,240.00,6.00,0.00,29.90,M,M,None,None,None,None,M,M,M,M,None,
EDW,2007-05-17 11:55:00+00,60.80,33.98,36.42,230.00,7.00,0.00,29.91,M,M,None,None,None,None,M,M,M,M,None,
EDW,2007-05-17 12:55:00+00,59.90,35.78,40.40,220.00,8.00,0.00,29.91,M,M,None,None,None,None,M,M,M,M,None,
EDW,2007-05-17 13:55:00+00,61.34,37.04,40.34,230.00,8.00,0.00,29.93,M,M,None,None,None,None,M,M,M,M,None,
EDW,2007-05-17 14:55:00+00,67.10,41.18,38.77,230.00,11.00,0.00,29.94,M,M,None,None,None,None,M,M,M,M,None,
EDW,2007-05-17 15:55:00+00,73.76,41.72,31.55,210.00,8.00,0.00,29.95,M,M,None,None,None,None,M,M,M,M,None,
EDW,2007-05-17 16:55:00+00,78.44,42.08,27.37,M,3.00,0.00,29.95,M,M,None,None,None,None,M,M,M,M,None,
EDW,2007-05-17 17:55:00+00,82.04,40.10,22.54,290.00,2.00,0.00,29.94,M,M,None,None,None,None,M,M,M,M,None,
EDW,2007-05-17 18:55:00+00,85.82,36.86,17.58,M,3.00,0.00,29.94,M,M,None,None,None,None,M,M,M,M,None,
EDW,2007-05-17 19:55:00+00,87.80,35.24,15.48,M,4.00,0.00,29.92,M,M,None,None,None,None,M,M,M,M,None,
EDW,2007-05-17 20:55:00+00,90.50,33.08,13.04,160.00,8.00,0.00,29.90,M,M,None,None,None,None,M,M,M,M,None,
EDW,2007-05-17 21:55:00+00,92.66,31.10,11.25,240.00,7.00,0.00,29.88,M,15.00,None,None,None,None,M,M,M,M,None,
EDW,2007-05-17 22:55:00+00,92.12,28.76,10.40,290.00,5.00,0.00,29.86,M,M,None,None,None,None,M,M,M,M,None,
EDW,2007-05-17 23:55:00+00,90.68,36.50,14.86,250.00,18.00,0.00,29.85,M,25.00,None,None,None,None,M,M,M,M,None,
EDW,2007-05-18 00:55:00+00,87.62,35.78,15.90,250.00,21.00,0.00,29.86,M,25.00,None,None,None,None,M,M,M,M,None,
EDW,2007-05-18 01:55:00+00,84.38,35.60,17.51,250.00,19.00,0.00,29.86,M,25.00,None,None,None,None,M,M,M,M,None,
EDW,2007-05-18 02:55:00+00,78.62,40.46,25.56,280.00,12.00,0.00,29.89,M,M,None,None,None,None,M,M,M,M,None,
EDW,2007-05-18 03:55:00+00,74.66,40.82,29.56,280.00,14.00,0.00,29.90,M,M,None,None,None,None,M,M,M,M,None,
EDW,2007-05-18 04:55:00+00,71.60,39.38,30.99,250.00,12.00,0.00,29.92,M,M,None,None,None,None,M,M,M,M,None,
EDW,2007-05-18 05:55:00+00,67.82,37.94,33.33,240.00,8.00,0.00,29.93,M,M,None,None,None,None,M,M,M,M,None,
EDW,2007-05-18 06:55:00+00,66.20,38.84,36.51,240.00,11.00,0.00,29.93,M,M,None,None,None,None,M,M,M,M,None,
EDW,2007-05-18 07:55:00+00,65.66,36.86,34.42,240.00,11.00,0.00,29.93,M,M,None,None,None,None,M,M,M,M,None,
EDW,2007-05-18 08:55:00+00,64.40,38.48,38.33,220.00,8.00,0.00,29.93,M,M,None,None,None,None,M,M,M,M,None,
EDW,2007-05-18 09:55:00+00,63.86,38.84,39.62,230.00,8.00,0.00,29.93,M,M,None,None,None,None,M,M,M,M,None,
EDW,2007-05-18 10:55:00+00,63.32,38.84,40.38,230.00,6.00,0.00,29.93,M,M,None,None,None,None,M,M,M,M,None,
EDW,2007-05-18 11:55:00+00,58.82,37.22,44.44,300.00,4.00,0.00,29.93,M,M,None,None,None,None,M,M,M,M,None,
EDW,2007-05-18 12:55:00+00,55.76,35.78,46.88,170.00,2.00,0.00,29.95,M,M,None,None,None,None,M,M,M,M,None,
EDW,2007-05-18 13:55:00+00,59.36,37.94,44.85,190.00,4.00,0.00,29.96,M,M,None,None,None,None,M,M,M,M,None,
EDW,2007-05-18 14:55:00+00,66.38,41.18,39.74,240.00,9.00,0.00,29.97,M,M,None,None,None,None,M,M,M,M,None,
EDW,2007-05-18 15:55:00+00,72.50,41.54,32.69,240.00,8.00,0.00,29.97,M,M,None,None,None,None,M,M,M,M,None,
EDW,2007-05-18 16:55:00+00,77.00,39.74,26.22,280.00,3.00,0.00,29.97,M,M,None,None,None,None,M,M,M,M,None,
EDW,2007-05-18 17:55:00+00,81.68,39.74,22.49,300.00,7.00,0.00,29.96,M,M,None,None,None,None,M,M,M,M,None,
EDW,2007-05-18 18:55:00+00,84.56,33.62,16.09,M,5.00,0.00,29.95,M,M,None,None,None,None,M,M,M,M,None,
EDW,2007-05-18 19:55:00+00,85.10,33.08,15.47,M,2.00,0.00,29.93,M,M,None,None,None,None,M,M,M,M,None,
EDW,2007-05-18 20:55:00+00,88.52,22.28,8.90,250.00,7.00,0.00,29.92,M,M,None,None,None,None,M,M,M,M,None,
EDW,2007-05-18 21:55:00+00,89.96,28.94,11.21,M,5.00,0.00,29.90,M,M,None,None,None,None,M,M,M,M,None,
EDW,2007-05-18 22:55:00+00,91.76,28.40,10.37,270.00,7.00,0.00,29.88,M,16.00,None,None,None,None,M,M,M,M,None,
EDW,2007-05-18 23:55:00+00,90.86,25.34,9.40,250.00,16.00,0.00,29.87,M,20.00,None,None,None,None,M,M,M,M,None,
EDW,2007-05-19 00:55:00+00,86.90,36.14,16.50,290.00,18.00,0.00,29.87,M,22.00,None,None,None,None,M,M,M,M,None,
EDW,2007-05-19 01:55:00+00,81.50,39.20,22.15,290.00,18.00,0.00,29.88,M,M,None,None,None,None,M,M,M,M,None,
EDW,2007-05-19 02:55:00+00,75.92,41.36,28.94,280.00,16.00,0.00,29.90,M,M,None,None,None,None,M,M,M,M,None,
EDW,2007-05-19 03:55:00+00,73.22,39.02,28.93,280.00,15.00,0.00,29.91,M,M,None,None,None,None,M,M,M,M,None,
EDW,2007-05-19 04:55:00+00,71.42,40.46,32.51,280.00,16.00,0.00,29.93,M,22.00,None,None,None,None,M,M,M,M,None,
EDW,2007-05-19 05:55:00+00,69.44,40.28,34.54,250.00,10.00,0.00,29.95,M,M,None,None,None,None,M,M,M,M,None,
EDW,2007-05-19 06:55:00+00,67.64,40.10,36.49,240.00,8.00,0.00,29.94,M,M,None,None,None,None,M,M,M,M,None,
EDW,2007-05-19 07:55:00+00,66.56,39.20,36.57,230.00,9.00,0.00,29.94,M,M,None,None,None,None,M,M,M,M,None,
EDW,2007-05-19 08:55:00+00,65.84,39.20,37.50,220.00,7.00,0.00,29.93,M,M,None,None,None,None,M,M,M,M,None,
EDW,2007-05-19 09:55:00+00,65.48,38.84,37.44,240.00,10.00,0.00,29.93,M,M,None,None,None,None,M,M,M,M,None,
EDW,2007-05-19 10:55:00+00,60.44,39.92,46.62,220.00,10.00,0.00,29.93,M,M,None,None,None,None,M,M,M,M,None,
EDW,2007-05-19 11:55:00+00,58.46,41.00,52.18,230.00,8.00,0.00,29.93,M,M,None,None,None,None,M,M,M,M,None,
EDW,2007-05-19 12:55:00+00,57.02,40.28,53.44,230.00,5.00,0.00,29.94,M,M,None,None,None,None,M,M,M,M,None,
EDW,2007-05-19 13:55:00+00,59.36,40.64,49.83,220.00,7.00,0.00,29.95,M,M,None,None,None,None,M,M,M,M,None,
EDW,2007-05-19 14:55:00+00,65.84,40.46,39.38,220.00,7.00,0.00,29.96,M,M,None,None,None,None,M,M,M,M,None,
EDW,2007-05-19 15:55:00+00,71.60,39.02,30.56,M,4.00,0.00,29.97,M,M,None,None,None,None,M,M,M,M,None,
EDW,2007-05-19 16:55:00+00,75.20,36.50,24.52,60.00,6.00,0.00,29.97,M,M,None,None,None,None,M,M,M,M,None,
EDW,2007-05-19 17:55:00+00,77.54,35.06,21.42,40.00,4.00,0.00,29.97,M,M,None,None,None,None,M,M,M,M,None,
EDW,2007-05-19 18:55:00+00,79.70,29.84,16.17,320.00,3.00,0.00,29.96,M,M,None,None,None,None,M,M,M,M,None,
EDW,2007-05-19 19:55:00+00,82.58,30.92,15.38,M,4.00,0.00,29.94,M,M,None,None,None,None,M,M,M,M,None,
EDW,2007-05-19 20:55:00+00,86.54,31.10,13.64,M,2.00,0.00,29.92,M,M,None,None,None,None,M,M,M,M,None,
EDW,2007-05-19 21:55:00+00,88.88,26.06,10.31,290.00,9.00,0.00,29.89,M,M,None,None,None,None,M,M,M,M,None,
EDW,2007-05-19 22:55:00+00,89.60,23.72,9.14,M,4.00,0.00,29.87,M,M,None,None,None,None,M,M,M,M,None,
EDW,2007-05-19 23:55:00+00,89.96,33.08,13.26,300.00,12.00,0.00,29.85,M,16.00,None,None,None,None,M,M,M,M,None,
EDW,2007-05-20 00:55:00+00,86.54,35.78,16.46,290.00,16.00,0.00,29.86,M,M,None,None,None,None,M,M,M,M,None,
EDW,2007-05-20 01:55:00+00,81.50,37.40,20.64,290.00,18.00,0.00,29.86,M,M,None,None,None,None,M,M,M,M,None,
EDW,2007-05-20 02:55:00+00,75.56,41.72,29.70,280.00,18.00,0.00,29.88,M,22.00,None,None,None,None,M,M,M,M,None,
EDW,2007-05-20 03:55:00+00,71.96,41.00,32.60,280.00,17.00,0.00,29.89,M,M,None,None,None,None,M,M,M,M,None,
EDW,2007-05-20 04:55:00+00,70.16,39.38,32.54,220.00,5.00,0.00,29.92,M,M,None,None,None,None,M,M,M,M,None,
EDW,2007-05-20 05:55:00+00,68.90,40.46,35.43,250.00,10.00,0.00,29.92,M,M,None,None,None,None,M,M,M,M,None,
EDW,2007-05-20 06:55:00+00,66.92,38.30,34.87,210.00,10.00,0.00,29.92,M,M,None,None,None,None,M,M,M,M,None,
EDW,2007-05-20 07:55:00+00,64.58,35.60,34.01,220.00,9.00,0.00,29.91,M,M,None,None,None,None,M,M,M,M,None,
EDW,2007-05-20 08:55:00+00,63.50,34.52,33.83,220.00,9.00,0.00,29.90,M,M,None,None,None,None,M,M,M,M,None,
EDW,2007-05-20 09:55:00+00,63.86,38.66,39.34,240.00,7.00,0.00,29.89,M,M,None,None,None,None,M,M,M,M,None,
EDW,2007-05-20 10:55:00+00,62.96,38.48,40.32,230.00,6.00,0.00,29.89,M,M,None,None,None,None,M,M,M,M,None,
EDW,2007-05-20 11:55:00+00,63.14,39.56,41.79,250.00,10.00,0.00,29.89,M,M,None,None,None,None,M,M,M,M,None,
EDW,2007-05-20 12:55:00+00,60.26,36.14,40.46,210.00,10.00,0.00,29.89,M,M,None,None,None,None,M,M,M,M,None,
EDW,2007-05-20 13:55:00+00,58.64,36.32,43.17,290.00,5.00,0.00,29.90,M,M,None,None,None,None,M,M,M,M,None,
EDW,2007-05-20 14:55:00+00,70.88,42.44,35.75,210.00,9.00,0.00,29.91,M,M,None,None,None,None,M,M,M,M,None,
EDW,2007-05-20 15:55:00+00,74.84,42.98,31.93,240.00,10.00,0.00,29.90,M,M,None,None,None,None,M,M,M,M,None,
EDW,2007-05-20 16:55:00+00,79.34,42.26,26.76,230.00,11.00,0.00,29.89,M,M,None,None,None,None,M,M,M,M,None,
EDW,2007-05-20 17:55:00+00,82.76,41.90,23.61,250.00,7.00,0.00,29.88,M,M,None,None,None,None,M,M,M,M,None,
EDW,2007-05-20 18:55:00+00,86.00,41.00,20.54,270.00,10.00,0.00,29.86,M,16.00,None,None,None,None,M,M,M,M,None,
EDW,2007-05-20 19:55:00+00,89.06,39.20,17.38,290.00,13.00,0.00,29.84,M,M,None,None,None,None,M,M,M,M,None,
EDW,2007-05-20 20:55:00+00,90.32,36.68,15.13,300.00,12.00,0.00,29.81,M,18.00,None,None,None,None,M,M,M,M,None,
EDW,2007-05-20 21:55:00+00,91.04,32.36,12.45,290.00,17.00,0.00,29.78,M,23.00,None,None,None,None,M,M,M,M,None,
EDW,2007-05-20 22:55:00+00,89.42,34.88,14.49,310.00,21.00,0.00,29.77,M,27.00,None,None,None,None,M,M,M,M,None,
EDW,2007-05-20 23:55:00+00,86.36,33.80,15.30,290.00,22.00,0.00,29.76,M,26.00,None,None,None,None,M,M,M,M,None,
EDW,2007-05-21 00:55:00+00,84.02,35.60,17.72,290.00,22.00,0.00,29.75,M,26.00,None,None,None,None,M,M,M,M,None,
EDW,2007-05-21 01:55:00+00,79.34,36.68,21.53,290.00,18.00,0.00,29.77,M,29.00,None,None,None,None,M,M,M,M,None,
EDW,2007-05-21 02:55:00+00,75.20,37.58,25.58,290.00,14.00,0.00,29.78,M,21.00,None,None,None,None,M,M,M,M,None,
EDW,2007-05-21 03:55:00+00,72.86,35.24,25.23,260.00,18.00,0.00,29.77,M,24.00,None,None,None,None,M,M,M,M,None,
EDW,2007-05-21 04:55:00+00,72.50,32.00,22.43,260.00,14.00,0.00,29.79,M,M,None,None,None,None,M,M,M,M,None,
EDW,2007-05-21 05:55:00+00,71.24,35.96,27.42,270.00,17.00,0.00,29.79,M,24.00,None,None,None,None,M,M,M,M,None,
EDW,2007-05-21 06:55:00+00,71.06,37.58,29.41,260.00,20.00,0.00,29.78,M,25.00,None,None,None,None,M,M,M,M,None,
EDW,2007-05-21 07:55:00+00,69.80,37.94,31.14,270.00,17.00,0.00,29.78,M,24.00,None,None,None,None,M,M,M,M,None,
EDW,2007-05-21 08:55:00+00,68.18,40.64,36.58,240.00,20.00,0.00,29.77,M,26.00,None,None,None,None,M,M,M,M,None,
EDW,2007-05-21 09:41:00+00,64.40,42.80,45.32,210.00,15.00,0.00,29.77,M,19.00,None,None,None,None,M,M,M,M,None,
EDW,2007-05-21 09:55:00+00,65.66,41.90,41.90,240.00,15.00,0.00,29.77,M,22.00,None,None,None,None,M,M,M,M,None,
EDW,2007-05-21 10:55:00+00,62.96,43.52,49.00,220.00,14.00,0.00,29.76,M,21.00,None,None,None,None,M,M,M,M,None,
EDW,2007-05-21 11:55:00+00,62.06,42.80,49.21,230.00,15.00,0.00,29.75,M,22.00,None,None,None,None,M,M,M,M,None,
EDW,2007-05-21 12:55:00+00,60.08,43.70,54.64,220.00,13.00,0.00,29.77,M,M,None,None,None,None,M,M,M,M,None,
EDW,2007-05-21 13:55:00+00,61.70,44.60,53.39,230.00,15.00,0.00,29.77,M,21.00,None,None,None,None,M,M,M,M,None,
EDW,2007-05-21 14:55:00+00,66.38,45.32,46.58,230.00,14.00,0.00,29.78,M,M,None,None,None,None,M,M,M,M,None,
EDW,2007-05-21 15:55:00+00,72.14,44.06,36.45,240.00,14.00,0.00,29.78,M,19.00,None,None,None,None,M,M,M,M,None,
EDW,2007-05-21 16:55:00+00,76.64,42.44,29.46,250.00,14.00,0.00,29.76,M,20.00,None,None,None,None,M,M,M,M,None,
EDW,2007-05-21 17:55:00+00,79.88,43.16,27.21,230.00,16.00,0.00,29.75,M,22.00,None,None,None,None,M,M,M,M,None,
EDW,2007-05-21 18:55:00+00,82.04,41.18,23.50,270.00,14.00,0.00,29.75,M,20.00,None,None,None,None,M,M,M,M,None,
EDW,2007-05-21 19:55:00+00,83.66,39.92,21.24,260.00,11.00,0.00,29.73,M,19.00,None,None,None,None,M,M,M,M,None,
EDW,2007-05-21 20:55:00+00,84.56,41.54,21.97,270.00,19.00,0.00,29.72,M,25.00,None,None,None,None,M,M,M,M,None,
EDW,2007-05-21 21:55:00+00,83.66,43.34,24.23,250.00,15.00,0.00,29.71,M,21.00,None,None,None,None,M,M,M,M,None,
EDW,2007-05-21 22:38:00+00,82.40,42.80,24.72,290.00,21.00,0.00,29.70,M,28.00,None,None,None,None,M,M,M,M,None,
EDW,2007-05-21 22:55:00+00,81.68,44.42,26.93,280.00,24.00,0.00,29.70,M,29.00,None,None,None,None,M,M,M,M,None,
EDW,2007-05-21 23:55:00+00,79.88,44.24,28.36,290.00,24.00,0.00,29.70,M,37.00,None,None,None,None,M,M,M,M,None,
EDW,2007-05-22 00:55:00+00,78.26,44.06,29.71,280.00,23.00,0.00,29.69,M,29.00,None,None,None,None,M,M,M,M,None,
EDW,2007-05-22 01:55:00+00,74.66,44.96,34.65,280.00,24.00,0.00,29.70,M,30.00,None,None,None,None,M,M,M,M,None,
EDW,2007-05-22 02:55:00+00,71.78,44.60,37.66,280.00,26.00,0.00,29.71,M,34.00,None,None,None,None,M,M,M,M,None,
EDW,2007-05-22 03:18:00+00,68.00,46.40,45.88,220.00,16.00,0.00,29.75,M,32.00,None,None,None,None,M,M,M,M,None,
EDW,2007-05-22 03:53:00+00,69.80,42.80,37.61,280.00,20.00,0.00,29.73,M,25.00,None,None,None,None,M,M,M,M,None,
EDW,2007-05-22 03:55:00+00,69.62,42.80,37.84,280.00,23.00,0.00,29.73,M,29.00,None,None,None,None,M,M,M,M,None,
EDW,2007-05-22 04:55:00+00,67.64,41.72,38.85,240.00,15.00,0.00,29.77,M,19.00,None,None,None,None,M,M,M,M,None,
EDW,2007-05-22 05:55:00+00,68.36,39.74,35.10,260.00,25.00,0.00,29.75,M,32.00,None,None,None,None,M,M,M,M,None,
EDW,2007-05-22 06:16:00+00,64.40,44.60,48.55,180.00,14.00,0.00,29.77,M,M,None,None,None,None,M,M,M,M,None,
EDW,2007-05-22 06:37:00+00,66.20,37.40,34.51,260.00,19.00,0.00,29.76,M,M,None,None,None,None,M,M,M,M,None,
EDW,2007-05-22 06:55:00+00,67.46,36.32,31.66,270.00,18.00,0.00,29.75,M,M,None,None,None,None,M,M,M,M,None,
EDW,2007-05-22 07:55:00+00,67.46,34.52,29.48,270.00,19.00,0.00,29.75,M,24.00,None,None,None,None,M,M,M,M,None,
EDW,2007-05-22 08:55:00+00,66.56,32.90,28.50,230.00,13.00,0.00,29.77,M,M,None,None,None,None,M,M,M,M,None,
EDW,2007-05-22 09:02:00+00,62.60,41.00,45.04,220.00,13.00,0.00,29.77,M,M,None,None,None,None,M,M,M,M,None,
EDW,2007-05-22 09:55:00+00,57.20,41.54,55.75,210.00,15.00,0.00,29.78,M,M,None,None,None,None,M,M,M,M,None,
EDW,2007-05-22 10:55:00+00,55.76,42.26,60.38,210.00,13.00,0.00,29.78,M,M,None,None,None,None,M,M,M,M,None,
EDW,2007-05-22 11:55:00+00,55.40,36.14,48.18,210.00,9.00,0.00,29.79,M,M,None,None,None,None,M,M,M,M,None,
EDW,2007-05-22 12:55:00+00,55.04,35.24,47.10,210.00,10.00,0.00,29.81,M,M,None,None,None,None,M,M,M,M,None,
EDW,2007-05-22 13:55:00+00,57.92,32.00,37.28,210.00,9.00,0.00,29.82,M,M,None,None,None,None,M,M,M,M,None,
EDW,2007-05-22 14:55:00+00,64.40,28.58,25.79,220.00,7.00,0.00,29.84,M,M,None,None,None,None,M,M,M,M,None,
EDW,2007-05-22 15:55:00+00,71.60,28.94,20.42,200.00,5.00,0.00,29.84,M,M,None,None,None,None,M,M,M,M,None,
EDW,2007-05-22 16:55:00+00,73.22,29.12,19.48,M,M,0.00,29.84,M,M,None,None,None,None,M,M,M,M,None,
EDW,2007-05-22 17:55:00+00,76.46,29.12,17.48,M,M,0.00,29.83,M,M,None,None,None,None,M,M,M,M,None,
EDW,2007-05-22 18:55:00+00,78.80,28.22,15.59,M,5.00,0.00,29.82,M,M,None,None,None,None,M,M,M,M,None,
EDW,2007-05-22 19:55:00+00,83.12,26.06,12.39,300.00,13.00,0.00,29.79,M,21.00,None,None,None,None,M,M,M,M,None,
EDW,2007-05-22 20:55:00+00,83.48,16.16,8.05,270.00,18.00,0.00,29.79,M,25.00,None,None,None,None,M,M,M,M,None,
EDW,2007-05-22 21:55:00+00,82.76,18.86,9.25,310.00,17.00,0.00,29.77,M,26.00,None,None,None,None,M,M,M,M,None,
EDW,2007-05-22 22:55:00+00,82.22,16.88,8.65,300.00,21.00,0.00,29.75,M,30.00,None,None,None,None,M,M,M,M,None,
EDW,2007-05-22 23:55:00+00,80.06,21.56,11.34,290.00,21.00,0.00,29.75,M,27.00,None,None,None,None,M,M,M,M,None,
EDW,2007-05-23 00:55:00+00,78.08,24.62,13.76,300.00,21.00,0.00,29.75,M,27.00,None,None,None,None,M,M,M,M,None,
EDW,2007-05-23 01:55:00+00,75.74,23.72,14.32,290.00,19.00,0.00,29.76,M,25.00,None,None,None,None,M,M,M,M,None,
EDW,2007-05-23 02:55:00+00,73.22,23.90,15.70,270.00,20.00,0.00,29.77,M,25.00,None,None,None,None,M,M,M,M,None,
EDW,2007-05-23 03:55:00+00,71.06,28.40,20.35,250.00,16.00,0.00,29.80,M,21.00,None,None,None,None,M,M,M,M,None,
EDW,2007-05-23 04:55:00+00,65.84,38.30,36.20,230.00,14.00,0.00,29.82,M,M,None,None,None,None,M,M,M,M,None,
EDW,2007-05-23 05:55:00+00,61.88,41.18,46.52,210.00,15.00,0.00,29.81,M,M,None,None,None,None,M,M,M,M,None,
EDW,2007-05-23 06:55:00+00,61.52,38.48,42.42,230.00,14.00,0.00,29.82,M,M,None,None,None,None,M,M,M,M,None,
EDW,2007-05-23 07:55:00+00,60.26,36.32,40.75,230.00,15.00,0.00,29.84,M,M,None,None,None,None,M,M,M,M,None,
EDW,2007-05-23 08:55:00+00,58.82,36.32,42.89,220.00,11.00,0.00,29.87,M,M,None,None,None,None,M,M,M,M,None,
EDW,2007-05-23 09:55:00+00,55.04,41.36,59.87,200.00,7.00,0.00,29.89,M,M,None,None,None,None,M,M,M,M,None,
EDW,2007-05-23 10:55:00+00,54.86,38.84,54.64,250.00,2.00,0.00,29.91,M,M,None,None,None,None,M,M,M,M,None,
EDW,2007-05-23 11:55:00+00,51.26,36.68,57.29,150.00,3.00,0.00,29.93,M,M,None,None,None,None,M,M,M,M,None,
EDW,2007-05-23 12:55:00+00,51.44,33.62,50.39,M,M,0.00,29.95,M,M,None,None,None,None,M,M,M,M,None,
EDW,2007-05-23 13:55:00+00,55.76,32.90,41.79,360.00,2.00,0.00,29.98,M,M,None,None,None,None,M,M,M,M,None,
EDW,2007-05-23 14:55:00+00,62.42,23.00,21.93,M,2.00,0.00,30.00,M,M,None,None,None,None,M,M,M,M,None,
EDW,2007-05-23 15:55:00+00,70.88,18.14,13.31,40.00,15.00,0.00,30.01,M,22.00,None,None,None,None,M,M,M,M,None,
EDW,2007-05-23 16:55:00+00,73.22,16.16,11.29,40.00,20.00,0.00,30.01,M,25.00,None,None,None,None,M,M,M,M,None,
EDW,2007-05-23 17:55:00+00,74.48,17.06,11.25,70.00,14.00,0.00,30.01,M,21.00,None,None,None,None,M,M,M,M,None,
EDW,2007-05-23 18:55:00+00,76.64,16.70,10.31,40.00,7.00,0.00,30.00,M,17.00,None,None,None,None,M,M,M,M,None,
EDW,2007-05-23 19:55:00+00,78.44,15.62,9.27,40.00,12.00,0.00,29.99,M,15.00,None,None,None,None,M,M,M,M,None,
EDW,2007-05-23 20:55:00+00,79.70,13.82,8.22,50.00,6.00,0.00,29.97,M,M,None,None,None,None,M,M,M,M,None,
EDW,2007-05-23 21:55:00+00,79.52,13.82,8.27,30.00,7.00,0.00,29.96,M,17.00,None,None,None,None,M,M,M,M,None,
EDW,2007-05-23 22:55:00+00,80.06,11.12,7.21,50.00,3.00,0.00,29.94,M,M,None,None,None,None,M,M,M,M,None,
EDW,2007-05-23 23:55:00+00,81.32,8.60,6.18,70.00,8.00,0.00,29.94,M,M,None,None,None,None,M,M,M,M,None,
EDW,2007-05-24 00:59:00+00,80.60,8.60,6.33,60.00,11.00,0.00,29.94,M,M,None,None,None,None,M,M,M,M,None,
EDW,2007-05-24 01:55:00+00,79.70,7.34,6.16,90.00,8.00,0.00,29.93,M,M,None,None,None,None,M,M,M,M,None,
EDW,2007-05-24 02:55:00+00,76.46,11.30,8.18,90.00,7.00,0.00,29.95,M,M,None,None,None,None,M,M,M,M,None,
EDW,2007-05-24 03:55:00+00,71.06,12.02,10.13,100.00,5.00,0.00,29.96,M,M,None,None,None,None,M,M,M,M,None,
EDW,2007-05-24 04:55:00+00,67.46,11.48,11.19,110.00,6.00,0.00,29.97,M,M,None,None,None,None,M,M,M,M,None,
EDW,2007-05-24 05:55:00+00,64.58,11.12,12.17,M,M,0.00,29.98,M,M,None,None,None,None,M,M,M,M,None,
EDW,2007-05-24 06:55:00+00,64.04,10.76,12.20,320.00,5.00,0.00,29.98,M,M,None,None,None,None,M,M,M,M,None,
EDW,2007-05-24 07:55:00+00,57.20,10.04,15.07,240.00,9.00,0.00,29.98,M,M,None,None,None,None,M,M,M,M,None,
EDW,2007-05-24 08:55:00+00,54.68,8.42,15.35,220.00,5.00,0.00,29.97,M,M,None,None,None,None,M,M,M,M,None,
EDW,2007-05-24 09:55:00+00,51.44,8.60,17.43,180.00,3.00,0.00,29.98,M,M,None,None,None,None,M,M,M,M,None,
EDW,2007-05-24 10:55:00+00,49.64,7.88,18.04,250.00,4.00,0.00,29.98,M,M,None,None,None,None,M,M,M,M,None,
EDW,2007-05-24 11:55:00+00,48.74,10.04,20.56,270.00,2.00,0.00,29.97,M,M,None,None,None,None,M,M,M,M,None,
EDW,2007-05-24 12:55:00+00,50.54,12.20,21.16,270.00,3.00,0.00,29.98,M,M,None,None,None,None,M,M,M,M,None,
EDW,2007-05-24 13:55:00+00,52.88,17.24,24.19,240.00,5.00,0.00,29.99,M,M,None,None,None,None,M,M,M,M,None,
EDW,2007-05-24 14:55:00+00,60.62,18.32,19.16,200.00,3.00,0.00,30.00,M,M,None,None,None,None,M,M,M,M,None,
EDW,2007-05-24 15:55:00+00,66.20,17.60,15.27,180.00,3.00,0.00,30.00,M,M,None,None,None,None,M,M,M,M,None,
EDW,2007-05-24 16:55:00+00,71.42,18.50,13.27,10.00,3.00,0.00,29.99,M,M,None,None,None,None,M,M,M,M,None,
EDW,2007-05-24 17:55:00+00,76.28,22.46,13.34,M,3.00,0.00,29.98,M,M,None,None,None,None,M,M,M,M,None,
EDW,2007-05-24 18:55:00+00,79.70,21.20,11.30,M,4.00,0.00,29.96,M,M,None,None,None,None,M,M,M,M,None,
EDW,2007-05-24 19:55:00+00,81.32,17.78,9.26,360.00,3.00,0.00,29.94,M,M,None,None,None,None,M,M,M,M,None,
EDW,2007-05-24 20:55:00+00,84.20,17.24,8.24,M,M,0.00,29.92,M,M,None,None,None,None,M,M,M,M,None,
EDW,2007-05-24 21:55:00+00,86.00,15.62,7.25,20.00,7.00,0.00,29.90,M,M,None,None,None,None,M,M,M,M,None,
EDW,2007-05-24 22:55:00+00,86.18,15.62,7.21,M,3.00,0.00,29.87,M,M,None,None,None,None,M,M,M,M,None,
EDW,2007-05-24 23:55:00+00,87.80,13.28,6.18,M,5.00,0.00,29.86,M,M,None,None,None,None,M,M,M,M,None,
EDW,2007-05-25 00:55:00+00,86.90,29.12,12.45,210.00,14.00,0.00,29.85,M,20.00,None,None,None,None,M,M,M,M,None,
EDW,2007-05-25 01:55:00+00,81.68,37.40,20.52,240.00,19.00,0.00,29.86,M,25.00,None,None,None,None,M,M,M,M,None,
EDW,2007-05-25 02:55:00+00,77.90,33.08,19.56,240.00,15.00,0.00,29.88,M,24.00,None,None,None,None,M,M,M,M,None,
EDW,2007-05-25 03:55:00+00,74.48,30.02,19.37,240.00,11.00,0.00,29.90,M,M,None,None,None,None,M,M,M,M,None,
EDW,2007-05-25 04:55:00+00,71.24,29.84,21.45,230.00,10.00,0.00,29.92,M,M,None,None,None,None,M,M,M,M,None,
EDW,2007-05-25 05:55:00+00,68.18,29.48,23.47,230.00,8.00,0.00,29.93,M,M,None,None,None,None,M,M,M,M,None,
EDW,2007-05-25 06:55:00+00,66.56,29.12,24.46,230.00,9.00,0.00,29.93,M,M,None,None,None,None,M,M,M,M,None,
EDW,2007-05-25 07:55:00+00,64.40,27.32,24.49,230.00,9.00,0.00,29.92,M,M,None,None,None,None,M,M,M,M,None,
EDW,2007-05-25 08:55:00+00,63.68,27.50,25.30,230.00,9.00,0.00,29.92,M,M,None,None,None,None,M,M,M,M,None,
EDW,2007-05-25 09:55:00+00,61.34,29.12,29.36,220.00,8.00,0.00,29.92,M,M,None,None,None,None,M,M,M,M,None,
EDW,2007-05-25 10:55:00+00,57.56,28.22,32.39,240.00,8.00,0.00,29.92,M,M,None,None,None,None,M,M,M,M,None,
EDW,2007-05-25 11:26:00+00,55.40,28.40,35.28,220.00,6.00,0.00,29.92,M,M,None,None,None,None,M,M,M,M,None,
EDW,2007-05-25 11:55:00+00,55.94,28.76,35.11,230.00,3.00,0.00,29.92,M,M,None,None,None,None,M,M,M,M,None,
EDW,2007-05-25 12:55:00+00,54.86,27.32,34.42,250.00,5.00,0.00,29.93,M,M,None,None,None,None,M,M,M,M,None,
EDW,2007-05-25 13:55:00+00,57.56,25.34,28.76,M,M,0.00,29.95,M,M,None,None,None,None,M,M,M,M,None,
EDW,2007-05-25 14:55:00+00,63.68,26.96,24.74,M,M,0.00,29.96,M,M,None,None,None,None,M,M,M,M,None,
EDW,2007-05-25 15:55:00+00,69.44,28.58,21.66,20.00,3.00,0.00,29.96,M,M,None,None,None,None,M,M,M,M,None,
EDW,2007-05-25 16:55:00+00,76.28,28.94,17.45,M,M,0.00,29.96,M,M,None,None,None,None,M,M,M,M,None,
EDW,2007-05-25 17:55:00+00,80.06,27.32,14.42,30.00,4.00,0.00,29.95,M,M,None,None,None,None,M,M,M,M,None,
EDW,2007-05-25 18:55:00+00,83.30,24.98,11.78,50.00,4.00,0.00,29.95,M,M,None,None,None,None,M,M,M,M,None,
EDW,2007-05-25 19:55:00+00,85.64,23.72,10.36,M,3.00,0.00,29.93,M,M,None,None,None,None,M,M,M,M,None,
EDW,2007-05-25 20:55:00+00,87.62,25.16,10.33,M,M,0.00,29.91,M,M,None,None,None,None,M,M,M,M,None,
EDW,2007-05-25 21:55:00+00,91.04,25.34,9.35,160.00,7.00,0.00,29.89,M,M,None,None,None,None,M,M,M,M,None,
EDW,2007-05-25 22:55:00+00,91.40,25.52,9.31,240.00,8.00,0.00,29.87,M,M,None,None,None,None,M,M,M,M,None,
EDW,2007-05-25 23:55:00+00,91.94,33.80,12.83,260.00,13.00,0.00,29.85,M,20.00,None,None,None,None,M,M,M,M,None,
EDW,2007-05-26 00:55:00+00,88.52,37.58,16.59,250.00,18.00,0.00,29.85,M,23.00,None,None,None,None,M,M,M,M,None,
EDW,2007-05-26 01:55:00+00,82.76,39.56,21.56,250.00,20.00,0.00,29.87,M,26.00,None,None,None,None,M,M,M,M,None,
EDW,2007-05-26 02:55:00+00,78.62,34.88,20.53,240.00,18.00,0.00,29.89,M,M,None,None,None,None,M,M,M,M,None,
EDW,2007-05-26 03:55:00+00,76.10,31.46,19.45,240.00,13.00,0.00,29.91,M,M,None,None,None,None,M,M,M,M,None,
EDW,2007-05-26 04:55:00+00,73.04,32.54,22.51,240.00,13.00,0.00,29.92,M,M,None,None,None,None,M,M,M,M,None,
EDW,2007-05-26 05:55:00+00,70.70,33.62,25.45,220.00,8.00,0.00,29.92,M,M,None,None,None,None,M,M,M,M,None,
EDW,2007-05-26 06:55:00+00,69.26,31.46,24.51,230.00,9.00,0.00,29.92,M,M,None,None,None,None,M,M,M,M,None,
EDW,2007-05-26 07:55:00+00,68.54,31.82,25.49,230.00,8.00,0.00,29.91,M,M,None,None,None,None,M,M,M,M,None,
EDW,2007-05-26 08:55:00+00,64.76,31.28,28.42,210.00,8.00,0.00,29.90,M,M,None,None,None,None,M,M,M,M,None,
EDW,2007-05-26 09:55:00+00,63.14,32.36,31.42,200.00,8.00,0.00,29.90,M,M,None,None,None,None,M,M,M,M,None,
EDW,2007-05-26 10:55:00+00,63.50,36.86,37.12,210.00,11.00,0.00,29.90,M,M,None,None,None,None,M,M,M,M,None,
EDW,2007-05-26 11:55:00+00,63.68,37.40,37.68,200.00,9.00,0.00,29.91,M,M,None,None,None,None,M,M,M,M,None,
EDW,2007-05-26 12:55:00+00,60.62,38.30,43.49,250.00,6.00,0.00,29.92,M,M,None,None,None,None,M,M,M,M,None,
EDW,2007-05-26 13:55:00+00,62.24,35.60,36.92,230.00,8.00,0.00,29.92,M,M,None,None,None,None,M,M,M,M,None,
EDW,2007-05-26 14:55:00+00,70.34,38.66,31.45,220.00,9.00,0.00,29.94,M,M,None,None,None,None,M,M,M,M,None,
EDW,2007-05-26 15:55:00+00,76.82,39.20,25.83,200.00,9.00,0.00,29.95,M,M,None,None,None,None,M,M,M,M,None,
EDW,2007-05-26 16:55:00+00,80.78,37.76,21.43,M,4.00,0.00,29.94,M,M,None,None,None,None,M,M,M,M,None,
EDW,2007-05-26 17:55:00+00,85.28,34.88,16.53,190.00,7.00,0.00,29.93,M,M,None,None,None,None,M,M,M,M,None,
EDW,2007-05-26 18:55:00+00,87.08,34.70,15.50,M,2.00,0.00,29.93,M,M,None,None,None,None,M,M,M,M,None,
EDW,2007-05-26 19:55:00+00,89.06,33.98,14.14,240.00,4.00,0.00,29.91,M,M,None,None,None,None,M,M,M,M,None,
EDW,2007-05-26 20:55:00+00,91.04,30.74,11.67,230.00,7.00,0.00,29.89,M,M,None,None,None,None,M,M,M,M,None,
EDW,2007-05-26 21:55:00+00,93.20,34.16,12.51,250.00,15.00,0.00,29.87,M,21.00,None,None,None,None,M,M,M,M,None,
EDW,2007-05-26 22:55:00+00,91.76,32.90,12.44,240.00,15.00,0.00,29.86,M,M,None,None,None,None,M,M,M,M,None,
EDW,2007-05-26 23:55:00+00,89.24,35.78,15.11,240.00,22.00,0.00,29.85,M,28.00,None,None,None,None,M,M,M,M,None,
EDW,2007-05-27 00:55:00+00,86.36,39.02,18.80,250.00,22.00,0.00,29.85,M,29.00,None,None,None,None,M,M,M,M,None,
EDW,2007-05-27 01:55:00+00,82.58,39.74,21.84,240.00,21.00,0.00,29.86,M,28.00,None,None,None,None,M,M,M,M,None,
EDW,2007-05-27 02:55:00+00,77.90,38.84,24.57,240.00,16.00,0.00,29.87,M,M,None,None,None,None,M,M,M,M,None,
EDW,2007-05-27 03:55:00+00,73.94,38.30,27.45,240.00,15.00,0.00,29.89,M,21.00,None,None,None,None,M,M,M,M,None,
EDW,2007-05-27 04:55:00+00,71.78,40.46,32.12,230.00,13.00,0.00,29.91,M,M,None,None,None,None,M,M,M,M,None,
EDW,2007-05-27 05:55:00+00,70.52,38.12,30.60,230.00,10.00,0.00,29.91,M,M,None,None,None,None,M,M,M,M,None,
EDW,2007-05-27 06:55:00+00,68.72,35.60,29.46,230.00,9.00,0.00,29.90,M,M,None,None,None,None,M,M,M,M,None,
EDW,2007-05-27 07:55:00+00,66.92,35.78,31.57,210.00,9.00,0.00,29.90,M,M,None,None,None,None,M,M,M,M,None,
EDW,2007-05-27 08:55:00+00,66.02,36.14,33.04,220.00,9.00,0.00,29.89,M,M,None,None,None,None,M,M,M,M,None,
EDW,2007-05-27 09:55:00+00,63.50,40.28,42.44,210.00,10.00,0.00,29.89,M,M,None,None,None,None,M,M,M,M,None,
EDW,2007-05-27 10:55:00+00,62.60,40.28,43.80,220.00,10.00,0.00,29.89,M,M,None,None,None,None,M,M,M,M,None,
EDW,2007-05-27 11:55:00+00,60.98,41.00,47.70,230.00,9.00,0.00,29.89,M,M,None,None,None,None,M,M,M,M,None,
EDW,2007-05-27 12:55:00+00,60.98,41.90,49.38,210.00,8.00,0.00,29.90,M,M,None,None,None,None,M,M,M,M,None,
EDW,2007-05-27 13:55:00+00,63.50,41.18,43.94,210.00,10.00,0.00,29.91,M,M,None,None,None,None,M,M,M,M,None,
EDW,2007-05-27 14:55:00+00,68.18,40.64,36.58,220.00,8.00,0.00,29.92,M,M,None,None,None,None,M,M,M,M,None,
EDW,2007-05-27 15:55:00+00,75.02,39.56,27.81,240.00,10.00,0.00,29.92,M,M,None,None,None,None,M,M,M,M,None,
EDW,2007-05-27 16:55:00+00,81.68,38.66,21.56,250.00,11.00,0.00,29.92,M,M,None,None,None,None,M,M,M,M,None,
EDW,2007-05-27 17:55:00+00,84.38,38.12,19.34,220.00,9.00,0.00,29.91,M,M,None,None,None,None,M,M,M,M,None,
EDW,2007-05-27 18:55:00+00,87.80,37.40,16.86,240.00,10.00,0.00,29.90,M,16.00,None,None,None,None,M,M,M,M,None,
EDW,2007-05-27 19:55:00+00,89.78,34.34,14.03,260.00,11.00,0.00,29.89,M,18.00,None,None,None,None,M,M,M,M,None,
EDW,2007-05-27 20:55:00+00,90.14,32.00,12.63,230.00,17.00,0.00,29.88,M,26.00,None,None,None,None,M,M,M,M,None,
EDW,2007-05-27 21:55:00+00,89.78,30.56,12.05,250.00,23.00,0.00,29.86,M,28.00,None,None,None,None,M,M,M,M,None,
EDW,2007-05-27 22:55:00+00,88.34,35.06,15.11,250.00,26.00,0.00,29.84,M,33.00,None,None,None,None,M,M,M,M,None,
EDW,2007-05-27 23:55:00+00,85.10,38.48,19.17,250.00,26.00,0.00,29.83,M,33.00,None,None,None,None,M,M,M,M,None,
EDW,2007-05-28 00:55:00+00,83.12,37.04,19.31,240.00,22.00,0.00,29.83,M,31.00,None,None,None,None,M,M,M,M,None,
EDW,2007-05-28 01:55:00+00,79.70,36.14,20.83,240.00,26.00,0.00,29.83,M,32.00,None,None,None,None,M,M,M,M,None,
EDW,2007-05-28 02:55:00+00,75.56,37.76,25.46,250.00,22.00,0.00,29.85,M,31.00,None,None,None,None,M,M,M,M,None,
EDW,2007-05-28 03:55:00+00,72.14,36.50,27.17,250.00,20.00,0.00,29.87,M,M,None,None,None,None,M,M,M,M,None,
EDW,2007-05-28 04:55:00+00,68.72,42.62,38.75,250.00,15.00,0.00,29.89,M,M,None,None,None,None,M,M,M,M,None,
EDW,2007-05-28 05:55:00+00,66.74,43.52,42.95,250.00,14.00,0.00,29.89,M,M,None,None,None,None,M,M,M,M,None,
EDW,2007-05-28 06:55:00+00,65.48,42.08,42.46,240.00,14.00,0.00,29.89,M,M,None,None,None,None,M,M,M,M,None,
EDW,2007-05-28 07:55:00+00,64.94,39.74,39.51,240.00,14.00,0.00,29.88,M,M,None,None,None,None,M,M,M,M,None,
EDW,2007-05-28 08:55:00+00,64.04,40.10,41.35,240.00,15.00,0.00,29.87,M,M,None,None,None,None,M,M,M,M,None,
EDW,2007-05-28 09:55:00+00,62.78,37.76,39.44,240.00,10.00,0.00,29.86,M,M,None,None,None,None,M,M,M,M,None,
EDW,2007-05-28 10:55:00+00,60.98,37.58,41.74,210.00,9.00,0.00,29.86,M,M,None,None,None,None,M,M,M,M,None,
EDW,2007-05-28 11:55:00+00,60.62,38.84,44.42,230.00,11.00,0.00,29.85,M,M,None,None,None,None,M,M,M,M,None,
EDW,2007-05-28 12:55:00+00,60.98,36.86,40.57,240.00,11.00,0.00,29.85,M,M,None,None,None,None,M,M,M,M,None,
EDW,2007-05-28 13:55:00+00,63.50,35.60,35.32,230.00,12.00,0.00,29.87,M,M,None,None,None,None,M,M,M,M,None,
EDW,2007-05-28 14:55:00+00,68.18,30.56,24.52,230.00,13.00,0.00,29.88,M,M,None,None,None,None,M,M,M,M,None,
EDW,2007-05-28 15:55:00+00,73.76,30.74,20.43,240.00,15.00,0.00,29.88,M,20.00,None,None,None,None,M,M,M,M,None,
EDW,2007-05-28 16:55:00+00,77.90,34.52,20.72,230.00,16.00,0.00,29.87,M,20.00,None,None,None,None,M,M,M,M,None,
EDW,2007-05-28 17:55:00+00,81.14,35.60,19.45,240.00,15.00,0.00,29.87,M,18.00,None,None,None,None,M,M,M,M,None,
EDW,2007-05-28 18:55:00+00,83.66,35.24,17.67,230.00,14.00,0.00,29.86,M,24.00,None,None,None,None,M,M,M,M,None,
EDW,2007-05-28 19:55:00+00,85.82,32.36,14.69,240.00,13.00,0.00,29.85,M,M,None,None,None,None,M,M,M,M,None,
EDW,2007-05-28 20:55:00+00,87.44,31.82,13.65,250.00,14.00,0.00,29.84,M,22.00,None,None,None,None,M,M,M,M,None,
EDW,2007-05-28 21:55:00+00,87.80,30.20,12.64,230.00,20.00,0.00,29.83,M,23.00,None,None,None,None,M,M,M,M,None,
EDW,2007-05-28 22:55:00+00,86.72,30.38,13.18,240.00,20.00,0.00,29.82,M,27.00,None,None,None,None,M,M,M,M,None,
EDW,2007-05-28 23:55:00+00,85.28,26.06,11.56,250.00,22.00,0.00,29.81,M,28.00,None,None,None,None,M,M,M,M,None,
EDW,2007-05-29 00:55:00+00,81.50,27.68,13.96,240.00,23.00,0.00,29.82,M,30.00,None,None,None,None,M,M,M,M,None,
EDW,2007-05-29 01:55:00+00,77.00,31.46,18.88,240.00,21.00,0.00,29.82,M,29.00,None,None,None,None,M,M,M,M,None,
EDW,2007-05-29 02:55:00+00,71.96,33.80,24.56,240.00,18.00,0.00,29.84,M,25.00,None,None,None,None,M,M,M,M,None,
EDW,2007-05-29 03:55:00+00,68.36,32.00,25.83,230.00,14.00,0.00,29.86,M,19.00,None,None,None,None,M,M,M,M,None,
EDW,2007-05-29 04:55:00+00,66.92,30.38,25.42,240.00,16.00,0.00,29.88,M,20.00,None,None,None,None,M,M,M,M,None,
EDW,2007-05-29 05:55:00+00,66.02,28.58,24.37,230.00,14.00,0.00,29.88,M,M,None,None,None,None,M,M,M,M,None,
EDW,2007-05-29 06:55:00+00,63.86,27.86,25.52,220.00,9.00,0.00,29.88,M,M,None,None,None,None,M,M,M,M,None,
EDW,2007-05-29 07:55:00+00,62.78,28.58,27.30,230.00,12.00,0.00,29.87,M,M,None,None,None,None,M,M,M,M,None,
EDW,2007-05-29 08:55:00+00,61.34,30.02,30.46,230.00,12.00,0.00,29.87,M,M,None,None,None,None,M,M,M,M,None,
EDW,2007-05-29 09:55:00+00,58.82,29.30,32.35,230.00,8.00,0.00,29.87,M,M,None,None,None,None,M,M,M,M,None,
EDW,2007-05-29 10:55:00+00,59.54,31.10,33.93,210.00,10.00,0.00,29.88,M,M,None,None,None,None,M,M,M,M,None,
EDW,2007-05-29 11:55:00+00,58.46,33.62,39.03,220.00,11.00,0.00,29.88,M,M,None,None,None,None,M,M,M,M,None,
EDW,2007-05-29 12:55:00+00,57.02,40.64,54.19,220.00,10.00,0.00,29.89,M,M,None,None,None,None,M,M,M,M,None,
EDW,2007-05-29 13:55:00+00,60.26,38.66,44.67,220.00,10.00,0.00,29.91,M,M,None,None,None,None,M,M,M,M,None,
EDW,2007-05-29 14:55:00+00,66.38,34.34,30.38,230.00,11.00,0.00,29.93,M,M,None,None,None,None,M,M,M,M,None,
EDW,2007-05-29 15:55:00+00,73.04,33.62,23.51,250.00,9.00,0.00,29.94,M,M,None,None,None,None,M,M,M,M,None,
EDW,2007-05-29 16:55:00+00,77.36,37.94,24.15,M,3.00,0.00,29.94,M,M,None,None,None,None,M,M,M,M,None,
EDW,2007-05-29 17:55:00+00,81.14,39.38,22.57,280.00,3.00,0.00,29.94,M,M,None,None,None,None,M,M,M,M,None,
EDW,2007-05-29 18:55:00+00,84.20,39.56,20.58,M,3.00,0.00,29.94,M,M,None,None,None,None,M,M,M,M,None,
EDW,2007-05-29 19:55:00+00,86.36,38.30,18.28,M,4.00,0.00,29.93,M,M,None,None,None,None,M,M,M,M,None,
EDW,2007-05-29 20:55:00+00,89.96,37.04,15.52,M,3.00,0.00,29.92,M,M,None,None,None,None,M,M,M,M,None,
EDW,2007-05-29 21:55:00+00,91.22,34.52,13.50,M,3.00,0.00,29.90,M,M,None,None,None,None,M,M,M,M,None,
EDW,2007-05-29 22:55:00+00,91.76,40.46,16.77,250.00,17.00,0.00,29.89,M,20.00,None,None,None,None,M,M,M,M,None,
EDW,2007-05-29 23:55:00+00,90.86,39.38,16.54,250.00,18.00,0.00,29.88,M,22.00,None,None,None,None,M,M,M,M,None,
EDW,2007-05-30 00:55:00+00,86.72,36.32,16.72,240.00,21.00,0.00,29.89,M,25.00,None,None,None,None,M,M,M,M,None,
EDW,2007-05-30 01:55:00+00,80.24,41.72,25.45,240.00,21.00,0.00,29.90,M,30.00,None,None,None,None,M,M,M,M,None,
EDW,2007-05-30 02:55:00+00,74.30,39.38,28.29,240.00,21.00,0.00,29.91,M,27.00,None,None,None,None,M,M,M,M,None,
EDW,2007-05-30 03:55:00+00,70.52,40.64,33.76,240.00,18.00,0.00,29.93,M,24.00,None,None,None,None,M,M,M,M,None,
EDW,2007-05-30 04:55:00+00,68.54,38.48,33.21,240.00,19.00,0.00,29.95,M,M,None,None,None,None,M,M,M,M,None,
EDW,2007-05-30 05:55:00+00,67.64,35.60,30.58,240.00,13.00,0.00,29.97,M,M,None,None,None,None,M,M,M,M,None,
EDW,2007-05-30 06:55:00+00,66.38,33.62,29.52,230.00,11.00,0.00,29.97,M,M,None,None,None,None,M,M,M,M,None,
EDW,2007-05-30 07:55:00+00,66.56,26.06,21.56,240.00,13.00,0.00,29.96,M,M,None,None,None,None,M,M,M,M,None,
EDW,2007-05-30 08:55:00+00,66.02,24.26,20.38,240.00,13.00,0.00,29.96,M,M,None,None,None,None,M,M,M,M,None,
EDW,2007-05-30 09:55:00+00,64.22,23.90,21.38,220.00,10.00,0.00,29.95,M,M,None,None,None,None,M,M,M,M,None,
EDW,2007-05-30 10:55:00+00,61.70,30.02,30.07,210.00,10.00,0.00,29.95,M,M,None,None,None,None,M,M,M,M,None,
EDW,2007-05-30 11:55:00+00,59.18,37.04,43.57,210.00,10.00,0.00,29.96,M,M,None,None,None,None,M,M,M,M,None,
EDW,2007-05-30 12:55:00+00,58.10,38.66,48.26,210.00,9.00,0.00,29.97,M,M,None,None,None,None,M,M,M,M,None,
EDW,2007-05-30 13:55:00+00,61.34,33.26,34.72,220.00,9.00,0.00,29.98,M,M,None,None,None,None,M,M,M,M,None,
EDW,2007-05-30 14:55:00+00,69.80,23.54,17.37,230.00,11.00,0.00,29.99,M,M,None,None,None,None,M,M,M,M,None,
EDW,2007-05-30 15:55:00+00,75.38,32.72,20.96,220.00,10.00,0.00,30.00,M,M,None,None,None,None,M,M,M,M,None,
EDW,2007-05-30 16:55:00+00,78.98,38.48,23.38,220.00,8.00,0.00,30.00,M,M,None,None,None,None,M,M,M,M,None,
EDW,2007-05-30 17:55:00+00,83.84,40.46,21.56,250.00,12.00,0.00,30.00,M,M,None,None,None,None,M,M,M,M,None,
EDW,2007-05-30 18:55:00+00,86.36,15.80,7.22,230.00,8.00,0.00,29.98,M,M,None,None,None,None,M,M,M,M,None,
EDW,2007-05-30 19:55:00+00,89.06,17.24,7.06,230.00,9.00,0.00,29.97,M,16.00,None,None,None,None,M,M,M,M,None,
EDW,2007-05-30 20:55:00+00,90.32,20.12,7.67,240.00,9.00,0.00,29.96,M,16.00,None,None,None,None,M,M,M,M,None,
EDW,2007-05-30 21:55:00+00,91.22,22.64,8.30,240.00,13.00,0.00,29.94,M,21.00,None,None,None,None,M,M,M,M,None,
EDW,2007-05-30 22:55:00+00,89.78,22.82,8.75,240.00,17.00,0.00,29.93,M,25.00,None,None,None,None,M,M,M,M,None,
EDW,2007-05-30 23:55:00+00,87.98,28.22,11.59,250.00,18.00,0.00,29.91,M,26.00,None,None,None,None,M,M,M,M,None,
EDW,2008-05-01 00:55:00+00,63.50,26.78,24.72,260.00,32.00,0.00,29.78,30.00,37.00,None,None,None,None,M,M,M,M,None,
EDW,2008-05-01 01:55:00+00,60.62,26.06,26.56,260.00,32.00,0.00,29.77,45.00,41.00,None,None,None,None,M,M,M,M,None,
EDW,2008-05-01 02:55:00+00,58.10,23.00,25.58,270.00,27.00,0.00,29.78,40.00,36.00,None,None,None,None,M,M,M,M,None,
EDW,2008-05-01 03:55:00+00,55.58,22.64,27.59,280.00,23.00,0.00,29.83,30.00,26.00,None,None,None,None,M,M,M,M,None,
EDW,2008-05-01 04:55:00+00,55.22,22.10,27.33,180.00,8.00,0.00,29.89,30.00,18.00,None,None,None,None,M,M,M,M,None,
EDW,2008-05-01 05:55:00+00,54.14,23.54,30.20,240.00,18.00,0.00,29.89,10.00,31.00,None,None,None,None,M,M,M,M,None,
EDW,2008-05-01 06:55:00+00,52.88,21.74,29.32,280.00,33.00,0.25,29.83,10.00,43.00,None,None,None,None,M,M,M,M,None,
EDW,2008-05-01 07:55:00+00,52.34,21.20,29.23,250.00,15.00,0.00,29.90,10.00,27.00,None,None,None,None,M,M,M,M,None,
EDW,2008-05-01 08:55:00+00,51.44,18.50,26.93,250.00,18.00,0.00,29.91,10.00,23.00,None,None,None,None,M,M,M,M,None,
EDW,2008-05-01 09:55:00+00,50.36,16.88,26.14,270.00,13.00,0.00,29.92,10.00,M,None,None,None,None,M,M,M,M,None,
EDW,2008-05-01 10:55:00+00,46.58,15.62,28.51,230.00,6.00,0.00,29.93,10.00,M,None,None,None,None,M,M,M,M,None,
EDW,2008-05-01 11:55:00+00,43.16,14.72,31.22,220.00,4.00,0.00,29.95,10.00,M,None,None,None,None,M,M,M,M,None,
EDW,2008-05-01 12:55:00+00,40.64,18.32,40.22,190.00,5.00,0.00,29.97,40.00,M,None,None,None,None,M,M,M,M,None,
EDW,2008-05-01 13:55:00+00,43.16,20.48,40.02,M,M,0.00,30.00,40.00,M,None,None,None,None,M,M,M,M,None,
EDW,2008-05-01 14:55:00+00,47.66,20.12,33.23,M,M,0.00,30.03,40.00,M,None,None,None,None,M,M,M,M,None,
EDW,2008-05-01 15:55:00+00,52.52,18.68,26.08,50.00,6.00,0.00,30.04,40.00,M,None,None,None,None,M,M,M,M,None,
EDW,2008-05-01 16:55:00+00,57.56,16.16,19.47,60.00,9.00,0.00,30.04,35.00,M,None,None,None,None,M,M,M,M,None,
EDW,2008-05-01 17:55:00+00,62.42,10.04,12.51,40.00,8.00,0.00,30.04,35.00,M,None,None,None,None,M,M,M,M,None,
EDW,2008-05-01 18:55:00+00,64.76,9.68,11.34,50.00,11.00,0.00,30.03,40.00,19.00,None,None,None,None,M,M,M,M,None,
EDW,2008-05-01 19:55:00+00,66.56,10.76,11.18,60.00,10.00,0.00,30.01,35.00,16.00,None,None,None,None,M,M,M,M,None,
EDW,2008-05-01 20:55:00+00,68.72,10.22,10.13,70.00,10.00,0.00,30.00,35.00,17.00,None,None,None,None,M,M,M,M,None,
EDW,2008-05-01 21:55:00+00,69.08,10.58,10.17,50.00,6.00,0.00,29.98,45.00,M,None,None,None,None,M,M,M,M,None,
EDW,2008-05-01 22:55:00+00,70.16,8.96,9.11,50.00,7.00,0.00,29.96,45.00,16.00,None,None,None,None,M,M,M,M,None,
EDW,2008-05-01 23:55:00+00,70.88,9.68,9.18,70.00,5.00,0.00,29.95,45.00,M,None,None,None,None,M,M,M,M,None,
EDW,2008-05-02 00:55:00+00,70.88,9.68,9.18,40.00,6.00,0.00,29.95,45.00,M,None,None,None,None,M,M,M,M,None,
EDW,2008-05-02 01:55:00+00,70.16,9.14,9.19,60.00,3.00,0.00,29.95,45.00,M,None,None,None,None,M,M,M,M,None,
EDW,2008-05-02 02:55:00+00,65.66,10.04,11.17,M,M,0.00,29.96,45.00,M,None,None,None,None,M,M,M,M,None,
EDW,2008-05-02 03:55:00+00,62.60,29.30,28.29,320.00,7.00,0.00,29.98,45.00,M,None,None,None,None,M,M,M,M,None,
EDW,2008-05-02 04:55:00+00,59.72,28.58,30.42,320.00,7.00,0.00,29.99,30.00,M,None,None,None,None,M,M,M,M,None,
EDW,2008-05-02 05:26:00+00,59.00,28.40,30.98,320.00,5.00,0.00,30.01,3.00,M,None,None,None,None,M,M,M,M,None,
EDW,2008-05-02 05:55:00+00,54.86,26.06,32.67,160.00,5.00,0.00,30.01,8.00,M,None,None,None,None,M,M,M,M,None,
EDW,2008-05-02 06:55:00+00,51.62,27.50,39.05,230.00,5.00,0.00,30.01,7.00,M,None,None,None,None,M,M,M,M,None,
EDW,2008-05-02 07:55:00+00,47.48,25.34,41.67,220.00,5.00,0.00,30.02,6.00,M,None,None,None,None,M,M,M,M,None,
EDW,2008-05-02 08:55:00+00,45.86,25.88,45.30,230.00,5.00,0.00,30.02,7.00,M,None,None,None,None,M,M,M,M,None,
EDW,2008-05-02 09:55:00+00,42.80,23.54,46.18,260.00,3.00,0.00,30.00,6.00,M,None,None,None,None,M,M,M,M,None,
EDW,2008-05-02 10:55:00+00,40.46,17.96,39.88,250.00,3.00,0.00,30.01,7.00,M,None,None,None,None,M,M,M,M,None,
EDW,2008-05-02 11:55:00+00,41.18,15.26,34.50,M,M,0.00,30.02,6.00,M,None,None,None,None,M,M,M,M,None,
EDW,2008-05-02 12:55:00+00,41.72,17.42,37.11,320.00,4.00,0.00,30.04,85.00,M,None,None,None,None,M,M,M,M,None,
EDW,2008-05-02 13:55:00+00,42.08,17.24,36.31,M,M,0.00,30.06,85.00,M,None,None,None,None,M,M,M,M,None,
EDW,2008-05-02 14:55:00+00,48.02,21.74,35.11,M,M,0.00,30.08,60.00,M,None,None,None,None,M,M,M,M,None,
EDW,2008-05-02 15:55:00+00,53.42,24.44,32.19,M,M,0.00,30.09,50.00,M,None,None,None,None,M,M,M,M,None,
EDW,2008-05-02 16:55:00+00,59.90,24.26,25.28,50.00,6.00,0.00,30.09,50.00,M,None,None,None,None,M,M,M,M,None,
EDW,2008-05-02 17:55:00+00,69.08,10.22,10.00,70.00,6.00,0.00,30.08,60.00,M,None,None,None,None,M,M,M,M,None,
EDW,2008-05-02 18:55:00+00,74.30,9.68,8.18,60.00,9.00,0.00,30.07,85.00,M,None,None,None,None,M,M,M,M,None,
EDW,2008-05-02 19:55:00+00,73.94,6.26,7.10,140.00,3.00,0.00,30.04,85.00,M,None,None,None,None,M,M,M,M,None,
EDW,2008-05-02 20:55:00+00,74.84,6.98,7.11,350.00,8.00,0.00,30.01,80.00,M,None,None,None,None,M,M,M,M,None,
EDW,2008-05-02 21:55:00+00,76.46,8.24,7.14,60.00,5.00,0.00,29.99,80.00,M,None,None,None,None,M,M,M,M,None,
EDW,2008-05-02 22:55:00+00,76.64,8.42,7.15,M,3.00,0.00,29.98,80.00,M,None,None,None,None,M,M,M,M,None,
EDW,2008-05-02 23:55:00+00,79.16,10.40,7.19,M,6.00,0.00,29.95,80.00,M,None,None,None,None,M,M,M,M,None,
EDW,2008-05-03 00:55:00+00,78.62,9.86,7.14,M,4.00,0.00,29.94,80.00,M,None,None,None,None,M,M,M,M,None,
EDW,2008-05-03 01:55:00+00,76.82,14.18,9.18,230.00,5.00,0.00,29.93,50.00,M,None,None,None,None,M,M,M,M,None,
EDW,2008-05-03 02:55:00+00,72.14,31.64,22.38,250.00,10.00,0.00,29.95,50.00,M,None,None,None,None,M,M,M,M,None,
EDW,2008-05-03 03:55:00+00,69.26,31.46,24.51,260.00,10.00,0.00,29.97,40.00,M,None,None,None,None,M,M,M,M,None,
EDW,2008-05-03 04:55:00+00,64.58,32.00,29.45,220.00,7.00,0.00,29.99,30.00,M,None,None,None,None,M,M,M,M,None,
EDW,2008-05-03 05:55:00+00,63.14,32.18,31.20,230.00,10.00,0.00,29.98,10.00,M,None,None,None,None,M,M,M,M,None,
EDW,2008-05-03 06:55:00+00,61.70,30.20,30.29,200.00,7.00,0.00,29.98,10.00,M,None,None,None,None,M,M,M,M,None,
EDW,2008-05-03 07:55:00+00,59.90,29.30,31.13,210.00,6.00,0.00,29.97,10.00,M,None,None,None,None,M,M,M,M,None,
EDW,2008-05-03 08:55:00+00,58.28,29.66,33.47,210.00,4.00,0.00,29.96,10.00,M,None,None,None,None,M,M,M,M,None,
EDW,2008-05-03 09:55:00+00,54.14,29.12,38.04,240.00,5.00,0.00,29.95,10.00,M,None,None,None,None,M,M,M,M,None,
EDW,2008-05-03 10:55:00+00,54.86,30.56,39.29,210.00,8.00,0.00,29.94,10.00,M,None,None,None,None,M,M,M,M,None,
EDW,2008-05-03 11:55:00+00,52.88,30.20,41.63,230.00,7.00,0.00,29.94,10.00,M,None,None,None,None,M,M,M,M,None,
EDW,2008-05-03 12:55:00+00,49.10,29.30,46.16,M,3.00,0.00,29.95,30.00,M,None,None,None,None,M,M,M,M,None,
EDW,2008-05-03 13:55:00+00,53.42,30.20,40.81,230.00,6.00,0.00,29.95,35.00,M,None,None,None,None,M,M,M,M,None,
EDW,2008-05-03 14:55:00+00,61.70,31.10,31.42,220.00,6.00,0.00,29.96,40.00,M,None,None,None,None,M,M,M,M,None,
EDW,2008-05-03 15:55:00+00,68.18,31.46,25.43,240.00,7.00,0.00,29.95,45.00,M,None,None,None,None,M,M,M,M,None,
EDW,2008-05-03 16:55:00+00,71.78,27.86,19.42,250.00,12.00,0.00,29.95,45.00,M,None,None,None,None,M,M,M,M,None,
EDW,2008-05-03 17:55:00+00,75.20,26.60,16.43,250.00,11.00,0.00,29.93,40.00,19.00,None,None,None,None,M,M,M,M,None,
EDW,2008-05-03 18:55:00+00,77.90,26.60,15.03,250.00,10.00,0.00,29.92,35.00,18.00,None,None,None,None,M,M,M,M,None,
EDW,2008-05-03 19:55:00+00,79.16,29.12,15.99,240.00,12.00,0.00,29.89,45.00,19.00,None,None,None,None,M,M,M,M,None,
EDW,2008-05-03 20:55:00+00,81.50,27.32,13.75,250.00,15.00,0.00,29.87,40.00,21.00,None,None,None,None,M,M,M,M,None,
EDW,2008-05-03 21:55:00+00,81.32,23.36,11.74,250.00,18.00,0.00,29.85,45.00,24.00,None,None,None,None,M,M,M,M,None,
EDW,2008-05-03 22:55:00+00,79.34,25.34,13.60,260.00,20.00,0.00,29.83,45.00,24.00,None,None,None,None,M,M,M,M,None,
EDW,2008-05-03 23:55:00+00,77.36,28.94,16.84,250.00,18.00,0.00,29.83,45.00,24.00,None,None,None,None,M,M,M,M,None,
EDW,2008-05-04 00:55:00+00,74.30,31.28,20.51,230.00,19.00,0.00,29.83,45.00,26.00,None,None,None,None,M,M,M,M,None,
EDW,2008-05-04 01:55:00+00,70.52,30.02,22.14,240.00,16.00,0.00,29.84,60.00,25.00,None,None,None,None,M,M,M,M,None,
EDW,2008-05-04 02:55:00+00,67.64,27.14,21.72,240.00,14.00,0.00,29.85,50.00,21.00,None,None,None,None,M,M,M,M,None,
EDW,2008-05-04 03:55:00+00,64.94,32.36,29.50,250.00,13.00,0.00,29.86,30.00,M,None,None,None,None,M,M,M,M,None,
EDW,2008-05-04 04:55:00+00,61.88,32.72,33.33,240.00,10.00,0.00,29.87,30.00,M,None,None,None,None,M,M,M,M,None,
EDW,2008-05-04 05:55:00+00,59.90,32.54,35.50,240.00,11.00,0.00,29.87,10.00,M,None,None,None,None,M,M,M,M,None,
EDW,2008-05-04 06:55:00+00,58.28,31.10,35.49,240.00,11.00,0.00,29.86,10.00,M,None,None,None,None,M,M,M,M,None,
EDW,2008-05-04 07:55:00+00,54.32,30.20,39.49,200.00,8.00,0.00,29.85,10.00,M,None,None,None,None,M,M,M,M,None,
EDW,2008-05-04 08:55:00+00,53.78,30.20,40.28,220.00,10.00,0.00,29.84,10.00,M,None,None,None,None,M,M,M,M,None,
EDW,2008-05-04 09:55:00+00,52.16,30.02,42.44,210.00,9.00,0.00,29.83,10.00,M,None,None,None,None,M,M,M,M,None,
EDW,2008-05-04 10:55:00+00,51.80,30.20,43.32,210.00,9.00,0.00,29.82,10.00,M,None,None,None,None,M,M,M,M,None,
EDW,2008-05-04 11:55:00+00,51.62,31.28,45.56,220.00,9.00,0.00,29.81,10.00,M,None,None,None,None,M,M,M,M,None,
EDW,2008-05-04 12:55:00+00,51.08,31.46,46.82,220.00,9.00,0.00,29.81,20.00,M,None,None,None,None,M,M,M,M,None,
EDW,2008-05-04 13:55:00+00,53.06,33.08,46.46,210.00,9.00,0.00,29.82,15.00,M,None,None,None,None,M,M,M,M,None,
EDW,2008-05-04 14:55:00+00,57.92,34.52,41.25,220.00,10.00,0.00,29.82,12.00,M,None,None,None,None,M,M,M,M,None,
EDW,2008-05-04 15:55:00+00,62.96,35.24,35.48,220.00,10.00,0.00,29.82,12.00,M,None,None,None,None,M,M,M,M,None,
EDW,2008-05-04 16:55:00+00,67.64,33.08,27.66,210.00,7.00,0.00,29.81,12.00,M,None,None,None,None,M,M,M,M,None,
EDW,2008-05-04 17:55:00+00,70.34,30.38,22.61,250.00,7.00,0.00,29.80,15.00,M,None,None,None,None,M,M,M,M,None,
EDW,2008-05-04 18:55:00+00,72.32,27.86,19.07,230.00,9.00,0.00,29.79,15.00,M,None,None,None,None,M,M,M,M,None,
EDW,2008-05-04 19:55:00+00,74.84,26.78,16.76,260.00,7.00,0.00,29.77,15.00,M,None,None,None,None,M,M,M,M,None,
EDW,2008-05-04 20:55:00+00,76.64,27.32,16.14,260.00,9.00,0.00,29.75,15.00,M,None,None,None,None,M,M,M,M,None,
EDW,2008-05-04 21:55:00+00,77.00,29.12,17.17,220.00,13.00,0.00,29.74,15.00,19.00,None,None,None,None,M,M,M,M,None,
EDW,2008-05-04 22:55:00+00,75.38,33.44,21.58,240.00,20.00,0.00,29.74,15.00,27.00,None,None,None,None,M,M,M,M,None,
EDW,2008-05-04 23:55:00+00,73.40,34.88,24.42,230.00,20.00,0.00,29.74,15.00,28.00,None,None,None,None,M,M,M,M,None,
EDW,2008-05-05 00:55:00+00,70.88,35.78,27.56,240.00,19.00,0.00,29.74,15.00,27.00,None,None,None,None,M,M,M,M,None,
EDW,2008-05-05 01:55:00+00,66.92,39.02,35.87,240.00,18.00,0.00,29.75,15.00,24.00,None,None,None,None,M,M,M,M,None,
EDW,2008-05-05 02:55:00+00,62.96,39.56,42.06,240.00,14.00,0.00,29.77,15.00,19.00,None,None,None,None,M,M,M,M,None,
EDW,2008-05-05 03:55:00+00,59.54,39.74,47.81,250.00,16.00,0.00,29.78,15.00,M,None,None,None,None,M,M,M,M,None,
EDW,2008-05-05 04:55:00+00,57.02,43.88,61.39,250.00,14.00,0.00,29.79,15.00,M,None,None,None,None,M,M,M,M,None,
EDW,2008-05-05 05:55:00+00,56.30,41.72,57.99,240.00,13.00,0.00,29.79,10.00,M,None,None,None,None,M,M,M,M,None,
EDW,2008-05-05 06:55:00+00,55.22,41.72,60.31,240.00,14.00,0.00,29.79,10.00,M,None,None,None,None,M,M,M,M,None,
EDW,2008-05-05 07:55:00+00,53.42,42.44,66.22,240.00,12.00,0.00,29.79,10.00,M,None,None,None,None,M,M,M,M,None,
EDW,2008-05-05 08:55:00+00,51.98,42.62,70.30,240.00,11.00,0.00,29.78,10.00,M,None,None,None,None,M,M,M,M,None,
EDW,2008-05-05 09:55:00+00,51.08,42.62,72.68,230.00,11.00,0.00,29.79,10.00,M,None,None,None,None,M,M,M,M,None,
EDW,2008-05-05 10:55:00+00,49.82,42.62,76.16,220.00,8.00,0.00,29.80,10.00,M,None,None,None,None,M,M,M,M,None,
EDW,2008-05-05 11:55:00+00,48.74,41.90,77.13,230.00,8.00,0.00,29.80,10.00,M,None,None,None,None,M,M,M,M,None,
EDW,2008-05-05 12:55:00+00,47.66,42.80,83.14,220.00,9.00,0.00,29.82,12.00,M,None,None,None,None,M,M,M,M,None,
EDW,2008-05-05 13:55:00+00,46.94,42.08,83.09,190.00,6.00,0.00,29.84,15.00,M,None,None,None,None,M,M,M,M,None,
EDW,2008-05-05 14:55:00+00,51.08,42.08,71.19,200.00,6.00,0.00,29.87,15.00,M,None,None,None,None,M,M,M,M,None,
EDW,2008-05-05 15:55:00+00,56.66,42.08,58.04,230.00,8.00,0.00,29.88,15.00,M,None,None,None,None,M,M,M,M,None,
EDW,2008-05-05 16:55:00+00,60.26,41.36,49.62,260.00,4.00,0.00,29.88,20.00,M,None,None,None,None,M,M,M,M,None,
EDW,2008-05-05 17:55:00+00,62.96,37.94,39.47,M,M,0.00,29.88,25.00,M,None,None,None,None,M,M,M,M,None,
EDW,2008-05-05 18:55:00+00,66.02,36.50,33.52,M,M,0.00,29.88,30.00,M,None,None,None,None,M,M,M,M,None,
EDW,2008-05-05 19:55:00+00,69.80,29.48,22.20,80.00,9.00,0.00,29.87,40.00,M,None,None,None,None,M,M,M,M,None,
EDW,2008-05-05 20:55:00+00,72.50,30.74,21.32,M,M,0.00,29.86,45.00,M,None,None,None,None,M,M,M,M,None,
EDW,2008-05-05 21:55:00+00,75.38,29.84,18.66,M,3.00,0.00,29.83,45.00,M,None,None,None,None,M,M,M,M,None,
EDW,2008-05-05 22:55:00+00,76.10,27.32,16.43,240.00,5.00,0.00,29.81,45.00,M,None,None,None,None,M,M,M,M,None,
EDW,2008-05-05 23:55:00+00,77.00,26.42,15.36,M,M,0.00,29.79,45.00,M,None,None,None,None,M,M,M,M,None,
EDW,2008-05-06 00:55:00+00,77.54,26.60,15.20,220.00,5.00,0.00,29.79,45.00,M,None,None,None,None,M,M,M,M,None,
EDW,2008-05-06 01:55:00+00,71.78,35.60,26.54,320.00,22.00,0.00,29.81,45.00,30.00,None,None,None,None,M,M,M,M,None,
EDW,2008-05-06 02:16:00+00,71.60,32.00,23.13,330.00,16.00,0.00,29.81,45.00,M,None,None,None,None,M,M,M,M,None,
EDW,2008-05-06 02:55:00+00,70.16,33.26,25.55,320.00,9.00,0.00,29.83,45.00,M,None,None,None,None,M,M,M,M,None,
EDW,2008-05-06 03:55:00+00,69.98,32.18,24.62,330.00,7.00,0.00,29.85,30.00,M,None,None,None,None,M,M,M,M,None,
EDW,2008-05-06 04:55:00+00,66.02,37.22,34.48,260.00,6.00,0.00,29.87,30.00,M,None,None,None,None,M,M,M,M,None,
EDW,2008-05-06 05:55:00+00,62.06,38.12,41.03,M,M,0.00,29.86,10.00,M,None,None,None,None,M,M,M,M,None,
EDW,2008-05-06 06:55:00+00,62.60,38.84,41.41,320.00,5.00,0.00,29.86,10.00,M,None,None,None,None,M,M,M,M,None,
EDW,2008-05-06 07:55:00+00,59.54,38.84,46.16,200.00,6.00,0.00,29.86,10.00,M,None,None,None,None,M,M,M,M,None,
EDW,2008-05-06 08:55:00+00,55.94,39.74,54.42,200.00,8.00,0.00,29.85,10.00,M,None,None,None,None,M,M,M,M,None,
EDW,2008-05-06 09:55:00+00,55.04,39.56,55.83,210.00,8.00,0.00,29.84,10.00,M,None,None,None,None,M,M,M,M,None,
EDW,2008-05-06 10:55:00+00,56.12,39.38,53.31,220.00,8.00,0.00,29.83,10.00,M,None,None,None,None,M,M,M,M,None,
EDW,2008-05-06 11:55:00+00,55.04,39.20,55.05,210.00,7.00,0.00,29.83,10.00,M,None,None,None,None,M,M,M,M,None,
EDW,2008-05-06 12:55:00+00,53.96,40.10,59.31,220.00,9.00,0.00,29.84,50.00,M,None,None,None,None,M,M,M,M,None,
EDW,2008-05-06 13:55:00+00,53.06,39.74,60.44,230.00,6.00,0.00,29.86,50.00,M,None,None,None,None,M,M,M,M,None,
EDW,2008-05-06 14:55:00+00,61.88,41.18,46.52,210.00,5.00,0.00,29.87,50.00,M,None,None,None,None,M,M,M,M,None,
EDW,2008-05-06 15:55:00+00,71.06,41.54,34.32,210.00,5.00,0.00,29.87,50.00,M,None,None,None,None,M,M,M,M,None,
EDW,2008-05-06 16:55:00+00,74.66,36.32,24.79,300.00,4.00,0.00,29.86,50.00,M,None,None,None,None,M,M,M,M,None,
EDW,2008-05-06 17:55:00+00,78.44,37.58,22.98,M,3.00,0.00,29.86,50.00,M,None,None,None,None,M,M,M,M,None,
EDW,2008-05-06 18:55:00+00,82.04,33.98,17.71,M,M,0.00,29.85,50.00,M,None,None,None,None,M,M,M,M,None,
EDW,2008-05-06 19:55:00+00,84.02,30.38,14.37,M,4.00,0.00,29.84,50.00,M,None,None,None,None,M,M,M,M,None,
EDW,2008-05-06 20:57:00+00,86.36,35.78,16.55,260.00,11.00,0.00,29.83,45.00,22.00,None,None,None,None,M,M,M,M,None,
EDW,2008-05-06 21:55:00+00,87.98,33.98,14.63,290.00,18.00,0.00,29.81,45.00,25.00,None,None,None,None,M,M,M,M,None,
EDW,2008-05-06 22:55:00+00,86.00,38.30,18.49,280.00,25.00,0.00,29.80,45.00,32.00,None,None,None,None,M,M,M,M,None,
EDW,2008-05-06 23:55:00+00,84.20,36.86,18.51,280.00,25.00,0.00,29.79,45.00,29.00,None,None,None,None,M,M,M,M,None,
EDW,2008-05-07 00:55:00+00,82.58,35.78,18.69,280.00,19.00,0.00,29.80,45.00,27.00,None,None,None,None,M,M,M,M,None,
EDW,2008-05-07 01:55:00+00,79.52,33.80,19.09,270.00,22.00,0.00,29.81,45.00,M,None,None,None,None,M,M,M,M,None,
EDW,2008-05-07 03:55:00+00,67.82,43.34,41.09,240.00,16.00,0.00,29.85,30.00,M,None,None,None,None,M,M,M,M,None,
EDW,2008-05-07 04:55:00+00,64.58,44.24,47.59,220.00,10.00,0.00,29.87,30.00,M,None,None,None,None,M,M,M,M,None,
EDW,2008-05-07 05:55:00+00,62.96,44.78,51.42,220.00,12.00,0.00,29.88,10.00,M,None,None,None,None,M,M,M,M,None,
EDW,2008-05-07 06:55:00+00,60.98,45.32,56.29,210.00,14.00,0.00,29.87,10.00,17.00,None,None,None,None,M,M,M,M,None,
EDW,2008-05-07 07:55:00+00,60.98,44.96,55.52,220.00,18.00,0.00,29.86,10.00,M,None,None,None,None,M,M,M,M,None,
EDW,2008-05-07 08:55:00+00,58.64,45.68,62.02,230.00,21.00,0.00,29.87,10.00,27.00,None,None,None,None,M,M,M,M,None,
EDW,2008-05-07 09:55:00+00,57.74,46.76,66.73,220.00,18.00,0.00,29.88,10.00,24.00,None,None,None,None,M,M,M,M,None,
EDW,2008-05-07 10:55:00+00,56.30,46.94,70.77,220.00,18.00,0.00,29.87,10.00,24.00,None,None,None,None,M,M,M,M,None,
EDW,2008-05-07 11:55:00+00,56.48,46.22,68.42,220.00,21.00,0.00,29.88,10.00,27.00,None,None,None,None,M,M,M,M,None,
EDW,2008-05-07 12:55:00+00,56.30,46.04,68.40,210.00,18.00,0.00,29.90,20.00,26.00,None,None,None,None,M,M,M,M,None,
EDW,2008-05-07 13:55:00+00,58.10,46.94,66.32,220.00,14.00,0.00,29.91,20.00,M,None,None,None,None,M,M,M,M,None,
EDW,2008-05-07 14:55:00+00,65.12,46.04,50.01,240.00,12.00,0.00,29.90,40.00,24.00,None,None,None,None,M,M,M,M,None,
EDW,2008-05-07 15:55:00+00,70.88,43.70,37.52,280.00,19.00,0.00,29.90,40.00,22.00,None,None,None,None,M,M,M,M,None,
EDW,2008-05-07 16:55:00+00,74.30,42.80,32.29,270.00,15.00,0.00,29.90,40.00,20.00,None,None,None,None,M,M,M,M,None,
EDW,2008-05-07 17:55:00+00,77.54,41.54,27.62,260.00,20.00,0.00,29.88,40.00,30.00,None,None,None,None,M,M,M,M,None,
EDW,2008-05-07 18:55:00+00,77.90,38.84,24.57,290.00,22.00,0.00,29.87,40.00,27.00,None,None,None,None,M,M,M,M,None,
EDW,2008-05-07 19:55:00+00,78.80,38.12,23.19,300.00,17.00,0.00,29.87,40.00,23.00,None,None,None,None,M,M,M,M,None,
EDW,2008-05-07 20:55:00+00,80.96,36.86,20.56,260.00,19.00,0.00,29.85,45.00,24.00,None,None,None,None,M,M,M,M,None,
EDW,2008-05-07 21:55:00+00,79.52,39.38,23.79,240.00,23.00,0.00,29.84,50.00,31.00,None,None,None,None,M,M,M,M,None,
EDW,2008-05-07 22:55:00+00,78.08,39.92,25.48,240.00,19.00,0.00,29.83,45.00,26.00,None,None,None,None,M,M,M,M,None,
EDW,2008-05-07 23:55:00+00,71.24,47.66,43.07,240.00,21.00,0.00,29.83,40.00,27.00,None,None,None,None,M,M,M,M,None,
EDW,2008-05-08 00:55:00+00,67.46,47.48,48.69,240.00,21.00,0.00,29.83,30.00,28.00,None,None,None,None,M,M,M,M,None,
EDW,2008-05-08 01:55:00+00,64.58,46.76,52.37,250.00,20.00,0.00,29.83,30.00,26.00,None,None,None,None,M,M,M,M,None,
EDW,2008-05-08 02:55:00+00,60.80,46.58,59.42,250.00,22.00,0.00,29.83,30.00,M,None,None,None,None,M,M,M,M,None,
EDW,2008-05-08 03:55:00+00,59.18,45.32,60.01,220.00,15.00,0.00,29.85,30.00,M,None,None,None,None,M,M,M,M,None,
EDW,2008-05-08 04:55:00+00,58.82,41.00,51.51,220.00,8.00,0.00,29.86,30.00,M,None,None,None,None,M,M,M,M,None,
EDW,2008-05-08 05:55:00+00,59.90,39.20,46.21,230.00,17.00,0.00,29.84,10.00,22.00,None,None,None,None,M,M,M,M,None,
EDW,2008-05-08 06:11:00+00,62.60,37.40,39.14,280.00,19.00,0.00,29.84,10.00,25.00,None,None,None,None,M,M,M,M,None,
EDW,2008-05-08 06:55:00+00,61.88,37.04,39.58,270.00,18.00,0.00,29.85,10.00,24.00,None,None,None,None,M,M,M,M,None,
EDW,2008-05-08 07:55:00+00,60.08,37.04,42.19,210.00,10.00,0.00,29.87,10.00,M,None,None,None,None,M,M,M,M,None,
EDW,2008-05-08 08:55:00+00,58.64,38.12,46.34,240.00,13.00,0.00,29.87,10.00,M,None,None,None,None,M,M,M,M,None,
EDW,2008-05-08 09:55:00+00,57.02,37.22,47.41,210.00,9.00,0.00,29.88,10.00,M,None,None,None,None,M,M,M,M,None,
EDW,2008-05-08 10:55:00+00,53.06,39.02,58.77,220.00,12.00,0.00,29.88,10.00,M,None,None,None,None,M,M,M,M,None,
EDW,2008-05-08 11:55:00+00,51.98,39.56,62.45,220.00,11.00,0.00,29.89,10.00,M,None,None,None,None,M,M,M,M,None,
EDW,2008-05-08 12:55:00+00,50.72,39.02,64.07,220.00,10.00,0.00,29.91,50.00,M,None,None,None,None,M,M,M,M,None,
EDW,2008-05-08 13:55:00+00,51.44,39.02,62.38,220.00,8.00,0.00,29.92,50.00,M,None,None,None,None,M,M,M,M,None,
EDW,2008-05-08 14:55:00+00,56.84,39.38,51.94,230.00,6.00,0.00,29.94,50.00,M,None,None,None,None,M,M,M,M,None,
EDW,2008-05-08 15:55:00+00,62.42,38.48,41.09,180.00,4.00,0.00,29.94,45.00,M,None,None,None,None,M,M,M,M,None,
EDW,2008-05-08 16:55:00+00,66.38,36.68,33.34,200.00,4.00,0.00,29.94,45.00,M,None,None,None,None,M,M,M,M,None,
EDW,2008-05-08 17:55:00+00,70.70,35.60,27.54,M,3.00,0.00,29.93,50.00,M,None,None,None,None,M,M,M,M,None,
EDW,2008-05-08 18:55:00+00,73.40,34.52,24.08,90.00,6.00,0.00,29.92,50.00,M,None,None,None,None,M,M,M,M,None,
EDW,2008-05-08 19:55:00+00,77.00,32.18,19.44,40.00,4.00,0.00,29.89,45.00,M,None,None,None,None,M,M,M,M,None,
EDW,2008-05-08 20:55:00+00,78.62,30.74,17.38,M,5.00,0.00,29.87,45.00,M,None,None,None,None,M,M,M,M,None,
EDW,2008-05-08 21:55:00+00,81.14,29.84,15.43,M,4.00,0.00,29.85,45.00,M,None,None,None,None,M,M,M,M,None,
EDW,2008-05-08 22:55:00+00,82.04,32.18,16.47,M,4.00,0.00,29.82,45.00,M,None,None,None,None,M,M,M,M,None,
EDW,2008-05-08 23:55:00+00,82.22,33.80,17.48,240.00,12.00,0.00,29.80,45.00,22.00,None,None,None,None,M,M,M,M,None,
EDW,2008-05-09 00:55:00+00,79.88,35.96,20.56,290.00,17.00,0.00,29.80,45.00,M,None,None,None,None,M,M,M,M,None,
EDW,2008-05-09 01:55:00+00,74.30,37.58,26.37,280.00,19.00,0.00,29.81,45.00,26.00,None,None,None,None,M,M,M,M,None,
EDW,2008-05-09 02:55:00+00,70.88,37.94,30.02,280.00,16.00,0.00,29.82,40.00,M,None,None,None,None,M,M,M,M,None,
EDW,2008-05-09 03:55:00+00,68.54,41.00,36.63,280.00,13.00,0.00,29.84,30.00,M,None,None,None,None,M,M,M,M,None,
EDW,2008-05-09 04:55:00+00,67.10,41.72,39.58,250.00,11.00,0.00,29.86,30.00,M,None,None,None,None,M,M,M,M,None,
EDW,2008-05-09 05:55:00+00,66.92,37.40,33.66,270.00,19.00,0.00,29.83,10.00,M,None,None,None,None,M,M,M,M,None,
EDW,2008-05-09 06:55:00+00,61.52,37.76,41.24,230.00,11.00,0.00,29.84,10.00,M,None,None,None,None,M,M,M,M,None,
EDW,2008-05-09 07:55:00+00,62.06,35.24,36.63,230.00,11.00,0.00,29.84,10.00,M,None,None,None,None,M,M,M,M,None,
EDW,2008-05-09 08:55:00+00,62.06,33.98,34.83,240.00,10.00,0.00,29.81,10.00,M,None,None,None,None,M,M,M,M,None,
EDW,2008-05-09 09:55:00+00,60.80,35.96,39.41,220.00,10.00,0.00,29.81,10.00,M,None,None,None,None,M,M,M,M,None,
EDW,2008-05-09 10:50:00+00,60.80,37.40,41.71,200.00,12.00,0.00,29.81,10.00,20.00,None,None,None,None,M,M,M,M,None,
EDW,2008-05-09 10:55:00+00,59.90,38.12,44.30,200.00,10.00,0.00,29.81,10.00,M,None,None,None,None,M,M,M,M,None,
EDW,2008-05-09 11:55:00+00,61.52,41.18,47.12,230.00,12.00,0.00,29.81,10.00,M,None,None,None,None,M,M,M,M,None,
EDW,2008-05-09 12:55:00+00,56.84,40.64,54.55,210.00,12.00,0.00,29.80,30.00,M,None,None,None,None,M,M,M,M,None,
EDW,2008-05-09 13:55:00+00,58.46,41.00,52.18,230.00,14.00,0.00,29.82,30.00,M,None,None,None,None,M,M,M,M,None,
EDW,2008-05-09 14:55:00+00,63.68,39.38,40.72,220.00,15.00,0.00,29.84,35.00,M,None,None,None,None,M,M,M,M,None,
EDW,2008-05-09 15:55:00+00,69.80,37.40,30.49,240.00,14.00,0.00,29.83,30.00,18.00,None,None,None,None,M,M,M,M,None,
EDW,2008-05-09 16:55:00+00,74.84,32.72,21.35,250.00,19.00,0.00,29.82,35.00,M,None,None,None,None,M,M,M,M,None,
EDW,2008-05-09 17:55:00+00,76.82,32.54,19.84,230.00,13.00,0.00,29.82,35.00,22.00,None,None,None,None,M,M,M,M,None,
EDW,2008-05-09 18:55:00+00,80.24,26.06,13.61,270.00,17.00,0.00,29.81,35.00,24.00,None,None,None,None,M,M,M,M,None,
EDW,2008-05-09 19:55:00+00,82.04,24.26,11.90,290.00,20.00,0.00,29.79,25.00,28.00,None,None,None,None,M,M,M,M,None,
EDW,2008-05-09 20:55:00+00,81.68,23.54,11.69,280.00,21.00,0.00,29.79,20.00,26.00,None,None,None,None,M,M,M,M,None,
EDW,2008-05-09 21:55:00+00,81.32,27.50,13.94,280.00,21.00,0.00,29.78,20.00,M,None,None,None,None,M,M,M,M,None,
EDW,2008-05-09 22:55:00+00,80.42,24.26,12.55,280.00,22.00,0.00,29.77,20.00,27.00,None,None,None,None,M,M,M,M,None,
EDW,2008-05-09 23:55:00+00,79.34,28.40,15.43,290.00,24.00,0.00,29.78,20.00,28.00,None,None,None,None,M,M,M,M,None,
EDW,2008-05-10 00:55:00+00,77.72,26.96,15.34,280.00,21.00,0.00,29.79,20.00,26.00,None,None,None,None,M,M,M,M,None,
EDW,2008-05-10 01:55:00+00,74.48,24.26,15.28,280.00,24.00,0.00,29.80,20.00,29.00,None,None,None,None,M,M,M,M,None,
EDW,2008-05-10 02:55:00+00,71.24,24.62,17.30,270.00,21.00,0.00,29.82,20.00,29.00,None,None,None,None,M,M,M,M,None,
EDW,2008-05-10 03:55:00+00,62.60,40.10,43.50,220.00,14.00,0.00,29.84,20.00,M,None,None,None,None,M,M,M,M,None,
EDW,2008-05-10 04:55:00+00,61.16,39.74,45.13,230.00,17.00,0.00,29.86,20.00,22.00,None,None,None,None,M,M,M,M,None,
EDW,2008-05-10 05:55:00+00,59.72,37.76,43.96,230.00,9.00,0.00,29.88,10.00,M,None,None,None,None,M,M,M,M,None,
EDW,2008-05-10 06:55:00+00,60.62,36.32,40.23,230.00,14.00,0.00,29.87,10.00,M,None,None,None,None,M,M,M,M,None,
EDW,2008-05-10 07:55:00+00,60.26,33.98,37.13,220.00,13.00,0.00,29.87,10.00,M,None,None,None,None,M,M,M,M,None,
EDW,2008-05-10 08:55:00+00,58.64,37.04,44.42,220.00,12.00,0.00,29.87,10.00,18.00,None,None,None,None,M,M,M,M,None,
EDW,2008-05-10 09:55:00+00,57.56,38.84,49.55,220.00,11.00,0.00,29.89,10.00,M,None,None,None,None,M,M,M,M,None,
EDW,2008-05-10 10:55:00+00,55.58,40.10,55.91,220.00,12.00,0.00,29.90,10.00,M,None,None,None,None,M,M,M,M,None,
EDW,2008-05-10 11:55:00+00,53.24,41.90,65.28,210.00,11.00,0.00,29.91,10.00,M,None,None,None,None,M,M,M,M,None,
EDW,2008-05-10 12:55:00+00,51.62,42.26,70.26,230.00,6.00,0.00,29.93,30.00,M,None,None,None,None,M,M,M,M,None,
EDW,2008-05-10 13:55:00+00,52.52,42.08,67.50,220.00,5.00,0.00,29.96,40.00,M,None,None,None,None,M,M,M,M,None,
EDW,2008-05-10 14:55:00+00,56.84,41.00,55.31,M,M,0.00,29.98,40.00,M,None,None,None,None,M,M,M,M,None,
EDW,2008-05-10 15:55:00+00,62.78,40.28,43.52,M,M,0.00,29.99,40.00,M,None,None,None,None,M,M,M,M,None,
EDW,2008-05-10 16:55:00+00,66.38,38.30,35.53,50.00,5.00,0.00,30.00,40.00,M,None,None,None,None,M,M,M,M,None,
EDW,2008-05-10 17:55:00+00,72.68,36.32,26.49,30.00,6.00,0.00,30.00,40.00,M,None,None,None,None,M,M,M,M,None,
EDW,2008-05-10 18:55:00+00,80.06,31.10,16.82,50.00,10.00,0.00,29.98,40.00,M,None,None,None,None,M,M,M,M,None,
EDW,2008-05-10 19:55:00+00,83.12,26.78,12.76,80.00,16.00,0.00,29.96,30.00,23.00,None,None,None,None,M,M,M,M,None,
EDW,2008-05-10 20:55:00+00,84.56,27.14,12.37,100.00,14.00,0.00,29.94,30.00,M,None,None,None,None,M,M,M,M,None,
EDW,2008-05-10 21:55:00+00,85.64,28.04,12.40,50.00,10.00,0.00,29.93,30.00,M,None,None,None,None,M,M,M,M,None,
EDW,2008-05-10 22:55:00+00,86.72,25.52,10.79,30.00,5.00,0.00,29.90,30.00,M,None,None,None,None,M,M,M,M,None,
EDW,2008-05-10 23:55:00+00,86.18,24.98,10.74,M,3.00,0.00,29.89,30.00,M,None,None,None,None,M,M,M,M,None,
EDW,2008-05-11 00:55:00+00,86.00,26.24,11.38,M,M,0.00,29.88,30.00,M,None,None,None,None,M,M,M,M,None,
EDW,2008-05-11 01:55:00+00,84.56,27.32,12.46,230.00,11.00,0.00,29.88,30.00,M,None,None,None,None,M,M,M,M,None,
EDW,2008-05-11 02:09:00+00,80.60,44.60,28.08,250.00,21.00,0.00,29.88,30.00,24.00,None,None,None,None,M,M,M,M,None,
EDW,2008-05-11 02:55:00+00,77.00,40.82,27.34,250.00,15.00,0.00,29.89,30.00,M,None,None,None,None,M,M,M,M,None,
EDW,2008-05-11 03:55:00+00,73.22,40.46,30.60,260.00,14.00,0.00,29.91,20.00,M,None,None,None,None,M,M,M,M,None,
EDW,2008-05-11 04:55:00+00,71.06,39.38,31.56,250.00,11.00,0.00,29.93,20.00,M,None,None,None,None,M,M,M,M,None,
EDW,2008-05-11 05:55:00+00,68.36,38.48,33.42,230.00,10.00,0.00,29.94,10.00,M,None,None,None,None,M,M,M,M,None,
EDW,2008-05-11 06:55:00+00,62.60,40.82,44.73,220.00,7.00,0.00,29.94,10.00,M,None,None,None,None,M,M,M,M,None,
EDW,2008-05-11 07:55:00+00,61.70,41.00,46.49,220.00,10.00,0.00,29.94,10.00,M,None,None,None,None,M,M,M,M,None,
EDW,2008-05-11 08:55:00+00,60.26,43.34,53.54,210.00,8.00,0.00,29.93,10.00,M,None,None,None,None,M,M,M,M,None,
EDW,2008-05-11 09:55:00+00,59.72,41.36,50.58,210.00,7.00,0.00,29.92,10.00,M,None,None,None,None,M,M,M,M,None,
EDW,2008-05-11 10:55:00+00,58.82,40.82,51.15,210.00,8.00,0.00,29.92,10.00,M,None,None,None,None,M,M,M,M,None,
EDW,2008-05-11 11:55:00+00,57.56,41.18,54.27,190.00,4.00,0.00,29.92,10.00,M,None,None,None,None,M,M,M,M,None,
EDW,2008-05-11 12:55:00+00,56.84,41.36,56.09,200.00,9.00,0.00,29.91,30.00,M,None,None,None,None,M,M,M,M,None,
EDW,2008-05-11 13:55:00+00,58.46,41.90,54.03,210.00,9.00,0.00,29.92,30.00,M,None,None,None,None,M,M,M,M,None,
EDW,2008-05-11 14:55:00+00,64.22,40.46,41.67,210.00,10.00,0.00,29.92,40.00,M,None,None,None,None,M,M,M,M,None,
EDW,2008-05-11 15:55:00+00,69.98,39.20,32.51,220.00,11.00,0.00,29.92,40.00,M,None,None,None,None,M,M,M,M,None,
EDW,2008-05-11 16:55:00+00,75.02,38.30,26.48,210.00,10.00,0.00,29.91,40.00,M,None,None,None,None,M,M,M,M,None,
EDW,2008-05-11 17:55:00+00,80.06,37.94,22.10,230.00,13.00,0.00,29.90,40.00,17.00,None,None,None,None,M,M,M,M,None,
EDW,2008-05-11 18:55:00+00,82.04,36.50,19.57,230.00,6.00,0.00,29.88,40.00,15.00,None,None,None,None,M,M,M,M,None,
EDW,2008-05-11 19:55:00+00,84.20,37.94,19.32,240.00,14.00,0.00,29.86,40.00,19.00,None,None,None,None,M,M,M,M,None,
EDW,2008-05-11 20:55:00+00,85.10,37.58,18.50,220.00,17.00,0.00,29.84,40.00,24.00,None,None,None,None,M,M,M,M,None,
EDW,2008-05-11 21:55:00+00,85.28,38.66,19.19,250.00,22.00,0.00,29.82,30.00,28.00,None,None,None,None,M,M,M,M,None,
EDW,2008-05-11 22:55:00+00,83.12,42.08,23.49,250.00,24.00,0.00,29.80,20.00,32.00,None,None,None,None,M,M,M,M,None,
EDW,2008-05-11 23:55:00+00,80.60,43.34,26.76,240.00,24.00,0.00,29.79,20.00,33.00,None,None,None,None,M,M,M,M,None,
EDW,2008-05-12 00:55:00+00,77.00,44.78,31.83,240.00,21.00,0.00,29.80,20.00,29.00,None,None,None,None,M,M,M,M,None,
EDW,2008-05-12 01:55:00+00,73.76,44.06,34.51,240.00,20.00,0.00,29.82,30.00,26.00,None,None,None,None,M,M,M,M,None,
EDW,2008-05-12 02:55:00+00,69.62,43.16,38.37,240.00,19.00,0.00,29.82,15.00,25.00,None,None,None,None,M,M,M,M,None,
EDW,2008-05-12 03:55:00+00,66.56,38.48,35.56,230.00,13.00,0.00,29.83,20.00,17.00,None,None,None,None,M,M,M,M,None,
EDW,2008-05-12 04:55:00+00,64.58,40.10,40.58,240.00,17.00,0.00,29.83,20.00,22.00,None,None,None,None,M,M,M,M,None,
EDW,2008-05-12 05:55:00+00,63.14,41.18,44.50,240.00,15.00,0.00,29.83,10.00,23.00,None,None,None,None,M,M,M,M,None,
EDW,2008-05-12 06:55:00+00,63.32,40.28,42.71,230.00,16.00,0.00,29.82,10.00,23.00,None,None,None,None,M,M,M,M,None,
EDW,2008-05-12 07:55:00+00,61.88,41.18,46.52,220.00,16.00,0.00,29.82,10.00,22.00,None,None,None,None,M,M,M,M,None,
EDW,2008-05-12 08:55:00+00,60.62,41.54,49.33,220.00,16.00,0.00,29.81,10.00,21.00,None,None,None,None,M,M,M,M,None,
EDW,2008-05-12 09:55:00+00,58.82,42.08,53.71,220.00,17.00,0.00,29.81,10.00,M,None,None,None,None,M,M,M,M,None,
EDW,2008-05-12 10:55:00+00,56.30,41.18,56.80,210.00,13.00,0.00,29.81,10.00,M,None,None,None,None,M,M,M,M,None,
EDW,2008-05-12 11:55:00+00,54.86,40.10,57.39,230.00,17.00,0.00,29.81,10.00,22.00,None,None,None,None,M,M,M,M,None,
EDW,2008-05-12 12:55:00+00,52.70,41.00,64.32,230.00,12.00,0.00,29.81,40.00,M,None,None,None,None,M,M,M,M,None,
EDW,2008-05-12 13:55:00+00,54.68,40.10,57.77,230.00,22.00,0.00,29.81,40.00,26.00,None,None,None,None,M,M,M,M,None,
EDW,2008-05-12 14:55:00+00,57.20,40.46,53.47,240.00,17.00,0.00,29.83,40.00,24.00,None,None,None,None,M,M,M,M,None,
EDW,2008-05-12 15:55:00+00,60.08,37.76,43.40,240.00,20.00,0.00,29.81,45.00,27.00,None,None,None,None,M,M,M,M,None,
EDW,2008-05-12 16:55:00+00,61.34,34.52,36.51,250.00,21.00,0.00,29.82,45.00,27.00,None,None,None,None,M,M,M,M,None,
EDW,2008-05-12 17:55:00+00,61.88,32.72,33.33,240.00,16.00,0.00,29.84,45.00,22.00,None,None,None,None,M,M,M,M,None,
EDW,2008-05-12 18:55:00+00,65.48,32.00,28.54,260.00,10.00,0.00,29.82,45.00,M,None,None,None,None,M,M,M,M,None,
EDW,2008-05-12 19:55:00+00,68.00,32.36,26.54,240.00,18.00,0.00,29.80,45.00,25.00,None,None,None,None,M,M,M,M,None,
EDW,2008-05-12 20:55:00+00,68.54,33.44,27.20,270.00,17.00,0.00,29.78,45.00,M,None,None,None,None,M,M,M,M,None,
EDW,2008-05-12 21:55:00+00,69.44,34.34,27.34,240.00,24.00,0.00,29.76,35.00,30.00,None,None,None,None,M,M,M,M,None,
EDW,2008-05-12 22:55:00+00,70.88,39.38,31.75,250.00,27.00,0.00,29.72,35.00,35.00,None,None,None,None,M,M,M,M,None,
EDW,2008-05-12 23:57:00+00,71.60,32.36,23.46,280.00,27.00,0.00,29.72,35.00,35.00,None,None,None,None,M,M,M,M,None,
EDW,2008-05-13 00:55:00+00,69.08,33.26,26.51,260.00,22.00,0.00,29.74,35.00,32.00,None,None,None,None,M,M,M,M,None,
EDW,2008-05-13 01:55:00+00,62.24,42.26,47.89,230.00,16.00,0.00,29.76,20.00,24.00,None,None,None,None,M,M,M,M,None,
EDW,2008-05-13 02:55:00+00,60.08,40.64,48.56,230.00,19.00,0.00,29.76,20.00,M,None,None,None,None,M,M,M,M,None,
EDW,2008-05-13 03:55:00+00,58.64,39.56,49.03,240.00,13.00,0.00,29.78,20.00,22.00,None,None,None,None,M,M,M,M,None,
EDW,2008-05-13 04:55:00+00,58.28,35.96,43.11,210.00,7.00,0.00,29.81,20.00,M,None,None,None,None,M,M,M,M,None,
EDW,2008-05-13 05:55:00+00,60.98,30.74,31.76,230.00,7.00,0.00,29.82,20.00,M,None,None,None,None,M,M,M,M,None,
EDW,2008-05-13 06:55:00+00,59.00,26.42,28.56,310.00,5.00,0.00,29.84,10.00,M,None,None,None,None,M,M,M,M,None,
EDW,2008-05-13 07:55:00+00,52.70,27.86,38.08,M,M,0.00,29.86,10.00,M,None,None,None,None,M,M,M,M,None,
EDW,2008-05-13 08:55:00+00,51.26,29.30,42.60,M,M,0.00,29.87,10.00,M,None,None,None,None,M,M,M,M,None,
EDW,2008-05-13 09:55:00+00,55.58,26.24,32.07,M,M,0.00,29.88,10.00,M,None,None,None,None,M,M,M,M,None,
EDW,2008-05-13 10:55:00+00,54.68,14.18,19.83,60.00,5.00,0.00,29.91,10.00,M,None,None,None,None,M,M,M,M,None,
EDW,2008-05-13 11:55:00+00,44.06,24.44,45.69,130.00,4.00,0.00,29.93,10.00,M,None,None,None,None,M,M,M,M,None,
EDW,2008-05-13 12:55:00+00,53.78,16.52,22.69,350.00,3.00,0.00,29.96,85.00,M,None,None,None,None,M,M,M,M,None,
EDW,2008-05-13 13:55:00+00,55.76,16.34,20.94,30.00,11.00,0.00,29.98,85.00,18.00,None,None,None,None,M,M,M,M,None,
EDW,2008-05-13 14:55:00+00,62.60,12.02,13.57,30.00,20.00,0.00,29.99,85.00,30.00,None,None,None,None,M,M,M,M,None,
EDW,2008-05-13 15:55:00+00,65.66,12.02,12.19,40.00,18.00,0.00,30.03,60.00,24.00,None,None,None,None,M,M,M,M,None,
EDW,2008-05-13 16:55:00+00,67.46,11.48,11.19,40.00,20.00,0.00,30.04,60.00,24.00,None,None,None,None,M,M,M,M,None,
EDW,2008-05-13 17:55:00+00,69.80,9.14,9.30,40.00,17.00,0.00,30.04,80.00,24.00,None,None,None,None,M,M,M,M,None,
EDW,2008-05-13 18:55:00+00,73.04,5.72,7.14,40.00,22.00,0.00,30.02,60.00,28.00,None,None,None,None,M,M,M,M,None,
EDW,2008-05-13 19:55:00+00,74.84,3.74,6.14,40.00,16.00,0.00,30.01,85.00,25.00,None,None,None,None,M,M,M,M,None,
EDW,2008-05-13 20:55:00+00,77.00,1.22,5.08,40.00,11.00,0.00,30.00,85.00,20.00,None,None,None,None,M,M,M,M,None,
EDW,2008-05-13 21:55:00+00,78.98,2.66,5.09,50.00,13.00,0.00,29.98,85.00,22.00,None,None,None,None,M,M,M,M,None,
EDW,2008-05-13 22:55:00+00,80.24,-1.12,4.09,20.00,10.00,0.00,29.96,85.00,M,None,None,None,None,M,M,M,M,None,
EDW,2008-05-13 23:55:00+00,80.42,-1.12,4.07,10.00,4.00,0.00,29.95,85.00,M,None,None,None,None,M,M,M,M,None,
EDW,2008-05-14 00:55:00+00,80.24,-1.12,4.09,60.00,4.00,0.00,29.95,85.00,M,None,None,None,None,M,M,M,M,None,
EDW,2008-05-14 01:55:00+00,78.44,-0.58,4.45,50.00,3.00,0.00,29.95,85.00,M,None,None,None,None,M,M,M,M,None,
EDW,2008-05-14 02:55:00+00,74.12,25.16,16.05,310.00,12.00,0.00,29.98,60.00,M,None,None,None,None,M,M,M,M,None,
EDW,2008-05-14 03:55:00+00,71.06,23.18,16.39,320.00,9.00,0.00,30.00,40.00,M,None,None,None,None,M,M,M,M,None,
EDW,2008-05-14 04:55:00+00,68.00,23.36,18.33,320.00,7.00,0.00,30.02,30.00,M,None,None,None,None,M,M,M,M,None,
EDW,2008-05-14 05:55:00+00,66.20,22.64,18.93,180.00,7.00,0.00,30.03,30.00,M,None,None,None,None,M,M,M,M,None,
EDW,2008-05-14 06:55:00+00,59.72,24.08,25.25,210.00,5.00,0.00,30.03,10.00,M,None,None,None,None,M,M,M,M,None,
EDW,2008-05-14 07:55:00+00,58.46,23.00,25.25,230.00,8.00,0.00,30.03,10.00,M,None,None,None,None,M,M,M,M,None,
EDW,2008-05-14 08:55:00+00,55.40,23.18,28.41,220.00,8.00,0.00,30.03,10.00,M,None,None,None,None,M,M,M,M,None,
EDW,2008-05-14 09:55:00+00,52.88,23.54,31.62,240.00,7.00,0.00,30.03,10.00,M,None,None,None,None,M,M,M,M,None,
EDW,2008-05-14 10:55:00+00,50.36,23.90,35.24,240.00,7.00,0.00,30.04,10.00,M,None,None,None,None,M,M,M,M,None,
EDW,2008-05-14 11:55:00+00,50.00,24.26,36.25,250.00,6.00,0.00,30.05,10.00,M,None,None,None,None,M,M,M,M,None,
EDW,2008-05-14 12:55:00+00,48.74,20.84,32.90,250.00,5.00,0.00,30.05,85.00,M,None,None,None,None,M,M,M,M,None,
EDW,2008-05-14 13:55:00+00,51.98,21.56,30.07,M,M,0.00,30.06,85.00,M,None,None,None,None,M,M,M,M,None,
EDW,2008-05-14 14:55:00+00,61.88,25.16,24.47,240.00,4.00,0.00,30.08,85.00,M,None,None,None,None,M,M,M,M,None,
EDW,2008-05-14 15:55:00+00,68.18,24.80,19.35,M,M,0.00,30.09,85.00,M,None,None,None,None,M,M,M,M,None,
EDW,2008-05-14 16:55:00+00,72.68,24.44,16.35,20.00,3.00,0.00,30.09,85.00,M,None,None,None,None,M,M,M,M,None,
EDW,2008-05-14 17:55:00+00,77.36,20.48,11.83,130.00,6.00,0.00,30.08,85.00,M,None,None,None,None,M,M,M,M,None,
EDW,2008-05-14 18:55:00+00,80.96,17.60,9.29,M,M,0.00,30.06,85.00,M,None,None,None,None,M,M,M,M,None,
EDW,2008-05-14 19:55:00+00,84.56,17.60,8.27,M,M,0.00,30.03,85.00,M,None,None,None,None,M,M,M,M,None,
EDW,2008-05-14 20:55:00+00,87.26,27.32,11.43,M,6.00,0.00,30.01,85.00,M,None,None,None,None,M,M,M,M,None,
EDW,2008-05-14 21:55:00+00,87.44,27.32,11.36,80.00,11.00,0.00,29.99,85.00,17.00,None,None,None,None,M,M,M,M,None,
EDW,2008-05-14 22:55:00+00,87.80,27.68,11.40,350.00,6.00,0.00,29.96,90.00,M,None,None,None,None,M,M,M,M,None,
EDW,2008-05-14 23:55:00+00,88.52,28.22,11.39,80.00,6.00,0.00,29.95,85.00,M,None,None,None,None,M,M,M,M,None,
EDW,2008-05-15 00:55:00+00,88.34,28.04,11.38,M,2.00,0.00,29.94,85.00,M,None,None,None,None,M,M,M,M,None,
EDW,2008-05-15 01:55:00+00,84.74,33.80,16.11,310.00,12.00,0.00,29.94,85.00,M,None,None,None,None,M,M,M,M,None,
EDW,2008-05-15 02:55:00+00,80.96,34.16,18.47,300.00,9.00,0.00,29.95,45.00,M,None,None,None,None,M,M,M,M,None,
EDW,2008-05-15 03:55:00+00,78.08,33.26,19.59,280.00,4.00,0.00,29.97,30.00,M,None,None,None,None,M,M,M,M,None,
EDW,2008-05-15 04:55:00+00,74.48,33.80,22.56,230.00,8.00,0.00,29.98,30.00,M,None,None,None,None,M,M,M,M,None,
EDW,2008-05-15 05:55:00+00,69.26,33.26,26.35,220.00,7.00,0.00,29.98,30.00,M,None,None,None,None,M,M,M,M,None,
EDW,2008-05-15 06:55:00+00,68.00,33.26,27.51,240.00,8.00,0.00,29.98,10.00,M,None,None,None,None,M,M,M,M,None,
EDW,2008-05-15 07:55:00+00,63.50,31.46,29.92,200.00,5.00,0.00,29.98,10.00,M,None,None,None,None,M,M,M,M,None,
EDW,2008-05-15 08:55:00+00,62.24,33.08,33.39,230.00,5.00,0.00,29.98,10.00,M,None,None,None,None,M,M,M,M,None,
EDW,2008-05-15 09:55:00+00,60.08,32.54,35.27,M,M,0.00,30.00,10.00,M,None,None,None,None,M,M,M,M,None,
EDW,2008-05-15 10:55:00+00,59.00,29.66,32.62,M,M,0.00,30.00,10.00,M,None,None,None,None,M,M,M,M,None,
EDW,2008-05-15 11:55:00+00,59.72,30.20,32.50,270.00,6.00,0.00,30.01,10.00,M,None,None,None,None,M,M,M,M,None,
EDW,2008-05-15 12:55:00+00,61.16,32.36,33.70,300.00,2.00,0.00,30.02,90.00,M,None,None,None,None,M,M,M,M,None,
EDW,2008-05-15 13:55:00+00,59.36,30.74,33.65,110.00,3.00,0.00,30.03,90.00,M,None,None,None,None,M,M,M,M,None,
EDW,2008-05-15 14:55:00+00,69.08,35.06,28.49,30.00,4.00,0.00,30.04,85.00,M,None,None,None,None,M,M,M,M,None,
EDW,2008-05-15 15:55:00+00,79.88,39.38,23.51,40.00,16.00,0.00,30.04,85.00,M,None,None,None,None,M,M,M,M,None,
EDW,2008-05-15 16:55:00+00,82.04,39.92,22.38,50.00,12.00,0.00,30.04,85.00,M,None,None,None,None,M,M,M,M,None,
EDW,2008-05-15 17:55:00+00,84.56,39.74,20.49,60.00,17.00,0.00,30.03,85.00,27.00,None,None,None,None,M,M,M,M,None,
EDW,2008-05-15 18:55:00+00,86.90,39.38,18.74,40.00,12.00,0.00,30.02,85.00,22.00,None,None,None,None,M,M,M,M,None,
EDW,2008-05-15 19:55:00+00,88.88,39.38,17.60,50.00,15.00,0.00,29.99,85.00,25.00,None,None,None,None,M,M,M,M,None,
EDW,2008-05-15 20:55:00+00,89.78,37.04,15.61,60.00,15.00,0.00,29.97,85.00,28.00,None,None,None,None,M,M,M,M,None,
EDW,2008-05-15 21:55:00+00,91.04,37.58,15.33,70.00,12.00,0.00,29.96,85.00,19.00,None,None,None,None,M,M,M,M,None,
EDW,2008-05-15 22:55:00+00,91.58,36.68,14.55,80.00,15.00,0.00,29.93,85.00,22.00,None,None,None,None,M,M,M,M,None,
EDW,2008-05-15 23:55:00+00,92.48,37.40,14.55,70.00,14.00,0.00,29.91,85.00,M,None,None,None,None,M,M,M,M,None,
EDW,2008-05-16 00:55:00+00,92.12,37.04,14.51,60.00,14.00,0.00,29.90,85.00,M,None,None,None,None,M,M,M,M,None,
EDW,2008-05-16 01:55:00+00,90.86,36.32,14.67,80.00,9.00,0.00,29.91,85.00,M,None,None,None,None,M,M,M,M,None,
EDW,2008-05-16 02:55:00+00,85.46,36.50,17.53,140.00,5.00,0.00,29.92,85.00,M,None,None,None,None,M,M,M,M,None,
EDW,2008-05-16 03:55:00+00,79.88,35.96,20.56,290.00,6.00,0.00,29.94,45.00,M,None,None,None,None,M,M,M,M,None,
EDW,2008-05-16 04:55:00+00,78.08,39.02,24.60,290.00,3.00,0.00,29.97,45.00,M,None,None,None,None,M,M,M,M,None,
EDW,2008-05-16 05:55:00+00,74.12,37.40,26.34,70.00,7.00,0.00,29.99,10.00,M,None,None,None,None,M,M,M,M,None,
EDW,2008-05-16 06:55:00+00,70.88,34.34,26.03,60.00,4.00,0.00,30.01,10.00,M,None,None,None,None,M,M,M,M,None,
EDW,2008-05-16 07:55:00+00,71.24,34.52,25.90,100.00,8.00,0.00,30.02,10.00,M,None,None,None,None,M,M,M,M,None,
EDW,2008-05-16 08:55:00+00,71.24,35.06,26.46,350.00,4.00,0.00,30.05,10.00,M,None,None,None,None,M,M,M,M,None,
EDW,2008-05-16 09:55:00+00,66.74,33.80,29.36,30.00,7.00,0.00,30.06,10.00,M,None,None,None,None,M,M,M,M,None,
EDW,2008-05-16 10:55:00+00,64.22,32.54,30.48,20.00,7.00,0.00,30.07,10.00,M,None,None,None,None,M,M,M,M,None,
EDW,2008-05-16 11:55:00+00,62.24,31.64,31.51,360.00,5.00,0.00,30.09,10.00,M,None,None,None,None,M,M,M,M,None,
EDW,2008-05-16 12:55:00+00,58.82,30.38,33.81,40.00,4.00,0.00,30.10,85.00,M,None,None,None,None,M,M,M,M,None,
EDW,2008-05-16 13:55:00+00,64.76,31.28,28.42,90.00,2.00,0.00,30.13,85.00,M,None,None,None,None,M,M,M,M,None,
EDW,2008-05-16 14:55:00+00,70.34,31.46,23.62,40.00,8.00,0.00,30.16,85.00,M,None,None,None,None,M,M,M,M,None,
EDW,2008-05-16 15:55:00+00,81.32,29.66,15.23,80.00,12.00,0.00,30.16,85.00,M,None,None,None,None,M,M,M,M,None,
EDW,2008-05-16 16:55:00+00,83.66,28.40,13.41,90.00,12.00,0.00,30.16,85.00,M,None,None,None,None,M,M,M,M,None,
EDW,2008-05-16 17:55:00+00,85.82,28.22,12.42,60.00,17.00,0.00,30.15,85.00,21.00,None,None,None,None,M,M,M,M,None,
EDW,2008-05-16 18:55:00+00,87.62,29.66,12.44,60.00,11.00,0.00,30.14,85.00,20.00,None,None,None,None,M,M,M,M,None,
EDW,2008-05-16 19:55:00+00,90.14,29.48,11.40,10.00,11.00,0.00,30.12,85.00,19.00,None,None,None,None,M,M,M,M,None,
EDW,2008-05-16 20:55:00+00,90.86,27.86,10.43,40.00,11.00,0.00,30.11,85.00,22.00,None,None,None,None,M,M,M,M,None,
EDW,2008-05-16 21:55:00+00,91.58,26.24,9.54,70.00,14.00,0.00,30.09,85.00,26.00,None,None,None,None,M,M,M,M,None,
EDW,2008-05-16 22:55:00+00,92.66,23.18,8.12,50.00,13.00,0.00,30.07,85.00,21.00,None,None,None,None,M,M,M,M,None,
EDW,2008-05-16 23:55:00+00,92.30,23.36,8.27,60.00,8.00,0.00,30.05,85.00,M,None,None,None,None,M,M,M,M,None,
EDW,2008-05-17 00:55:00+00,91.76,25.88,9.34,70.00,13.00,0.00,30.04,85.00,17.00,None,None,None,None,M,M,M,M,None,
EDW,2008-05-17 01:55:00+00,89.78,26.96,10.40,100.00,10.00,0.00,30.04,85.00,M,None,None,None,None,M,M,M,M,None,
EDW,2008-05-17 02:55:00+00,84.74,26.96,12.20,100.00,5.00,0.00,30.05,85.00,M,None,None,None,None,M,M,M,M,None,
EDW,2008-05-17 03:55:00+00,77.72,23.54,13.31,120.00,5.00,0.00,30.08,45.00,M,None,None,None,None,M,M,M,M,None,
EDW,2008-05-17 04:55:00+00,74.30,22.64,14.36,260.00,6.00,0.00,30.10,45.00,M,None,None,None,None,M,M,M,M,None,
EDW,2008-05-17 05:55:00+00,71.78,23.72,16.36,270.00,4.00,0.00,30.11,10.00,M,None,None,None,None,M,M,M,M,None,
EDW,2008-05-17 06:55:00+00,67.46,20.12,16.29,330.00,6.00,0.00,30.11,10.00,M,None,None,None,None,M,M,M,M,None,
EDW,2008-05-17 07:55:00+00,62.42,19.94,19.27,M,M,0.00,30.11,10.00,M,None,None,None,None,M,M,M,M,None,
EDW,2008-05-17 08:55:00+00,61.70,22.64,22.16,M,M,0.00,30.11,10.00,M,None,None,None,None,M,M,M,M,None,
EDW,2008-05-17 09:55:00+00,57.02,18.14,21.63,250.00,4.00,0.00,30.10,10.00,M,None,None,None,None,M,M,M,M,None,
EDW,2008-05-17 10:55:00+00,58.64,24.08,26.25,260.00,7.00,0.00,30.11,10.00,M,None,None,None,None,M,M,M,M,None,
EDW,2008-05-17 11:55:00+00,58.10,27.14,30.39,230.00,8.00,0.00,30.11,10.00,M,None,None,None,None,M,M,M,M,None,
EDW,2008-05-17 12:55:00+00,53.60,22.46,29.43,M,M,0.00,30.13,85.00,M,None,None,None,None,M,M,M,M,None,
EDW,2008-05-17 13:55:00+00,60.98,25.52,25.64,190.00,3.00,0.00,30.14,85.00,M,None,None,None,None,M,M,M,M,None,
EDW,2008-05-17 14:55:00+00,67.64,30.02,24.44,M,M,0.00,30.15,85.00,M,None,None,None,None,M,M,M,M,None,
EDW,2008-05-17 15:55:00+00,74.12,32.36,21.55,M,3.00,0.00,30.16,85.00,M,None,None,None,None,M,M,M,M,None,
EDW,2008-05-17 16:55:00+00,79.88,37.58,21.91,M,M,0.00,30.15,85.00,M,None,None,None,None,M,M,M,M,None,
EDW,2008-05-17 17:55:00+00,85.82,35.96,16.96,M,M,0.00,30.14,85.00,M,None,None,None,None,M,M,M,M,None,
EDW,2008-05-17 18:55:00+00,89.60,36.86,15.59,M,M,0.00,30.12,80.00,M,None,None,None,None,M,M,M,M,None,
EDW,2008-05-17 19:55:00+00,93.20,34.16,12.51,M,M,0.00,30.10,85.00,M,None,None,None,None,M,M,M,M,None,
EDW,2008-05-17 20:55:00+00,95.00,30.92,10.39,40.00,6.00,0.00,30.07,85.00,M,None,None,None,None,M,M,M,M,None,
EDW,2008-05-17 21:55:00+00,97.34,30.20,9.39,60.00,7.00,0.00,30.04,85.00,M,None,None,None,None,M,M,M,M,None,
EDW,2008-05-17 22:55:00+00,97.16,28.40,8.77,110.00,5.00,0.00,30.01,85.00,M,None,None,None,None,M,M,M,M,None,
EDW,2008-05-17 23:55:00+00,99.50,29.12,8.42,50.00,7.00,0.00,29.99,85.00,15.00,None,None,None,None,M,M,M,M,None,
EDW,2008-05-18 00:55:00+00,97.34,40.82,14.31,320.00,9.00,0.00,29.97,85.00,M,None,None,None,None,M,M,M,M,None,
EDW,2008-05-18 01:55:00+00,94.46,47.12,19.89,300.00,17.00,0.00,29.96,80.00,21.00,None,None,None,None,M,M,M,M,None,
EDW,2008-05-18 02:55:00+00,89.78,48.02,23.81,300.00,16.00,0.00,29.97,70.00,M,None,None,None,None,M,M,M,M,None,
EDW,2008-05-18 03:55:00+00,87.08,46.76,24.73,300.00,14.00,0.00,29.98,60.00,M,None,None,None,None,M,M,M,M,None,
EDW,2008-05-18 04:55:00+00,85.64,46.58,25.72,300.00,14.00,0.00,29.99,40.00,M,None,None,None,None,M,M,M,M,None,
EDW,2008-05-18 05:55:00+00,81.68,44.06,26.56,M,M,0.00,30.00,10.00,M,None,None,None,None,M,M,M,M,None,
EDW,2008-05-18 06:55:00+00,78.26,43.52,29.10,190.00,7.00,0.00,30.00,10.00,M,None,None,None,None,M,M,M,M,None,
EDW,2008-05-18 07:55:00+00,76.64,44.96,32.44,200.00,9.00,0.00,30.01,10.00,M,None,None,None,None,M,M,M,M,None,
EDW,2008-05-18 08:55:00+00,73.94,44.96,35.50,220.00,9.00,0.00,30.00,10.00,M,None,None,None,None,M,M,M,M,None,
EDW,2008-05-18 09:55:00+00,74.12,47.30,38.55,220.00,10.00,0.00,29.99,10.00,M,None,None,None,None,M,M,M,M,None,
EDW,2008-05-18 10:55:00+00,74.66,50.36,42.45,220.00,9.00,0.00,30.00,10.00,M,None,None,None,None,M,M,M,M,None,
EDW,2008-05-18 11:55:00+00,72.14,50.00,45.59,210.00,7.00,0.00,30.00,10.00,M,None,None,None,None,M,M,M,M,None,
EDW,2008-05-18 12:55:00+00,69.62,50.54,50.68,210.00,8.00,0.00,30.02,80.00,M,None,None,None,None,M,M,M,M,None,
EDW,2008-05-18 13:55:00+00,72.32,51.44,47.80,220.00,6.00,0.00,30.03,80.00,M,None,None,None,None,M,M,M,M,None,
EDW,2008-05-18 14:55:00+00,78.98,48.92,34.86,220.00,5.00,0.00,30.04,80.00,M,None,None,None,None,M,M,M,M,None,
EDW,2008-05-18 15:55:00+00,85.28,49.64,29.18,220.00,5.00,0.00,30.04,80.00,M,None,None,None,None,M,M,M,M,None,
EDW,2008-05-18 16:55:00+00,89.96,50.18,25.67,230.00,5.00,0.00,30.03,80.00,M,None,None,None,None,M,M,M,M,None,
EDW,2008-05-18 17:55:00+00,93.02,49.46,22.71,210.00,5.00,0.00,30.02,70.00,M,None,None,None,None,M,M,M,M,None,
EDW,2008-05-18 18:55:00+00,97.16,49.10,19.72,M,6.00,0.00,30.00,10.00,M,None,None,None,None,M,M,M,M,None,
EDW,2008-05-18 19:55:00+00,99.14,46.40,16.78,300.00,11.00,0.00,29.97,70.00,M,None,None,None,None,M,M,M,M,None,
EDW,2008-05-18 20:55:00+00,101.84,40.82,12.49,250.00,11.00,0.00,29.95,10.00,16.00,None,None,None,None,M,M,M,M,None,
EDW,2008-05-18 21:55:00+00,102.38,40.10,11.95,230.00,10.00,0.00,29.92,70.00,22.00,None,None,None,None,M,M,M,M,None,
EDW,2008-05-18 22:55:00+00,102.02,41.18,12.60,270.00,9.00,0.00,29.90,70.00,M,None,None,None,None,M,M,M,M,None,
EDW,2008-05-18 23:23:00+00,102.20,42.80,13.34,290.00,15.00,0.00,29.88,70.00,21.00,None,None,None,None,M,M,M,M,None,
EDW,2008-05-18 23:55:00+00,100.40,41.90,13.60,270.00,20.00,0.00,29.88,70.00,24.00,None,None,None,None,M,M,M,M,None,
EDW,2008-05-19 00:55:00+00,97.16,45.14,16.99,290.00,21.00,0.00,29.88,70.00,24.00,None,None,None,None,M,M,M,M,None,
EDW,2008-05-19 01:55:00+00,93.20,45.68,19.59,290.00,19.00,0.00,29.88,50.00,M,None,None,None,None,M,M,M,M,None,
EDW,2008-05-19 02:55:00+00,88.52,48.02,24.78,270.00,16.00,0.00,29.89,50.00,23.00,None,None,None,None,M,M,M,M,None,
EDW,2008-05-19 03:55:00+00,85.46,46.40,25.70,230.00,7.00,0.00,29.92,30.00,M,None,None,None,None,M,M,M,M,None,
EDW,2008-05-19 04:55:00+00,83.48,45.68,26.65,240.00,8.00,0.00,29.93,30.00,M,None,None,None,None,M,M,M,M,None,
EDW,2008-05-19 05:55:00+00,81.32,44.78,27.62,220.00,10.00,0.00,29.93,10.00,M,None,None,None,None,M,M,M,M,None,
EDW,2008-05-19 06:55:00+00,75.74,42.80,30.78,170.00,5.00,0.00,29.93,10.00,M,None,None,None,None,M,M,M,M,None,
EDW,2008-05-19 07:55:00+00,75.92,43.70,31.67,230.00,10.00,0.00,29.92,10.00,M,None,None,None,None,M,M,M,M,None,
EDW,2008-05-19 08:55:00+00,79.16,48.02,33.50,250.00,14.00,0.00,29.91,10.00,M,None,None,None,None,M,M,M,M,None,
EDW,2008-05-19 09:55:00+00,77.90,52.16,40.74,240.00,10.00,0.00,29.91,10.00,M,None,None,None,None,M,M,M,M,None,
EDW,2008-05-19 10:55:00+00,75.38,51.80,43.71,220.00,9.00,0.00,29.91,10.00,M,None,None,None,None,M,M,M,M,None,
EDW,2008-05-19 11:55:00+00,73.94,49.82,42.62,210.00,8.00,0.00,29.92,10.00,M,None,None,None,None,M,M,M,M,None,
EDW,2008-05-19 12:55:00+00,71.06,45.14,39.40,220.00,9.00,0.00,29.92,85.00,M,None,None,None,None,M,M,M,M,None,
EDW,2008-05-19 13:55:00+00,75.20,45.50,34.74,230.00,11.00,0.00,29.93,85.00,M,None,None,None,None,M,M,M,M,None,
EDW,2008-05-19 14:55:00+00,80.06,44.78,28.78,220.00,12.00,0.00,29.93,85.00,M,None,None,None,None,M,M,M,M,None,
EDW,2008-05-19 15:55:00+00,86.54,43.34,22.10,230.00,9.00,0.00,29.94,45.00,M,None,None,None,None,M,M,M,M,None,
EDW,2008-05-19 16:55:00+00,91.22,41.36,17.66,250.00,7.00,0.00,29.93,60.00,M,None,None,None,None,M,M,M,M,None,
EDW,2008-05-19 17:55:00+00,95.18,39.56,14.56,230.00,7.00,0.00,29.92,60.00,M,None,None,None,None,M,M,M,M,None,
EDW,2008-05-19 18:55:00+00,97.16,39.20,13.52,240.00,8.00,0.00,29.91,60.00,M,None,None,None,None,M,M,M,M,None,
EDW,2008-05-19 19:55:00+00,99.14,38.84,12.55,230.00,6.00,0.00,29.89,60.00,M,None,None,None,None,M,M,M,M,None,
EDW,2008-05-19 20:55:00+00,101.30,35.78,10.42,220.00,6.00,0.00,29.87,60.00,16.00,None,None,None,None,M,M,M,M,None,
EDW,2008-05-19 21:55:00+00,102.56,36.86,10.47,220.00,10.00,0.00,29.85,80.00,18.00,None,None,None,None,M,M,M,M,None,
EDW,2008-05-19 22:55:00+00,102.74,34.34,9.43,240.00,18.00,0.00,29.83,60.00,24.00,None,None,None,None,M,M,M,M,None,
EDW,2008-05-19 23:55:00+00,100.40,35.24,10.48,280.00,17.00,0.00,29.83,60.00,22.00,None,None,None,None,M,M,M,M,None,
EDW,2008-05-20 00:55:00+00,98.24,28.04,8.37,290.00,15.00,0.00,29.83,60.00,M,None,None,None,None,M,M,M,M,None,
EDW,2008-05-20 01:55:00+00,95.54,22.82,7.31,280.00,16.00,0.00,29.84,60.00,21.00,None,None,None,None,M,M,M,M,None,
EDW,2008-05-20 02:55:00+00,87.44,44.78,22.69,240.00,12.00,0.00,29.87,60.00,M,None,None,None,None,M,M,M,M,None,
EDW,2008-05-20 03:55:00+00,82.40,44.78,26.67,230.00,11.00,0.00,29.89,30.00,M,None,None,None,None,M,M,M,M,None,
EDW,2008-05-20 04:55:00+00,78.80,45.32,30.62,220.00,10.00,0.00,29.91,30.00,M,None,None,None,None,M,M,M,M,None,
EDW,2008-05-20 05:55:00+00,76.82,42.80,29.69,220.00,7.00,0.00,29.92,10.00,M,None,None,None,None,M,M,M,M,None,
EDW,2008-05-20 06:55:00+00,74.66,41.90,30.82,220.00,10.00,0.00,29.91,10.00,M,None,None,None,None,M,M,M,M,None,
EDW,2008-05-20 07:55:00+00,73.04,41.18,31.65,210.00,9.00,0.00,29.91,10.00,M,None,None,None,None,M,M,M,M,None,
EDW,2008-05-20 08:55:00+00,70.52,40.46,33.53,210.00,8.00,0.00,29.90,10.00,M,None,None,None,None,M,M,M,M,None,
EDW,2008-05-20 09:55:00+00,69.26,39.38,33.56,210.00,8.00,0.00,29.89,10.00,M,None,None,None,None,M,M,M,M,None,
EDW,2008-05-20 10:55:00+00,68.18,39.20,34.58,220.00,7.00,0.00,29.89,10.00,M,None,None,None,None,M,M,M,M,None,
EDW,2008-05-20 11:55:00+00,67.46,37.94,33.75,220.00,9.00,0.00,29.89,10.00,M,None,None,None,None,M,M,M,M,None,
EDW,2008-05-20 12:55:00+00,66.56,39.38,36.83,220.00,9.00,0.00,29.90,85.00,M,None,None,None,None,M,M,M,M,None,
EDW,2008-05-20 13:55:00+00,70.34,41.00,34.44,220.00,9.00,0.00,29.90,80.00,M,None,None,None,None,M,M,M,M,None,
EDW,2008-05-20 14:55:00+00,79.88,41.54,25.57,240.00,11.00,0.00,29.91,45.00,M,None,None,None,None,M,M,M,M,None,
EDW,2008-05-20 15:55:00+00,87.08,40.64,19.57,250.00,14.00,0.00,29.91,45.00,M,None,None,None,None,M,M,M,M,None,
EDW,2008-05-20 16:55:00+00,90.50,40.64,17.57,250.00,13.00,0.00,29.90,45.00,M,None,None,None,None,M,M,M,M,None,
EDW,2008-05-20 17:55:00+00,93.92,40.64,15.79,250.00,16.00,0.00,29.89,60.00,21.00,None,None,None,None,M,M,M,M,None,
EDW,2008-05-20 18:55:00+00,94.82,42.62,16.58,240.00,20.00,0.00,29.89,60.00,31.00,None,None,None,None,M,M,M,M,None,
EDW,2008-05-20 19:55:00+00,94.46,44.06,17.71,240.00,21.00,0.00,29.87,60.00,27.00,None,None,None,None,M,M,M,M,None,
EDW,2008-05-20 20:55:00+00,94.82,44.24,17.64,240.00,19.00,0.00,29.86,45.00,29.00,None,None,None,None,M,M,M,M,None,
EDW,2008-05-20 21:55:00+00,94.10,46.22,19.44,240.00,23.00,0.00,29.84,45.00,M,None,None,None,None,M,M,M,M,None,
EDW,2008-05-20 22:55:00+00,93.02,39.56,15.57,300.00,22.00,0.00,29.83,40.00,30.00,None,None,None,None,M,M,M,M,None,
EDW,2008-05-20 23:55:00+00,91.22,40.28,16.94,290.00,22.00,0.00,29.82,40.00,30.00,None,None,None,None,M,M,M,M,None,
EDW,2008-05-21 00:55:00+00,88.34,34.34,14.68,290.00,22.00,0.00,29.81,40.00,29.00,None,None,None,None,M,M,M,M,None,
EDW,2008-05-21 01:55:00+00,86.00,33.80,15.48,290.00,20.00,0.00,29.80,40.00,28.00,None,None,None,None,M,M,M,M,None,
EDW,2008-05-21 02:55:00+00,82.76,37.76,20.09,280.00,22.00,0.00,29.80,40.00,29.00,None,None,None,None,M,M,M,M,None,
EDW,2008-05-21 03:55:00+00,79.88,40.46,24.52,250.00,11.00,0.00,29.82,30.00,17.00,None,None,None,None,M,M,M,M,None,
EDW,2008-05-21 05:55:00+00,73.94,36.86,25.94,290.00,13.00,0.00,29.82,10.00,M,None,None,None,None,M,M,M,M,None,
EDW,2008-05-21 06:55:00+00,70.88,39.38,31.75,310.00,24.00,0.00,29.81,10.00,30.00,None,None,None,None,M,M,M,M,None,
EDW,2008-05-21 07:55:00+00,68.00,43.16,40.56,280.00,25.00,0.00,29.79,7.00,35.00,None,None,None,None,M,M,M,M,None,
EDW,2008-05-21 08:55:00+00,65.48,43.16,44.25,280.00,29.00,0.00,29.75,10.00,38.00,None,None,None,None,M,M,M,M,None,
EDW,2008-05-21 09:22:00+00,64.40,39.20,39.43,280.00,38.00,0.00,29.71,3.00,46.00,None,None,None,None,M,M,M,M,None,
EDW,2008-05-21 09:24:00+00,64.40,37.40,36.74,280.00,36.00,0.00,29.71,2.50,46.00,None,None,None,None,M,M,M,M,None,
EDW,2008-05-21 09:26:00+00,64.40,37.40,36.74,280.00,36.00,0.00,29.72,2.00,46.00,None,None,None,None,M,M,M,M,None,
EDW,2008-05-21 09:28:00+00,64.40,37.40,36.74,270.00,36.00,0.00,29.72,2.50,46.00,None,None,None,None,M,M,M,M,None,
EDW,2008-05-21 09:31:00+00,64.40,37.40,36.74,270.00,28.00,0.00,29.73,3.00,45.00,None,None,None,None,M,M,M,M,None,
EDW,2008-05-21 09:35:00+00,64.40,37.40,36.74,270.00,29.00,0.00,29.73,5.00,44.00,None,None,None,None,M,M,M,M,None,
EDW,2008-05-21 09:55:00+00,63.32,37.22,37.89,280.00,30.00,0.51,29.72,7.00,41.00,None,None,None,None,M,M,M,M,None,
EDW,2008-05-21 10:36:00+00,62.60,32.00,31.56,300.00,27.00,0.00,29.70,2.50,35.00,None,None,None,None,M,M,M,M,None,
EDW,2008-05-21 10:37:00+00,62.60,30.20,29.35,300.00,27.00,0.00,29.70,2.00,35.00,None,None,None,None,M,M,M,M,None,
EDW,2008-05-21 10:38:00+00,62.60,30.20,29.35,300.00,26.00,0.00,29.70,1.75,35.00,None,None,None,None,M,M,M,M,None,
EDW,2008-05-21 10:39:00+00,64.40,30.20,27.55,300.00,29.00,0.00,29.69,1.50,40.00,None,None,None,None,M,M,M,M,None,
EDW,2008-05-21 10:41:00+00,64.40,30.20,27.55,300.00,28.00,0.00,29.69,1.25,40.00,None,None,None,None,M,M,M,M,None,
EDW,2008-05-21 10:45:00+00,64.40,30.20,27.55,300.00,31.00,0.00,29.69,1.00,40.00,None,None,None,None,M,M,M,M,None,
EDW,2008-05-21 10:50:00+00,64.40,30.20,27.55,300.00,23.00,0.00,29.70,1.25,46.00,None,None,None,None,M,M,M,M,None,
EDW,2008-05-21 10:55:00+00,63.32,29.30,27.58,300.00,27.00,0.00,29.71,1.25,46.00,None,None,None,None,M,M,M,M,None,
EDW,2008-05-21 10:56:00+00,62.60,28.40,27.27,300.00,30.00,0.00,29.70,1.50,46.00,None,None,None,None,M,M,M,M,None,
EDW,2008-05-21 10:57:00+00,62.60,28.40,27.27,300.00,28.00,0.00,29.72,1.75,46.00,None,None,None,None,M,M,M,M,None,
EDW,2008-05-21 10:58:00+00,62.60,28.40,27.27,300.00,24.00,0.00,29.72,2.00,44.00,None,None,None,None,M,M,M,M,None,
EDW,2008-05-21 11:00:00+00,62.60,30.20,29.35,310.00,24.00,0.00,29.72,2.50,44.00,None,None,None,None,M,M,M,M,None,
EDW,2008-05-21 11:02:00+00,62.60,28.40,27.27,300.00,28.00,0.00,29.72,3.00,39.00,None,None,None,None,M,M,M,M,None,
EDW,2008-05-21 11:55:00+00,60.98,24.08,24.15,290.00,29.00,0.25,29.75,10.00,38.00,None,None,None,None,M,M,M,M,None,
EDW,2008-05-21 12:55:00+00,59.54,23.36,24.66,290.00,32.00,0.00,29.74,30.00,40.00,None,None,None,None,M,M,M,M,None,
EDW,2008-05-21 13:55:00+00,58.82,19.76,21.73,290.00,30.00,0.00,29.78,30.00,40.00,None,None,None,None,M,M,M,M,None,
EDW,2008-05-21 14:55:00+00,59.72,19.94,21.20,290.00,28.00,0.00,29.77,30.00,39.00,None,None,None,None,M,M,M,M,None,
EDW,2008-05-21 15:55:00+00,61.70,21.38,21.01,290.00,29.00,0.00,29.77,35.00,34.00,None,None,None,None,M,M,M,M,None,
EDW,2008-05-21 16:55:00+00,64.22,26.06,23.39,280.00,29.00,0.00,29.75,45.00,38.00,None,None,None,None,M,M,M,M,None,
EDW,2008-05-21 17:55:00+00,66.02,31.10,27.01,290.00,27.00,0.00,29.75,30.00,34.00,None,None,None,None,M,M,M,M,None,
EDW,2008-05-21 18:55:00+00,68.36,32.18,26.02,290.00,27.00,0.00,29.71,30.00,39.00,None,None,None,None,M,M,M,M,None,
EDW,2008-05-21 19:55:00+00,70.52,26.24,18.96,280.00,33.00,0.00,29.69,20.00,38.00,None,None,None,None,M,M,M,M,None,
EDW,2008-05-21 20:55:00+00,71.06,26.24,18.62,290.00,28.00,0.00,29.68,20.00,36.00,None,None,None,None,M,M,M,M,None,
EDW,2008-05-21 21:55:00+00,71.42,28.76,20.40,280.00,26.00,0.00,29.66,20.00,36.00,None,None,None,None,M,M,M,M,None,
EDW,2008-05-21 22:55:00+00,72.68,29.30,19.98,280.00,25.00,0.00,29.63,20.00,34.00,None,None,None,None,M,M,M,M,None,
EDW,2008-05-21 23:55:00+00,72.32,28.22,19.35,300.00,27.00,0.00,29.60,20.00,35.00,None,None,None,None,M,M,M,M,None,
EDW,2008-05-22 00:55:00+00,70.70,30.20,22.17,300.00,26.00,0.00,29.59,20.00,34.00,None,None,None,None,M,M,M,M,None,
EDW,2008-05-22 01:55:00+00,68.54,30.74,24.40,300.00,22.00,0.00,29.59,20.00,40.00,None,None,None,None,M,M,M,M,None,
EDW,2008-05-22 02:55:00+00,65.84,32.72,29.01,300.00,24.00,0.00,29.58,20.00,36.00,None,None,None,None,M,M,M,M,None,
EDW,2008-05-22 03:55:00+00,64.04,32.36,30.45,310.00,24.00,0.00,29.59,15.00,30.00,None,None,None,None,M,M,M,M,None,
EDW,2008-05-22 04:55:00+00,63.14,32.36,31.42,310.00,21.00,0.00,29.62,15.00,27.00,None,None,None,None,M,M,M,M,None,
EDW,2008-05-22 05:55:00+00,62.60,32.72,32.49,310.00,19.00,0.00,29.61,10.00,M,None,None,None,None,M,M,M,M,None,
EDW,2008-05-22 06:55:00+00,62.06,32.18,32.41,320.00,14.00,0.00,29.60,10.00,19.00,None,None,None,None,M,M,M,M,None,
EDW,2008-05-22 07:55:00+00,61.16,32.18,33.45,320.00,14.00,0.00,29.59,10.00,M,None,None,None,None,M,M,M,M,None,
EDW,2008-05-22 08:55:00+00,59.90,31.64,34.23,270.00,7.00,0.00,29.57,10.00,15.00,None,None,None,None,M,M,M,M,None,
EDW,2008-05-22 09:55:00+00,58.10,33.26,38.97,300.00,13.00,0.00,29.55,10.00,21.00,None,None,None,None,M,M,M,M,None,
EDW,2008-05-22 10:55:00+00,55.94,32.90,41.52,230.00,13.00,0.00,29.53,10.00,M,None,None,None,None,M,M,M,M,None,
EDW,2008-05-22 10:56:00+00,55.40,32.00,40.84,230.00,14.00,0.00,29.53,10.00,M,None,None,None,None,M,M,M,M,None,
EDW,2008-05-22 11:55:00+00,55.94,33.98,43.36,270.00,17.00,0.00,29.50,10.00,M,None,None,None,None,M,M,M,M,None,
EDW,2008-05-22 12:55:00+00,56.12,34.16,43.39,280.00,14.00,0.00,29.49,50.00,M,None,None,None,None,M,M,M,M,None,
EDW,2008-05-22 13:55:00+00,56.48,34.52,43.44,280.00,8.00,0.00,29.51,60.00,M,None,None,None,None,M,M,M,M,None,
EDW,2008-05-22 14:55:00+00,56.84,33.62,41.37,300.00,5.00,0.00,29.51,45.00,M,None,None,None,None,M,M,M,M,None,
EDW,2008-05-22 15:20:00+00,57.20,33.80,41.13,330.00,14.00,0.00,29.51,45.00,M,None,None,None,None,M,M,M,M,None,
EDW,2008-05-22 15:40:00+00,59.00,35.60,41.42,20.00,20.00,0.00,29.51,45.00,M,None,None,None,None,M,M,M,M,None,
EDW,2008-05-22 15:55:00+00,56.84,35.96,45.41,10.00,16.00,0.00,29.52,45.00,M,None,None,None,None,M,M,M,M,None,
EDW,2008-05-22 15:58:00+00,57.20,37.40,47.44,10.00,17.00,0.00,29.52,45.00,21.00,None,None,None,None,M,M,M,M,None,
EDW,2008-05-22 16:25:00+00,55.40,37.40,50.64,20.00,11.00,0.00,29.54,45.00,M,None,None,None,None,M,M,M,M,None,
EDW,2008-05-22 16:55:00+00,52.52,39.92,62.09,30.00,10.00,0.25,29.54,20.00,M,None,None,None,None,M,M,M,M,None,
EDW,2008-05-22 17:30:00+00,53.60,41.00,62.23,40.00,3.00,0.00,29.53,35.00,M,None,None,None,None,M,M,M,M,None,
EDW,2008-05-22 17:42:00+00,53.60,39.20,58.02,M,4.00,0.00,29.52,35.00,M,None,None,None,None,M,M,M,M,None,
EDW,2008-05-22 17:55:00+00,55.04,40.10,57.02,M,4.00,0.00,29.51,35.00,M,None,None,None,None,M,M,M,M,None,
EDW,2008-05-22 18:55:00+00,60.80,34.16,36.68,M,3.00,0.00,29.49,45.00,M,None,None,None,None,M,M,M,M,None,
EDW,2008-05-22 19:55:00+00,63.50,33.98,33.11,260.00,7.00,0.00,29.48,45.00,M,None,None,None,None,M,M,M,M,None,
EDW,2008-05-22 20:19:00+00,64.40,32.00,29.63,270.00,10.00,0.00,29.47,45.00,17.00,None,None,None,None,M,M,M,M,None,
EDW,2008-05-22 20:26:00+00,64.40,33.80,31.85,230.00,9.00,0.00,29.46,45.00,17.00,None,None,None,None,M,M,M,M,None,
EDW,2008-05-22 20:55:00+00,65.48,32.54,29.16,210.00,6.00,0.00,29.45,45.00,M,None,None,None,None,M,M,M,M,None,
EDW,2008-05-22 21:31:00+00,60.80,37.40,41.71,340.00,22.00,0.00,29.46,45.00,28.00,None,None,None,None,M,M,M,M,None,
EDW,2008-05-22 21:34:00+00,60.80,39.20,44.76,360.00,19.00,0.00,29.46,45.00,25.00,None,None,None,None,M,M,M,M,None,
EDW,2008-05-22 21:55:00+00,60.08,38.48,44.64,360.00,18.00,0.00,29.46,45.00,23.00,None,None,None,None,M,M,M,M,None,
EDW,2008-05-22 22:35:00+00,57.20,37.40,47.44,M,3.00,0.00,29.48,45.00,M,None,None,None,None,M,M,M,M,None,
EDW,2008-05-22 22:55:00+00,59.36,37.94,44.85,50.00,5.00,0.00,29.47,45.00,M,None,None,None,None,M,M,M,M,None,
EDW,2008-05-22 23:55:00+00,62.60,34.16,34.42,360.00,8.00,0.00,29.44,45.00,M,None,None,None,None,M,M,M,M,None,
EDW,2008-05-23 00:55:00+00,66.38,29.84,25.34,330.00,10.00,0.00,29.42,40.00,M,None,None,None,None,M,M,M,M,None,
EDW,2008-05-23 01:55:00+00,65.48,29.30,25.58,310.00,7.00,0.00,29.41,20.00,M,None,None,None,None,M,M,M,M,None,
EDW,2008-05-23 02:55:00+00,62.96,30.56,29.40,300.00,14.00,0.00,29.43,10.00,M,None,None,None,None,M,M,M,M,None,
EDW,2008-05-23 03:55:00+00,60.80,31.82,33.40,290.00,11.00,0.00,29.44,20.00,M,None,None,None,None,M,M,M,M,None,
EDW,2008-05-23 04:55:00+00,59.72,32.54,35.73,280.00,12.00,0.00,29.46,20.00,M,None,None,None,None,M,M,M,M,None,
EDW,2008-05-23 05:06:00+00,59.00,33.80,38.56,240.00,10.00,0.00,29.47,10.00,M,None,None,None,None,M,M,M,M,None,
EDW,2008-05-23 05:55:00+00,55.40,37.58,51.00,230.00,11.00,0.00,29.48,10.00,M,None,None,None,None,M,M,M,M,None,
EDW,2008-05-23 06:55:00+00,53.60,38.84,57.21,230.00,12.00,0.00,29.48,10.00,M,None,None,None,None,M,M,M,M,None,
EDW,2008-05-23 07:55:00+00,52.34,39.74,62.06,210.00,9.00,0.00,29.49,10.00,M,None,None,None,None,M,M,M,M,None,
EDW,2008-05-23 08:55:00+00,51.62,41.18,67.40,230.00,12.00,0.00,29.48,10.00,17.00,None,None,None,None,M,M,M,M,None,
EDW,2008-05-23 09:55:00+00,50.54,41.18,70.14,230.00,9.00,0.00,29.48,10.00,M,None,None,None,None,M,M,M,M,None,
EDW,2008-05-23 10:55:00+00,51.44,41.54,68.80,230.00,11.00,0.00,29.47,10.00,M,None,None,None,None,M,M,M,M,None,
EDW,2008-05-23 11:55:00+00,51.80,41.72,68.36,220.00,9.00,0.00,29.48,10.00,M,None,None,None,None,M,M,M,M,None,
EDW,2008-05-23 12:55:00+00,51.80,42.80,71.26,230.00,11.00,0.00,29.48,30.00,M,None,None,None,None,M,M,M,M,None,
EDW,2008-05-23 13:55:00+00,52.52,42.44,68.44,240.00,11.00,0.00,29.50,25.00,M,None,None,None,None,M,M,M,M,None,
EDW,2008-05-23 14:55:00+00,54.14,43.16,66.30,240.00,15.00,0.00,29.52,25.00,M,None,None,None,None,M,M,M,M,None,
EDW,2008-05-23 15:55:00+00,56.84,42.08,57.67,230.00,15.00,0.00,29.53,30.00,M,None,None,None,None,M,M,M,M,None,
EDW,2008-05-23 16:55:00+00,59.54,40.82,49.85,220.00,15.00,0.00,29.54,30.00,21.00,None,None,None,None,M,M,M,M,None,
EDW,2008-05-23 17:55:00+00,59.72,37.04,42.73,190.00,16.00,0.00,29.56,25.00,24.00,None,None,None,None,M,M,M,M,None,
EDW,2008-05-23 18:55:00+00,59.72,35.96,40.95,190.00,15.00,0.00,29.57,25.00,25.00,None,None,None,None,M,M,M,M,None,
EDW,2008-05-23 19:30:00+00,57.20,39.20,50.91,180.00,23.00,0.00,29.59,20.00,31.00,None,None,None,None,M,M,M,M,None,
EDW,2008-05-23 19:39:00+00,55.40,39.20,54.34,180.00,20.00,0.00,29.60,25.00,30.00,None,None,None,None,M,M,M,M,None,
EDW,2008-05-23 19:55:00+00,53.96,39.74,58.48,190.00,20.00,0.00,29.61,25.00,25.00,None,None,None,None,M,M,M,M,None,
EDW,2008-05-23 20:00:00+00,53.60,39.20,58.02,180.00,21.00,0.00,29.61,25.00,26.00,None,None,None,None,M,M,M,M,None,
EDW,2008-05-23 20:55:00+00,53.06,44.42,72.38,200.00,18.00,0.25,29.62,30.00,23.00,None,None,None,None,M,M,M,M,None,
EDW,2008-05-23 21:55:00+00,55.40,41.18,58.68,190.00,10.00,0.00,29.62,30.00,M,None,None,None,None,M,M,M,M,None,
EDW,2008-05-23 22:13:00+00,59.00,41.00,51.18,190.00,8.00,0.00,29.63,30.00,M,None,None,None,None,M,M,M,M,None,
EDW,2008-05-23 22:55:00+00,60.08,41.18,49.59,220.00,11.00,0.00,29.63,30.00,M,None,None,None,None,M,M,M,M,None,
EDW,2008-05-23 23:55:00+00,60.80,39.02,44.44,200.00,13.00,0.00,29.63,45.00,17.00,None,None,None,None,M,M,M,M,None,
EDW,2008-05-24 00:55:00+00,59.72,38.66,45.54,230.00,14.00,0.00,29.64,45.00,19.00,None,None,None,None,M,M,M,M,None,
EDW,2008-05-24 01:55:00+00,55.76,41.00,57.52,260.00,16.00,0.00,29.67,50.00,22.00,None,None,None,None,M,M,M,M,None,
EDW,2008-05-24 02:55:00+00,52.52,39.38,60.79,260.00,19.00,0.00,29.70,50.00,24.00,None,None,None,None,M,M,M,M,None,
EDW,2008-05-24 03:55:00+00,51.44,39.74,64.16,260.00,16.00,0.00,29.73,40.00,M,None,None,None,None,M,M,M,M,None,
EDW,2008-05-24 04:55:00+00,50.00,40.28,69.11,250.00,15.00,0.00,29.75,40.00,M,None,None,None,None,M,M,M,M,None,
EDW,2008-05-24 05:55:00+00,49.10,40.10,70.97,240.00,8.00,0.00,29.78,10.00,M,None,None,None,None,M,M,M,M,None,
EDW,2008-05-24 06:55:00+00,48.38,40.28,73.42,250.00,10.00,0.00,29.80,10.00,M,None,None,None,None,M,M,M,M,None,
EDW,2008-05-24 07:55:00+00,48.20,39.74,72.38,260.00,9.00,0.00,29.81,10.00,M,None,None,None,None,M,M,M,M,None,
EDW,2008-05-24 08:54:00+00,48.20,39.20,70.88,250.00,5.00,0.00,29.82,10.00,M,None,None,None,None,M,M,M,M,None,
EDW,2008-05-24 08:55:00+00,47.48,39.38,73.33,250.00,5.00,0.00,29.82,10.00,M,None,None,None,None,M,M,M,M,None,
EDW,2008-05-24 09:42:00+00,46.40,39.20,75.84,M,M,0.00,29.82,10.00,M,None,None,None,None,M,M,M,M,None,
EDW,2008-05-24 09:55:00+00,46.22,39.20,76.36,250.00,5.00,0.00,29.83,10.00,M,None,None,None,None,M,M,M,M,None,
EDW,2008-05-24 10:55:00+00,42.44,36.86,80.47,190.00,3.00,0.00,29.83,10.00,M,None,None,None,None,M,M,M,M,None,
EDW,2008-05-24 11:55:00+00,41.36,36.50,82.71,160.00,4.00,0.00,29.85,10.00,M,None,None,None,None,M,M,M,M,None,
EDW,2008-05-24 12:11:00+00,41.00,35.60,80.93,180.00,4.00,0.00,29.85,10.00,M,None,None,None,None,M,M,M,M,None,
EDW,2008-05-24 12:16:00+00,41.00,35.60,80.93,170.00,5.00,0.00,29.85,30.00,M,None,None,None,None,M,M,M,M,None,
EDW,2008-05-24 12:55:00+00,44.24,38.12,78.92,M,M,0.00,29.86,30.00,M,None,None,None,None,M,M,M,M,None,
EDW,2008-05-24 13:55:00+00,47.66,39.02,71.82,M,M,0.00,29.87,30.00,M,None,None,None,None,M,M,M,M,None,
EDW,2008-05-24 14:43:00+00,48.20,39.20,70.88,M,M,0.00,29.88,30.00,M,None,None,None,None,M,M,M,M,None,
EDW,2008-05-24 14:55:00+00,48.56,39.38,70.42,120.00,4.00,0.00,29.89,30.00,M,None,None,None,None,M,M,M,M,None,
EDW,2008-05-24 15:17:00+00,50.00,39.20,66.27,90.00,5.00,0.00,29.90,10.00,M,None,None,None,None,M,M,M,M,None,
EDW,2008-05-24 15:55:00+00,51.62,39.74,63.73,60.00,4.00,0.00,29.90,30.00,M,None,None,None,None,M,M,M,M,None,
EDW,2008-05-24 16:55:00+00,54.32,38.84,55.73,M,M,0.00,29.91,10.00,M,None,None,None,None,M,M,M,M,None,
EDW,2008-05-24 17:55:00+00,55.94,38.48,51.80,100.00,5.00,0.00,29.92,30.00,M,None,None,None,None,M,M,M,M,None,
EDW,2008-05-24 18:55:00+00,58.82,37.58,45.08,M,3.00,0.00,29.90,10.00,M,None,None,None,None,M,M,M,M,None,
EDW,2008-05-24 18:55:00+00,58.82,37.58,45.08,M,3.00,0.00,29.90,10.00,M,None,None,None,None,M,M,M,M,None,
EDW,2008-05-24 18:58:00+00,59.00,37.40,44.47,130.00,4.00,0.00,29.90,30.00,M,None,None,None,None,M,M,M,M,None,
EDW,2008-05-24 19:55:00+00,61.70,35.96,38.17,200.00,5.00,0.00,29.88,30.00,M,None,None,None,None,M,M,M,M,None,
EDW,2008-05-24 20:55:00+00,61.70,35.06,36.83,170.00,3.00,0.00,29.88,30.00,M,None,None,None,None,M,M,M,M,None,
EDW,2008-05-24 21:55:00+00,61.34,37.58,41.21,250.00,15.00,0.00,29.88,50.00,M,None,None,None,None,M,M,M,M,None,
EDW,2008-05-24 22:55:00+00,59.54,38.12,44.87,230.00,13.00,0.00,29.86,50.00,M,None,None,None,None,M,M,M,M,None,
EDW,2008-05-24 23:55:00+00,61.34,37.22,40.63,240.00,12.00,0.00,29.87,40.00,M,None,None,None,None,M,M,M,M,None,
EDW,2008-05-25 00:55:00+00,60.98,38.48,43.24,240.00,15.00,0.00,29.87,30.00,20.00,None,None,None,None,M,M,M,M,None,
EDW,2008-05-25 01:55:00+00,57.56,38.66,49.20,240.00,17.00,0.00,29.89,30.00,21.00,None,None,None,None,M,M,M,M,None,
EDW,2008-05-25 02:55:00+00,55.76,39.56,54.39,240.00,15.00,0.00,29.89,30.00,20.00,None,None,None,None,M,M,M,M,None,
EDW,2008-05-25 03:55:00+00,53.60,40.28,60.51,240.00,14.00,0.00,29.90,30.00,M,None,None,None,None,M,M,M,M,None,
EDW,2008-05-25 04:55:00+00,52.16,39.74,62.48,240.00,14.00,0.00,29.91,30.00,17.00,None,None,None,None,M,M,M,M,None,
EDW,2008-05-25 05:55:00+00,50.36,39.92,67.25,250.00,14.00,0.00,29.92,10.00,M,None,None,None,None,M,M,M,M,None,
EDW,2008-05-25 06:55:00+00,49.46,39.20,67.61,250.00,13.00,0.00,29.92,10.00,M,None,None,None,None,M,M,M,M,None,
EDW,2008-05-25 07:55:00+00,48.74,39.20,69.46,240.00,14.00,0.00,29.91,10.00,M,None,None,None,None,M,M,M,M,None,
EDW,2008-05-25 08:55:00+00,49.10,39.20,68.53,250.00,13.00,0.00,29.90,10.00,M,None,None,None,None,M,M,M,M,None,
EDW,2008-05-25 09:55:00+00,47.84,38.84,70.84,230.00,12.00,0.00,29.89,10.00,16.00,None,None,None,None,M,M,M,M,None,
EDW,2008-05-25 10:55:00+00,47.48,37.94,69.31,230.00,11.00,0.00,29.88,10.00,M,None,None,None,None,M,M,M,M,None,
EDW,2008-05-25 11:55:00+00,46.40,37.22,70.18,230.00,10.00,0.00,29.89,10.00,M,None,None,None,None,M,M,M,M,None,
EDW,2008-05-25 12:58:00+00,44.60,39.20,81.20,210.00,5.00,0.00,29.89,40.00,M,None,None,None,None,M,M,M,M,None,
EDW,2008-05-25 13:55:00+00,46.76,38.12,71.72,230.00,8.00,0.00,29.90,40.00,M,None,None,None,None,M,M,M,M,None,
EDW,2008-05-25 14:55:00+00,51.08,38.12,61.03,240.00,12.00,0.00,29.91,40.00,M,None,None,None,None,M,M,M,M,None,
EDW,2008-05-25 15:55:00+00,54.50,37.22,51.95,240.00,11.00,0.00,29.90,40.00,M,None,None,None,None,M,M,M,M,None,
EDW,2008-05-25 16:55:00+00,55.94,36.14,47.25,240.00,9.00,0.00,29.89,40.00,M,None,None,None,None,M,M,M,M,None,
EDW,2008-05-25 17:55:00+00,57.38,36.68,45.82,220.00,9.00,0.00,29.88,30.00,M,None,None,None,None,M,M,M,M,None,
EDW,2008-05-25 18:55:00+00,58.82,35.42,41.39,250.00,4.00,0.00,29.87,30.00,M,None,None,None,None,M,M,M,M,None,
EDW,2008-05-25 19:55:00+00,61.70,33.98,35.28,190.00,7.00,0.00,29.85,40.00,M,None,None,None,None,M,M,M,M,None,
EDW,2008-05-25 20:55:00+00,61.52,32.36,33.27,230.00,11.00,0.00,29.84,40.00,15.00,None,None,None,None,M,M,M,M,None,
EDW,2008-05-25 21:55:00+00,64.04,33.98,32.49,230.00,11.00,0.00,29.83,40.00,16.00,None,None,None,None,M,M,M,M,None,
EDW,2008-05-25 22:55:00+00,63.86,32.18,30.42,280.00,13.00,0.00,29.82,40.00,18.00,None,None,None,None,M,M,M,M,None,
EDW,2008-05-25 23:55:00+00,64.58,33.62,31.43,250.00,14.00,0.00,29.82,40.00,26.00,None,None,None,None,M,M,M,M,None,
EDW,2008-05-26 00:55:00+00,62.06,35.96,37.69,240.00,16.00,0.00,29.81,40.00,23.00,None,None,None,None,M,M,M,M,None,
EDW,2008-05-26 01:55:00+00,58.28,37.40,45.64,240.00,20.00,0.00,29.82,40.00,25.00,None,None,None,None,M,M,M,M,None,
EDW,2008-05-26 02:55:00+00,54.68,38.48,54.23,240.00,18.00,0.00,29.84,40.00,M,None,None,None,None,M,M,M,M,None,
EDW,2008-05-26 03:55:00+00,52.52,39.74,61.65,240.00,15.00,0.00,29.84,30.00,23.00,None,None,None,None,M,M,M,M,None,
EDW,2008-05-26 04:55:00+00,50.72,39.56,65.43,240.00,13.00,0.00,29.86,30.00,20.00,None,None,None,None,M,M,M,M,None,
EDW,2008-05-26 05:55:00+00,49.64,39.02,66.69,240.00,14.00,0.00,29.86,10.00,M,None,None,None,None,M,M,M,M,None,
EDW,2008-05-26 06:55:00+00,48.74,38.66,68.01,240.00,14.00,0.00,29.86,10.00,22.00,None,None,None,None,M,M,M,M,None,
EDW,2008-05-26 07:55:00+00,47.48,39.02,72.31,230.00,12.00,0.00,29.85,10.00,M,None,None,None,None,M,M,M,M,None,
EDW,2008-05-26 08:55:00+00,46.94,38.12,71.24,230.00,13.00,0.00,29.85,10.00,M,None,None,None,None,M,M,M,M,None,
EDW,2008-05-26 09:55:00+00,46.04,37.58,72.16,220.00,13.00,0.00,29.84,10.00,M,None,None,None,None,M,M,M,M,None,
EDW,2008-05-26 10:55:00+00,46.76,37.58,70.22,220.00,12.00,0.00,29.84,10.00,M,None,None,None,None,M,M,M,M,None,
EDW,2008-05-26 11:55:00+00,46.76,36.86,68.26,240.00,12.00,0.00,29.84,10.00,M,None,None,None,None,M,M,M,M,None,
EDW,2008-05-26 12:55:00+00,46.22,37.58,71.67,230.00,13.00,0.00,29.86,10.00,M,None,None,None,None,M,M,M,M,None,
EDW,2008-05-26 13:55:00+00,48.74,39.20,69.46,230.00,13.00,0.00,29.87,10.00,M,None,None,None,None,M,M,M,M,None,
EDW,2008-05-26 14:55:00+00,53.42,41.72,64.41,240.00,18.00,0.00,29.89,10.00,M,None,None,None,None,M,M,M,M,None,
EDW,2008-05-26 15:55:00+00,57.74,41.18,53.92,240.00,15.00,0.00,29.90,10.00,M,None,None,None,None,M,M,M,M,None,
EDW,2008-05-26 16:55:00+00,60.62,41.00,48.31,250.00,18.00,0.00,29.90,10.00,23.00,None,None,None,None,M,M,M,M,None,
EDW,2008-05-26 17:55:00+00,63.32,40.10,42.41,280.00,15.00,0.00,29.91,10.00,M,None,None,None,None,M,M,M,M,None,
EDW,2008-05-26 18:55:00+00,64.40,39.20,39.43,280.00,18.00,0.00,29.90,10.00,21.00,None,None,None,None,M,M,M,M,None,
EDW,2008-05-26 19:55:00+00,66.02,39.56,37.79,290.00,15.00,0.00,29.90,10.00,22.00,None,None,None,None,M,M,M,M,None,
EDW,2008-05-26 20:55:00+00,68.54,39.92,35.13,270.00,18.00,0.00,29.90,10.00,22.00,None,None,None,None,M,M,M,M,None,
EDW,2008-05-26 21:55:00+00,68.90,40.46,35.43,240.00,18.00,0.00,29.89,10.00,25.00,None,None,None,None,M,M,M,M,None,
EDW,2008-05-26 22:55:00+00,68.00,40.82,37.06,260.00,17.00,0.00,29.89,10.00,26.00,None,None,None,None,M,M,M,M,None,
EDW,2008-05-26 23:55:00+00,67.10,42.08,40.14,230.00,22.00,0.00,29.88,10.00,28.00,None,None,None,None,M,M,M,M,None,
EDW,2008-05-27 00:55:00+00,65.30,42.44,43.32,230.00,21.00,0.00,29.87,10.00,29.00,None,None,None,None,M,M,M,M,None,
EDW,2008-05-27 01:55:00+00,63.68,41.72,44.59,240.00,21.00,0.00,29.89,10.00,26.00,None,None,None,None,M,M,M,M,None,
EDW,2008-05-27 02:55:00+00,59.18,43.34,55.65,230.00,16.00,0.00,29.91,10.00,24.00,None,None,None,None,M,M,M,M,None,
EDW,2008-05-27 03:55:00+00,55.94,43.70,63.40,230.00,17.00,0.00,29.93,10.00,21.00,None,None,None,None,M,M,M,M,None,
EDW,2008-05-27 04:55:00+00,54.68,43.16,65.01,220.00,12.00,0.00,29.95,10.00,M,None,None,None,None,M,M,M,M,None,
EDW,2008-05-27 05:55:00+00,53.06,42.44,67.10,210.00,9.00,0.00,29.94,10.00,M,None,None,None,None,M,M,M,M,None,
EDW,2008-05-27 06:55:00+00,51.44,41.36,68.32,210.00,9.00,0.00,29.94,10.00,M,None,None,None,None,M,M,M,M,None,
EDW,2008-05-27 07:55:00+00,50.36,41.00,70.13,220.00,7.00,0.00,29.94,10.00,M,None,None,None,None,M,M,M,M,None,
EDW,2008-05-27 08:55:00+00,48.74,40.64,73.46,230.00,6.00,0.00,29.93,10.00,M,None,None,None,None,M,M,M,M,None,
EDW,2008-05-27 09:55:00+00,48.02,40.28,74.42,220.00,5.00,0.00,29.93,10.00,M,None,None,None,None,M,M,M,M,None,
EDW,2008-05-27 10:55:00+00,47.12,39.74,75.38,210.00,5.00,0.00,29.93,10.00,M,None,None,None,None,M,M,M,M,None,
EDW,2008-05-27 11:55:00+00,46.76,40.64,79.13,210.00,7.00,0.00,29.93,10.00,M,None,None,None,None,M,M,M,M,None,
EDW,2008-05-27 12:55:00+00,44.78,39.92,82.94,220.00,6.00,0.00,29.93,85.00,M,None,None,None,None,M,M,M,M,None,
EDW,2008-05-27 13:55:00+00,47.84,40.64,75.98,220.00,8.00,0.00,29.94,80.00,M,None,None,None,None,M,M,M,M,None,
EDW,2008-05-27 14:55:00+00,52.88,41.54,65.24,250.00,4.00,0.00,29.95,50.00,M,None,None,None,None,M,M,M,M,None,
EDW,2008-05-27 15:55:00+00,60.08,42.44,52.06,260.00,9.00,0.00,29.95,40.00,M,None,None,None,None,M,M,M,M,None,
EDW,2008-05-27 16:55:00+00,63.14,42.08,46.08,260.00,8.00,0.00,29.95,40.00,M,None,None,None,None,M,M,M,M,None,
EDW,2008-05-27 17:55:00+00,66.02,40.10,38.59,220.00,8.00,0.00,29.94,40.00,M,None,None,None,None,M,M,M,M,None,
EDW,2008-05-27 18:55:00+00,69.62,40.64,34.81,210.00,9.00,0.00,29.92,40.00,15.00,None,None,None,None,M,M,M,M,None,
EDW,2008-05-27 19:55:00+00,71.42,38.12,29.68,240.00,12.00,0.00,29.91,45.00,18.00,None,None,None,None,M,M,M,M,None,
EDW,2008-05-27 20:55:00+00,73.22,32.36,22.21,230.00,14.00,0.00,29.89,45.00,22.00,None,None,None,None,M,M,M,M,None,
EDW,2008-05-27 21:55:00+00,73.94,33.44,22.64,230.00,12.00,0.00,29.88,45.00,20.00,None,None,None,None,M,M,M,M,None,
EDW,2008-05-27 22:55:00+00,73.58,36.86,26.26,230.00,17.00,0.00,29.87,45.00,24.00,None,None,None,None,M,M,M,M,None,
EDW,2008-05-27 23:55:00+00,72.14,39.38,30.43,230.00,19.00,0.00,29.87,45.00,24.00,None,None,None,None,M,M,M,M,None,
EDW,2008-05-28 00:55:00+00,70.16,41.18,34.90,240.00,21.00,0.00,29.87,45.00,28.00,None,None,None,None,M,M,M,M,None,
EDW,2008-05-28 01:55:00+00,66.38,41.72,40.58,240.00,18.00,0.00,29.89,45.00,26.00,None,None,None,None,M,M,M,M,None,
EDW,2008-05-28 02:55:00+00,62.06,41.72,47.20,230.00,19.00,0.00,29.90,45.00,25.00,None,None,None,None,M,M,M,M,None,
EDW,2008-05-28 03:55:00+00,58.64,42.26,54.43,240.00,18.00,0.00,29.92,30.00,22.00,None,None,None,None,M,M,M,M,None,
EDW,2008-05-28 04:55:00+00,57.02,41.54,56.11,240.00,15.00,0.00,29.95,30.00,M,None,None,None,None,M,M,M,M,None,
EDW,2008-05-28 05:55:00+00,55.58,41.18,58.30,240.00,13.00,0.00,29.95,10.00,M,None,None,None,None,M,M,M,M,None,
EDW,2008-05-28 06:55:00+00,54.14,40.64,60.17,230.00,8.00,0.00,29.95,10.00,M,None,None,None,None,M,M,M,M,None,
EDW,2008-05-28 07:55:00+00,52.88,40.28,62.13,230.00,10.00,0.00,29.95,10.00,M,None,None,None,None,M,M,M,M,None,
EDW,2008-05-28 08:55:00+00,52.70,41.72,66.13,230.00,9.00,0.00,29.95,10.00,M,None,None,None,None,M,M,M,M,None,
EDW,2008-05-28 09:55:00+00,52.16,42.08,68.40,230.00,10.00,0.00,29.94,10.00,M,None,None,None,None,M,M,M,M,None,
EDW,2008-05-28 10:55:00+00,50.72,41.36,70.16,230.00,8.00,0.00,29.94,10.00,M,None,None,None,None,M,M,M,M,None,
EDW,2008-05-28 11:55:00+00,49.46,40.82,72.01,240.00,8.00,0.00,29.94,10.00,M,None,None,None,None,M,M,M,M,None,
EDW,2008-05-28 12:55:00+00,49.10,41.18,74.01,220.00,7.00,0.00,29.95,80.00,M,None,None,None,None,M,M,M,M,None,
EDW,2008-05-28 13:55:00+00,52.16,41.90,67.93,220.00,10.00,0.00,29.96,80.00,M,None,None,None,None,M,M,M,M,None,
EDW,2008-05-28 14:55:00+00,56.84,42.26,58.07,230.00,14.00,0.00,29.96,80.00,M,None,None,None,None,M,M,M,M,None,
EDW,2008-05-28 15:55:00+00,62.42,42.08,47.26,240.00,13.00,0.00,29.97,80.00,21.00,None,None,None,None,M,M,M,M,None,
EDW,2008-05-28 16:55:00+00,65.84,39.20,37.50,240.00,13.00,0.00,29.97,80.00,20.00,None,None,None,None,M,M,M,M,None,
EDW,2008-05-28 17:55:00+00,68.90,29.84,23.23,230.00,15.00,0.00,29.97,85.00,19.00,None,None,None,None,M,M,M,M,None,
EDW,2008-05-28 18:55:00+00,71.60,31.28,22.46,240.00,14.00,0.00,29.97,85.00,22.00,None,None,None,None,M,M,M,M,None,
EDW,2008-05-28 19:55:00+00,73.22,33.62,23.37,260.00,14.00,0.00,29.95,85.00,26.00,None,None,None,None,M,M,M,M,None,
EDW,2008-05-28 20:55:00+00,73.94,34.34,23.47,240.00,20.00,0.00,29.95,85.00,25.00,None,None,None,None,M,M,M,M,None,
EDW,2008-05-28 21:55:00+00,74.48,32.36,21.29,240.00,20.00,0.00,29.94,85.00,28.00,None,None,None,None,M,M,M,M,None,
EDW,2008-05-28 22:55:00+00,73.58,33.44,22.92,240.00,21.00,0.00,29.94,70.00,28.00,None,None,None,None,M,M,M,M,None,
EDW,2008-05-28 23:55:00+00,73.22,37.22,26.96,240.00,16.00,0.00,29.94,70.00,27.00,None,None,None,None,M,M,M,M,None,
EDW,2008-05-29 00:55:00+00,71.42,37.40,28.85,230.00,19.00,0.00,29.94,70.00,26.00,None,None,None,None,M,M,M,M,None,
EDW,2008-05-29 01:55:00+00,68.72,38.84,33.47,240.00,20.00,0.00,29.95,70.00,23.00,None,None,None,None,M,M,M,M,None,
EDW,2008-05-29 02:55:00+00,64.76,42.98,45.07,250.00,17.00,0.00,29.96,70.00,23.00,None,None,None,None,M,M,M,M,None,
EDW,2008-05-29 03:55:00+00,61.52,41.90,48.45,240.00,12.00,0.00,29.98,30.00,M,None,None,None,None,M,M,M,M,None,
EDW,2008-05-29 04:55:00+00,59.72,41.72,51.29,240.00,13.00,0.00,30.00,30.00,M,None,None,None,None,M,M,M,M,None,
EDW,2008-05-29 05:55:00+00,58.28,41.90,54.38,240.00,11.00,0.00,30.00,10.00,M,None,None,None,None,M,M,M,M,None,
EDW,2008-05-29 06:55:00+00,55.94,41.18,57.54,230.00,8.00,0.00,30.00,10.00,M,None,None,None,None,M,M,M,M,None,
EDW,2008-05-29 07:55:00+00,54.86,41.36,60.26,220.00,10.00,0.00,29.98,10.00,M,None,None,None,None,M,M,M,M,None,
EDW,2008-05-29 08:55:00+00,52.88,40.46,62.57,210.00,9.00,0.00,29.98,10.00,M,None,None,None,None,M,M,M,M,None,
EDW,2008-05-29 09:55:00+00,51.62,41.90,69.30,230.00,9.00,0.00,29.97,10.00,M,None,None,None,None,M,M,M,M,None,
EDW,2008-05-29 10:55:00+00,50.36,40.28,68.19,240.00,8.00,0.00,29.97,10.00,M,None,None,None,None,M,M,M,M,None,
EDW,2008-05-29 11:55:00+00,50.72,39.56,65.43,230.00,12.00,0.00,29.97,10.00,M,None,None,None,None,M,M,M,M,None,
EDW,2008-05-29 12:55:00+00,50.18,39.74,67.23,240.00,12.00,0.00,29.98,50.00,M,None,None,None,None,M,M,M,M,None,
EDW,2008-05-29 13:55:00+00,52.52,41.72,66.57,240.00,11.00,0.00,29.99,45.00,M,None,None,None,None,M,M,M,M,None,
EDW,2008-05-29 14:55:00+00,57.74,42.62,57.00,230.00,12.00,0.00,30.00,45.00,M,None,None,None,None,M,M,M,M,None,
EDW,2008-05-29 15:55:00+00,63.14,42.08,46.08,240.00,13.00,0.00,30.01,40.00,M,None,None,None,None,M,M,M,M,None,
EDW,2008-05-29 16:07:00+00,64.40,42.80,45.32,230.00,11.00,0.00,30.01,40.00,20.00,None,None,None,None,M,M,M,M,None,
EDW,2008-05-29 16:55:00+00,66.92,41.00,38.74,240.00,11.00,0.00,30.02,40.00,M,None,None,None,None,M,M,M,M,None,
EDW,2008-05-29 17:55:00+00,68.90,39.20,33.74,250.00,8.00,0.00,30.00,40.00,19.00,None,None,None,None,M,M,M,M,None,
EDW,2008-05-29 18:55:00+00,71.24,36.68,28.22,210.00,6.00,0.00,30.00,40.00,16.00,None,None,None,None,M,M,M,M,None,
EDW,2008-05-29 19:55:00+00,72.14,32.72,23.38,230.00,5.00,0.00,29.99,40.00,M,None,None,None,None,M,M,M,M,None,
EDW,2008-05-29 20:55:00+00,76.46,30.74,18.67,240.00,14.00,0.00,29.97,45.00,18.00,None,None,None,None,M,M,M,M,None,
EDW,2008-05-29 21:55:00+00,77.72,34.34,20.70,250.00,13.00,0.00,29.96,50.00,22.00,None,None,None,None,M,M,M,M,None,
EDW,2008-05-29 22:55:00+00,77.90,35.06,21.17,260.00,15.00,0.00,29.95,50.00,24.00,None,None,None,None,M,M,M,M,None,
EDW,2008-05-29 23:55:00+00,77.00,37.22,23.76,250.00,13.00,0.00,29.95,50.00,23.00,None,None,None,None,M,M,M,M,None,
EDW,2008-05-30 00:55:00+00,75.02,39.38,27.62,260.00,14.00,0.00,29.94,40.00,M,None,None,None,None,M,M,M,M,None,
EDW,2008-05-30 01:55:00+00,71.60,41.36,33.46,240.00,17.00,0.00,29.95,40.00,26.00,None,None,None,None,M,M,M,M,None,
EDW,2008-05-30 02:55:00+00,68.00,40.64,36.80,250.00,13.00,0.00,29.97,40.00,22.00,None,None,None,None,M,M,M,M,None,
EDW,2008-05-30 03:55:00+00,64.94,39.20,38.69,260.00,12.00,0.00,29.99,30.00,M,None,None,None,None,M,M,M,M,None,
EDW,2008-05-30 04:55:00+00,62.42,41.90,46.93,250.00,12.00,0.00,30.01,30.00,M,None,None,None,None,M,M,M,M,None,
EDW,2008-05-30 05:55:00+00,59.72,41.36,50.58,240.00,9.00,0.00,30.01,10.00,M,None,None,None,None,M,M,M,M,None,
EDW,2008-05-30 06:55:00+00,58.10,40.82,52.49,230.00,13.00,0.00,30.00,10.00,M,None,None,None,None,M,M,M,M,None,
EDW,2008-05-30 07:55:00+00,56.48,40.82,55.65,230.00,10.00,0.00,30.00,10.00,M,None,None,None,None,M,M,M,M,None,
EDW,2008-05-30 08:55:00+00,54.32,39.56,57.31,230.00,9.00,0.00,29.99,10.00,M,None,None,None,None,M,M,M,M,None,
EDW,2008-05-30 09:55:00+00,54.14,39.56,57.69,220.00,8.00,0.00,29.98,10.00,M,None,None,None,None,M,M,M,M,None,
EDW,2008-05-30 10:55:00+00,51.26,39.02,62.80,220.00,7.00,0.00,29.98,10.00,M,None,None,None,None,M,M,M,M,None,
EDW,2008-05-30 11:55:00+00,51.26,40.10,65.50,210.00,9.00,0.00,29.98,10.00,M,None,None,None,None,M,M,M,M,None,
EDW,2008-05-30 12:55:00+00,49.46,38.66,66.20,200.00,6.00,0.00,30.00,85.00,M,None,None,None,None,M,M,M,M,None,
EDW,2008-05-30 13:55:00+00,51.08,37.94,60.60,230.00,3.00,0.00,30.02,80.00,M,None,None,None,None,M,M,M,M,None,
EDW,2008-05-30 14:55:00+00,57.20,40.10,52.73,40.00,3.00,0.00,30.02,45.00,M,None,None,None,None,M,M,M,M,None,
EDW,2008-05-30 15:55:00+00,62.42,41.36,45.96,M,4.00,0.00,30.03,45.00,M,None,None,None,None,M,M,M,M,None,
EDW,2008-05-30 16:55:00+00,68.36,38.30,33.18,M,M,0.00,30.03,45.00,M,None,None,None,None,M,M,M,M,None,
EDW,2008-05-30 17:55:00+00,71.24,34.52,25.90,M,M,0.00,30.02,45.00,M,None,None,None,None,M,M,M,M,None,
EDW,2008-05-30 18:55:00+00,73.94,33.26,22.48,M,M,0.00,30.01,45.00,M,None,None,None,None,M,M,M,M,None,
EDW,2008-05-30 19:55:00+00,78.26,31.82,18.37,220.00,5.00,0.00,29.99,45.00,M,None,None,None,None,M,M,M,M,None,
EDW,2008-05-30 20:55:00+00,79.70,25.70,13.64,280.00,3.00,0.00,29.97,45.00,M,None,None,None,None,M,M,M,M,None,
EDW,2008-05-30 21:55:00+00,80.96,22.10,11.26,260.00,3.00,0.00,29.96,45.00,M,None,None,None,None,M,M,M,M,None,
EDW,2008-05-30 22:55:00+00,82.94,32.90,16.47,250.00,15.00,0.00,29.94,40.00,M,None,None,None,None,M,M,M,M,None,
EDW,2008-05-30 23:55:00+00,81.68,35.96,19.38,200.00,9.00,0.00,29.94,40.00,18.00,None,None,None,None,M,M,M,M,None,
EDW,2009-05-01 00:55:00+00,77.54,9.68,7.34,270.00,26.00,0.00,29.93,60.00,35.00,None,None,None,None,M,M,M,M,None,
EDW,2009-05-01 02:55:00+00,69.80,19.58,14.69,240.00,12.00,0.00,29.96,50.00,M,None,None,None,None,M,M,M,M,None,
EDW,2009-05-01 03:55:00+00,67.10,17.06,14.46,220.00,13.00,0.00,29.97,30.00,M,None,None,None,None,M,M,M,M,None,
EDW,2009-05-01 04:55:00+00,63.14,20.66,19.37,210.00,9.00,0.00,30.00,30.00,M,None,None,None,None,M,M,M,M,None,
EDW,2009-05-01 05:55:00+00,61.88,18.14,18.18,210.00,11.00,0.00,29.99,10.00,M,None,None,None,None,M,M,M,M,None,
EDW,2009-05-01 06:55:00+00,62.06,13.46,14.74,210.00,14.00,0.00,29.98,10.00,M,None,None,None,None,M,M,M,M,None,
EDW,2009-05-01 07:55:00+00,65.30,18.14,16.13,230.00,18.00,0.00,29.98,10.00,M,None,None,None,None,M,M,M,M,None,
EDW,2009-05-01 08:55:00+00,64.58,20.48,18.28,220.00,11.00,0.00,29.98,10.00,M,None,None,None,None,M,M,M,M,None,
EDW,2009-05-01 11:55:00+00,63.14,30.74,29.43,230.00,11.00,0.00,29.97,10.00,M,None,None,None,None,M,M,M,M,None,
EDW,2009-05-01 12:55:00+00,61.70,30.38,30.52,230.00,11.00,0.00,29.98,85.00,M,None,None,None,None,M,M,M,M,None,
EDW,2009-05-01 13:55:00+00,61.52,26.60,26.30,210.00,10.00,0.00,30.01,85.00,M,None,None,None,None,M,M,M,M,None,
EDW,2009-05-01 14:55:00+00,66.56,32.00,27.49,200.00,7.00,0.00,30.01,85.00,M,None,None,None,None,M,M,M,M,None,
EDW,2009-05-01 15:55:00+00,69.44,32.54,25.44,220.00,13.00,0.00,30.01,85.00,M,None,None,None,None,M,M,M,M,None,
EDW,2009-05-01 16:55:00+00,75.56,35.78,23.54,210.00,12.00,0.00,30.00,85.00,M,None,None,None,None,M,M,M,M,None,
EDW,2009-05-01 17:55:00+00,77.36,37.94,24.15,220.00,4.00,0.00,30.00,85.00,M,None,None,None,None,M,M,M,M,None,
EDW,2009-05-01 18:55:00+00,79.16,39.38,24.08,210.00,12.00,0.00,29.99,85.00,M,None,None,None,None,M,M,M,M,None,
EDW,2009-05-01 19:55:00+00,80.78,42.26,25.53,220.00,16.00,0.00,29.97,85.00,22.00,None,None,None,None,M,M,M,M,None,
EDW,2009-05-01 20:55:00+00,82.40,41.90,23.88,220.00,14.00,0.00,29.94,85.00,19.00,None,None,None,None,M,M,M,M,None,
EDW,2009-05-01 21:55:00+00,84.02,40.64,21.59,220.00,13.00,0.00,29.93,85.00,23.00,None,None,None,None,M,M,M,M,None,
EDW,2009-05-01 22:55:00+00,82.22,42.08,24.19,250.00,17.00,0.00,29.92,85.00,22.00,None,None,None,None,M,M,M,M,None,
EDW,2009-05-01 23:55:00+00,75.92,42.80,30.59,280.00,28.00,0.00,29.94,60.00,37.00,None,None,None,None,M,M,M,M,None,
EDW,2009-05-02 00:55:00+00,70.34,46.40,42.35,280.00,21.00,0.00,29.97,45.00,31.00,None,None,None,None,M,M,M,M,None,
EDW,2009-05-02 01:55:00+00,67.28,47.48,48.99,270.00,18.00,0.00,30.00,40.00,M,None,None,None,None,M,M,M,M,None,
EDW,2009-05-02 02:55:00+00,64.58,49.28,57.56,270.00,14.00,0.00,30.02,30.00,M,None,None,None,None,M,M,M,M,None,
EDW,2009-05-02 03:32:00+00,64.40,50.00,59.50,250.00,9.00,0.00,30.03,10.00,M,None,None,None,None,M,M,M,M,None,
EDW,2009-05-02 03:32:00+00,64.40,50.00,59.50,250.00,9.00,0.00,30.03,30.00,M,None,None,None,None,M,M,M,M,None,
EDW,2009-05-02 03:55:00+00,63.68,51.44,64.36,230.00,15.00,0.00,30.03,30.00,M,None,None,None,None,M,M,M,M,None,
EDW,2009-05-02 04:55:00+00,62.24,50.72,65.92,240.00,8.00,0.00,30.03,30.00,M,None,None,None,None,M,M,M,M,None,
EDW,2009-05-02 05:48:00+00,60.80,51.80,72.20,240.00,10.00,0.00,30.03,10.00,M,None,None,None,None,M,M,M,M,None,
EDW,2009-05-02 05:55:00+00,60.62,51.44,71.70,230.00,8.00,0.00,30.03,10.00,M,None,None,None,None,M,M,M,M,None,
EDW,2009-05-02 06:31:00+00,60.80,51.80,72.20,220.00,9.00,0.00,30.01,10.00,M,None,None,None,None,M,M,M,M,None,
EDW,2009-05-02 06:55:00+00,60.08,50.36,70.23,220.00,7.00,0.00,30.00,10.00,M,None,None,None,None,M,M,M,M,None,
EDW,2009-05-02 07:32:00+00,60.80,50.00,67.54,240.00,8.00,0.00,30.00,10.00,M,None,None,None,None,M,M,M,M,None,
EDW,2009-05-02 07:45:00+00,60.80,50.00,67.54,250.00,7.00,0.00,30.00,10.00,M,None,None,None,None,M,M,M,M,None,
EDW,2009-05-02 07:55:00+00,59.90,49.10,67.44,230.00,6.00,0.00,30.00,10.00,M,None,None,None,None,M,M,M,M,None,
EDW,2009-05-02 08:25:00+00,60.80,48.20,63.15,240.00,9.00,0.00,30.00,10.00,M,None,None,None,None,M,M,M,M,None,
EDW,2009-05-02 08:41:00+00,60.80,48.20,63.15,240.00,13.00,0.00,29.99,10.00,M,None,None,None,None,M,M,M,M,None,
EDW,2009-05-02 08:48:00+00,60.80,48.20,63.15,240.00,13.00,0.00,29.99,10.00,M,None,None,None,None,M,M,M,M,None,
EDW,2009-05-02 08:55:00+00,60.98,48.02,62.33,230.00,12.00,0.00,29.98,10.00,M,None,None,None,None,M,M,M,M,None,
EDW,2009-05-02 08:59:00+00,60.80,48.20,63.15,230.00,12.00,0.00,29.98,10.00,M,None,None,None,None,M,M,M,M,None,
EDW,2009-05-02 09:55:00+00,59.54,48.02,65.60,220.00,12.00,0.00,29.97,10.00,M,None,None,None,None,M,M,M,M,None,
EDW,2009-05-02 10:55:00+00,57.92,48.38,70.47,220.00,11.00,0.00,29.95,10.00,M,None,None,None,None,M,M,M,M,None,
EDW,2009-05-02 11:55:00+00,57.92,46.58,65.85,220.00,16.00,0.00,29.94,10.00,20.00,None,None,None,None,M,M,M,M,None,
EDW,2009-05-02 12:55:00+00,57.74,45.32,63.19,230.00,19.00,0.00,29.94,85.00,24.00,None,None,None,None,M,M,M,M,None,
EDW,2009-05-02 13:55:00+00,57.92,46.40,65.41,210.00,17.00,0.00,29.98,85.00,24.00,None,None,None,None,M,M,M,M,None,
EDW,2009-05-02 14:55:00+00,60.08,48.20,64.79,210.00,18.00,0.00,30.00,85.00,22.00,None,None,None,None,M,M,M,M,None,
EDW,2009-05-02 15:41:00+00,64.40,46.40,51.98,270.00,20.00,0.00,30.01,85.00,25.00,None,None,None,None,M,M,M,M,None,
EDW,2009-05-02 15:55:00+00,64.40,45.50,50.24,270.00,24.00,0.00,30.00,85.00,M,None,None,None,None,M,M,M,M,None,
EDW,2009-05-02 16:55:00+00,64.94,45.32,48.97,260.00,19.00,0.00,30.02,80.00,25.00,None,None,None,None,M,M,M,M,None,
EDW,2009-05-02 17:55:00+00,68.54,44.60,42.06,260.00,15.00,0.00,30.03,85.00,21.00,None,None,None,None,M,M,M,M,None,
EDW,2009-05-02 18:55:00+00,69.80,44.42,40.01,280.00,21.00,0.00,30.03,85.00,26.00,None,None,None,None,M,M,M,M,None,
EDW,2009-05-02 19:55:00+00,68.72,42.80,39.02,270.00,17.00,0.00,30.02,80.00,23.00,None,None,None,None,M,M,M,M,None,
EDW,2009-05-02 20:55:00+00,69.80,42.08,36.58,270.00,16.00,0.00,30.01,80.00,M,None,None,None,None,M,M,M,M,None,
EDW,2009-05-02 21:55:00+00,70.52,42.62,36.44,270.00,17.00,0.00,30.02,80.00,21.00,None,None,None,None,M,M,M,M,None,
EDW,2009-05-02 22:55:00+00,70.88,42.26,35.50,280.00,15.00,0.00,30.00,80.00,20.00,None,None,None,None,M,M,M,M,None,
EDW,2009-05-02 23:55:00+00,72.68,41.54,32.49,260.00,16.00,0.00,30.00,80.00,25.00,None,None,None,None,M,M,M,M,None,
EDW,2009-05-03 00:55:00+00,71.42,42.62,35.34,260.00,17.00,0.00,30.01,80.00,23.00,None,None,None,None,M,M,M,M,None,
EDW,2009-05-03 01:55:00+00,68.54,41.00,36.63,270.00,20.00,0.00,30.03,50.00,M,None,None,None,None,M,M,M,M,None,
EDW,2009-05-03 02:55:00+00,66.20,46.04,48.17,270.00,14.00,0.00,30.04,50.00,M,None,None,None,None,M,M,M,M,None,
EDW,2009-05-03 03:55:00+00,64.76,45.50,49.61,250.00,12.00,0.00,30.07,30.00,M,None,None,None,None,M,M,M,M,None,
EDW,2009-05-03 04:55:00+00,61.70,49.46,64.12,200.00,12.00,0.00,30.09,30.00,M,None,None,None,None,M,M,M,M,None,
EDW,2009-05-03 05:55:00+00,60.80,47.84,62.30,210.00,14.00,0.00,30.09,10.00,M,None,None,None,None,M,M,M,M,None,
EDW,2009-05-03 06:55:00+00,59.72,48.20,65.62,220.00,15.00,0.00,30.09,10.00,19.00,None,None,None,None,M,M,M,M,None,
EDW,2009-05-03 07:55:00+00,59.36,48.92,68.29,210.00,15.00,0.00,30.09,10.00,22.00,None,None,None,None,M,M,M,M,None,
EDW,2009-05-03 08:55:00+00,58.82,48.56,68.69,260.00,17.00,0.00,30.08,10.00,26.00,None,None,None,None,M,M,M,M,None,
EDW,2009-05-03 09:55:00+00,61.52,46.76,58.31,270.00,20.00,0.00,30.08,10.00,25.00,None,None,None,None,M,M,M,M,None,
EDW,2009-05-03 10:55:00+00,60.80,47.12,60.64,250.00,17.00,0.00,30.07,10.00,M,None,None,None,None,M,M,M,M,None,
EDW,2009-05-03 11:55:00+00,59.72,47.30,63.44,250.00,22.00,0.00,30.07,10.00,28.00,None,None,None,None,M,M,M,M,None,
EDW,2009-05-03 12:55:00+00,57.56,48.20,70.90,240.00,9.00,0.00,30.09,30.00,M,None,None,None,None,M,M,M,M,None,
EDW,2009-05-03 13:55:00+00,60.08,46.94,61.79,270.00,13.00,0.00,30.10,50.00,M,None,None,None,None,M,M,M,M,None,
EDW,2009-05-03 14:54:00+00,64.40,48.20,55.63,280.00,21.00,0.00,30.10,60.00,25.00,None,None,None,None,M,M,M,M,None,
EDW,2009-05-03 14:54:00+00,64.40,48.20,55.63,280.00,21.00,0.00,30.10,30.00,25.00,None,None,None,None,M,M,M,M,None,
EDW,2009-05-03 14:55:00+00,64.22,48.02,55.60,280.00,21.00,0.00,30.10,60.00,27.00,None,None,None,None,M,M,M,M,None,
EDW,2009-05-03 15:55:00+00,67.10,48.20,50.65,260.00,26.00,0.00,30.09,60.00,31.00,None,None,None,None,M,M,M,M,None,
EDW,2009-05-03 16:55:00+00,69.26,48.02,46.70,250.00,23.00,0.00,30.10,60.00,M,None,None,None,None,M,M,M,M,None,
EDW,2009-05-03 17:55:00+00,71.06,47.48,43.04,260.00,7.00,0.00,30.09,60.00,M,None,None,None,None,M,M,M,M,None,
EDW,2009-05-03 18:14:00+00,73.40,48.20,40.85,230.00,14.00,0.00,30.09,60.00,19.00,None,None,None,None,M,M,M,M,None,
EDW,2009-05-03 18:24:00+00,73.40,48.20,40.85,260.00,18.00,0.00,30.08,60.00,M,None,None,None,None,M,M,M,M,None,
EDW,2009-05-03 18:55:00+00,74.84,46.04,35.88,250.00,25.00,0.00,30.07,60.00,31.00,None,None,None,None,M,M,M,M,None,
EDW,2009-05-03 19:55:00+00,75.20,45.32,34.50,280.00,22.00,0.00,30.05,70.00,31.00,None,None,None,None,M,M,M,M,None,
EDW,2009-05-03 20:55:00+00,75.92,44.96,33.22,270.00,24.00,0.00,30.04,75.00,33.00,None,None,None,None,M,M,M,M,None,
EDW,2009-05-03 21:55:00+00,77.00,44.96,32.05,260.00,28.00,0.00,30.03,70.00,31.00,None,None,None,None,M,M,M,M,None,
EDW,2009-05-03 22:55:00+00,75.02,46.94,36.90,260.00,23.00,0.00,30.03,70.00,M,None,None,None,None,M,M,M,M,None,
EDW,2009-05-03 23:55:00+00,73.94,48.56,40.66,280.00,19.00,0.00,30.02,70.00,29.00,None,None,None,None,M,M,M,M,None,
EDW,2009-05-04 00:55:00+00,73.58,48.20,40.61,270.00,23.00,0.00,30.02,70.00,28.00,None,None,None,None,M,M,M,M,None,
EDW,2009-05-04 01:55:00+00,70.88,48.92,45.71,270.00,15.00,0.00,30.02,70.00,M,None,None,None,None,M,M,M,M,None,
EDW,2009-05-04 02:55:00+00,68.90,49.28,49.57,270.00,14.00,0.00,30.02,50.00,M,None,None,None,None,M,M,M,M,None,
EDW,2009-05-04 03:55:00+00,67.46,49.82,53.14,270.00,16.00,0.00,30.04,30.00,M,None,None,None,None,M,M,M,M,None,
EDW,2009-05-04 04:55:00+00,66.02,49.82,55.86,230.00,14.00,0.00,30.06,30.00,M,None,None,None,None,M,M,M,M,None,
EDW,2009-05-04 05:55:00+00,65.30,49.46,56.51,240.00,19.00,0.00,30.05,10.00,25.00,None,None,None,None,M,M,M,M,None,
EDW,2009-05-04 06:55:00+00,64.04,49.28,58.66,240.00,14.00,0.00,30.04,10.00,M,None,None,None,None,M,M,M,M,None,
EDW,2009-05-04 07:55:00+00,64.04,49.10,58.26,250.00,17.00,0.00,30.03,10.00,M,None,None,None,None,M,M,M,M,None,
EDW,2009-05-04 08:55:00+00,62.96,49.10,60.51,210.00,10.00,0.00,30.03,10.00,21.00,None,None,None,None,M,M,M,M,None,
EDW,2009-05-04 09:55:00+00,59.00,50.36,72.98,210.00,9.00,0.00,30.03,10.00,M,None,None,None,None,M,M,M,M,None,
EDW,2009-05-04 10:55:00+00,59.36,50.36,72.05,200.00,13.00,0.00,30.01,10.00,19.00,None,None,None,None,M,M,M,M,None,
EDW,2009-05-04 11:55:00+00,60.08,49.64,68.37,210.00,11.00,0.00,30.00,10.00,20.00,None,None,None,None,M,M,M,M,None,
EDW,2009-05-04 12:55:00+00,61.70,48.38,61.58,260.00,23.00,0.00,29.99,10.00,27.00,None,None,None,None,M,M,M,M,None,
EDW,2009-05-04 13:55:00+00,61.16,48.92,64.05,240.00,16.00,0.00,30.01,50.00,25.00,None,None,None,None,M,M,M,M,None,
EDW,2009-05-04 14:55:00+00,64.58,48.02,54.91,260.00,24.00,0.00,30.00,50.00,32.00,None,None,None,None,M,M,M,M,None,
EDW,2009-05-04 15:55:00+00,68.90,46.04,43.88,260.00,19.00,0.00,30.00,45.00,M,None,None,None,None,M,M,M,M,None,
EDW,2009-05-04 16:55:00+00,72.14,43.70,35.95,260.00,15.00,0.00,30.00,45.00,M,None,None,None,None,M,M,M,M,None,
EDW,2009-05-04 17:55:00+00,77.18,36.68,23.12,240.00,17.00,0.00,29.99,45.00,M,None,None,None,None,M,M,M,M,None,
EDW,2009-05-04 18:55:00+00,79.52,37.22,21.86,270.00,17.00,0.00,29.98,45.00,21.00,None,None,None,None,M,M,M,M,None,
EDW,2009-05-04 19:55:00+00,81.68,33.44,17.53,270.00,20.00,0.00,29.96,45.00,25.00,None,None,None,None,M,M,M,M,None,
EDW,2009-05-04 20:55:00+00,82.40,35.60,18.67,250.00,19.00,0.00,29.95,45.00,M,None,None,None,None,M,M,M,M,None,
EDW,2009-05-04 21:55:00+00,81.14,37.04,20.59,250.00,15.00,0.00,29.95,40.00,M,None,None,None,None,M,M,M,M,None,
EDW,2009-05-04 22:55:00+00,78.98,41.18,25.97,280.00,18.00,0.00,29.93,40.00,M,None,None,None,None,M,M,M,M,None,
EDW,2009-05-04 23:55:00+00,77.72,36.86,22.87,270.00,25.00,0.00,29.91,40.00,33.00,None,None,None,None,M,M,M,M,None,
EDW,2009-05-05 00:55:00+00,76.28,37.94,25.03,270.00,17.00,0.00,29.94,40.00,M,None,None,None,None,M,M,M,M,None,
EDW,2009-05-05 01:55:00+00,73.94,29.66,19.44,270.00,20.00,0.00,29.94,50.00,26.00,None,None,None,None,M,M,M,M,None,
EDW,2009-05-05 02:55:00+00,69.62,35.96,28.98,280.00,17.00,0.00,29.96,50.00,22.00,None,None,None,None,M,M,M,M,None,
EDW,2009-05-05 03:55:00+00,66.92,38.66,35.37,240.00,16.00,0.00,29.98,30.00,M,None,None,None,None,M,M,M,M,None,
EDW,2009-05-05 04:55:00+00,67.10,35.06,30.49,240.00,19.00,0.00,30.01,30.00,M,None,None,None,None,M,M,M,M,None,
EDW,2009-05-05 05:55:00+00,67.10,35.78,31.38,240.00,17.00,0.00,30.00,10.00,26.00,None,None,None,None,M,M,M,M,None,
EDW,2009-05-05 06:55:00+00,66.56,38.30,35.31,240.00,17.00,0.00,30.00,10.00,M,None,None,None,None,M,M,M,M,None,
EDW,2009-05-05 07:55:00+00,64.76,42.08,43.53,240.00,16.00,0.00,30.01,10.00,M,None,None,None,None,M,M,M,M,None,
EDW,2009-05-05 08:55:00+00,60.62,45.50,57.40,180.00,11.00,0.00,30.00,10.00,M,None,None,None,None,M,M,M,M,None,
EDW,2009-05-05 09:55:00+00,58.64,45.68,62.02,220.00,13.00,0.00,29.98,10.00,M,None,None,None,None,M,M,M,M,None,
EDW,2009-05-05 10:55:00+00,57.38,43.52,59.77,240.00,7.00,0.00,30.00,10.00,M,None,None,None,None,M,M,M,M,None,
EDW,2009-05-05 11:55:00+00,61.52,42.98,50.50,300.00,13.00,0.00,30.00,10.00,M,None,None,None,None,M,M,M,M,None,
EDW,2009-05-05 12:55:00+00,62.06,45.50,54.55,270.00,18.00,0.00,29.99,10.00,M,None,None,None,None,M,M,M,M,None,
EDW,2009-05-05 13:55:00+00,62.78,45.14,52.46,280.00,9.00,0.00,30.03,60.00,M,None,None,None,None,M,M,M,M,None,
EDW,2009-05-05 14:55:00+00,62.24,46.94,57.24,220.00,4.00,0.00,30.04,85.00,M,None,None,None,None,M,M,M,M,None,
EDW,2009-05-05 15:55:00+00,68.54,45.50,43.53,250.00,14.00,0.00,30.04,85.00,M,None,None,None,None,M,M,M,M,None,
EDW,2009-05-05 16:55:00+00,71.42,43.52,36.58,270.00,20.00,0.00,30.04,85.00,25.00,None,None,None,None,M,M,M,M,None,
EDW,2009-05-05 17:55:00+00,74.30,43.16,32.74,270.00,20.00,0.00,30.04,85.00,26.00,None,None,None,None,M,M,M,M,None,
EDW,2009-05-05 18:55:00+00,76.82,39.56,26.19,250.00,21.00,0.00,30.03,85.00,28.00,None,None,None,None,M,M,M,M,None,
EDW,2009-05-05 19:55:00+00,78.98,43.52,28.42,260.00,24.00,0.00,30.00,85.00,31.00,None,None,None,None,M,M,M,M,None,
EDW,2009-05-05 20:55:00+00,80.06,44.78,28.78,260.00,21.00,0.00,29.98,80.00,31.00,None,None,None,None,M,M,M,M,None,
EDW,2009-05-05 21:55:00+00,80.96,45.50,28.72,250.00,26.00,0.00,29.97,70.00,32.00,None,None,None,None,M,M,M,M,None,
EDW,2009-05-05 22:55:00+00,80.78,45.50,28.89,250.00,27.00,0.00,29.94,70.00,36.00,None,None,None,None,M,M,M,M,None,
EDW,2009-05-05 23:55:00+00,78.80,46.22,31.68,250.00,28.00,0.00,29.92,70.00,34.00,None,None,None,None,M,M,M,M,None,
EDW,2009-05-06 00:55:00+00,75.92,47.12,36.05,270.00,26.00,0.00,29.93,50.00,33.00,None,None,None,None,M,M,M,M,None,
EDW,2009-05-06 01:55:00+00,74.84,46.40,36.38,270.00,17.00,0.00,29.93,85.00,25.00,None,None,None,None,M,M,M,M,None,
EDW,2009-05-06 02:55:00+00,71.06,47.30,42.75,240.00,10.00,0.00,29.94,45.00,33.00,None,None,None,None,M,M,M,M,None,
EDW,2009-05-06 03:55:00+00,70.16,46.94,43.49,240.00,20.00,0.00,29.95,30.00,28.00,None,None,None,None,M,M,M,M,None,
EDW,2009-05-06 04:55:00+00,68.72,49.64,50.55,250.00,20.00,0.00,29.97,30.00,25.00,None,None,None,None,M,M,M,M,None,
EDW,2009-05-06 05:55:00+00,68.00,50.00,52.51,230.00,18.00,0.00,29.98,30.00,26.00,None,None,None,None,M,M,M,M,None,
EDW,2009-05-06 06:55:00+00,67.64,50.18,53.52,250.00,14.00,0.00,29.99,30.00,M,None,None,None,None,M,M,M,M,None,
EDW,2009-05-06 07:55:00+00,67.64,49.82,52.81,270.00,18.00,0.00,29.97,10.00,27.00,None,None,None,None,M,M,M,M,None,
EDW,2009-05-06 08:55:00+00,67.28,49.46,52.76,270.00,22.00,0.00,29.95,10.00,30.00,None,None,None,None,M,M,M,M,None,
EDW,2009-05-06 09:55:00+00,65.84,49.10,54.72,190.00,11.00,0.00,29.98,10.00,M,None,None,None,None,M,M,M,M,None,
EDW,2009-05-06 10:28:00+00,64.40,50.00,59.50,180.00,9.00,0.00,29.98,30.00,15.00,None,None,None,None,M,M,M,M,None,
EDW,2009-05-06 10:55:00+00,65.48,48.38,53.94,240.00,13.00,0.00,29.96,30.00,M,None,None,None,None,M,M,M,M,None,
EDW,2009-05-06 11:55:00+00,64.22,49.64,59.08,230.00,14.00,0.00,29.95,10.00,M,None,None,None,None,M,M,M,M,None,
EDW,2009-05-06 12:55:00+00,62.78,49.64,62.14,220.00,11.00,0.00,29.97,10.00,M,None,None,None,None,M,M,M,M,None,
EDW,2009-05-06 12:57:00+00,62.78,49.64,62.14,220.00,11.00,0.00,29.97,90.00,M,None,None,None,None,M,M,M,M,None,
EDW,2009-05-06 13:55:00+00,63.32,49.64,60.97,210.00,12.00,0.00,30.00,85.00,M,None,None,None,None,M,M,M,M,None,
EDW,2009-05-06 14:55:00+00,71.24,45.86,40.24,230.00,12.00,0.00,30.03,85.00,M,None,None,None,None,M,M,M,M,None,
EDW,2009-05-06 15:55:00+00,75.02,41.54,30.03,270.00,5.00,0.00,30.03,85.00,M,None,None,None,None,M,M,M,M,None,
EDW,2009-05-06 16:55:00+00,77.90,42.98,28.85,240.00,8.00,0.00,30.02,85.00,M,None,None,None,None,M,M,M,M,None,
EDW,2009-05-06 17:55:00+00,82.58,40.64,22.61,250.00,14.00,0.00,30.00,85.00,M,None,None,None,None,M,M,M,M,None,
EDW,2009-05-06 18:55:00+00,86.36,38.84,18.67,240.00,16.00,0.00,29.98,85.00,22.00,None,None,None,None,M,M,M,M,None,
EDW,2009-05-06 19:55:00+00,88.88,40.46,18.36,260.00,20.00,0.00,29.96,85.00,27.00,None,None,None,None,M,M,M,M,None,
EDW,2009-05-06 20:55:00+00,88.70,40.64,18.59,260.00,24.00,0.00,29.95,85.00,31.00,None,None,None,None,M,M,M,M,None,
EDW,2009-05-06 21:55:00+00,88.34,37.40,16.57,260.00,23.00,0.00,29.93,80.00,30.00,None,None,None,None,M,M,M,M,None,
EDW,2009-05-06 22:55:00+00,87.98,38.84,17.73,270.00,23.00,0.00,29.91,80.00,30.00,None,None,None,None,M,M,M,M,None,
EDW,2009-05-06 23:55:00+00,86.54,40.64,19.91,270.00,25.00,0.00,29.91,80.00,30.00,None,None,None,None,M,M,M,M,None,
EDW,2009-05-07 00:55:00+00,84.38,40.10,20.90,270.00,20.00,0.00,29.90,80.00,36.00,None,None,None,None,M,M,M,M,None,
EDW,2009-05-07 01:55:00+00,78.62,44.96,30.38,260.00,26.00,0.00,29.89,85.00,33.00,None,None,None,None,M,M,M,M,None,
EDW,2009-05-07 02:55:00+00,74.66,44.06,33.48,260.00,20.00,0.00,29.92,45.00,M,None,None,None,None,M,M,M,M,None,
EDW,2009-05-07 03:55:00+00,71.96,43.52,35.92,250.00,11.00,0.00,29.96,30.00,M,None,None,None,None,M,M,M,M,None,
EDW,2009-05-07 04:55:00+00,70.34,48.38,45.62,230.00,15.00,0.00,29.97,30.00,M,None,None,None,None,M,M,M,M,None,
EDW,2009-05-07 05:55:00+00,69.80,48.38,46.47,170.00,5.00,0.00,30.00,10.00,M,None,None,None,None,M,M,M,M,None,
EDW,2009-05-07 06:55:00+00,69.08,48.92,48.60,260.00,16.00,0.00,29.98,10.00,M,None,None,None,None,M,M,M,M,None,
EDW,2009-05-07 07:55:00+00,68.18,46.04,44.98,230.00,15.00,0.00,29.98,10.00,M,None,None,None,None,M,M,M,M,None,
EDW,2009-05-07 08:55:00+00,67.82,44.06,42.24,250.00,14.00,0.00,29.98,10.00,M,None,None,None,None,M,M,M,M,None,
EDW,2009-05-07 09:55:00+00,66.74,46.94,48.91,230.00,15.00,0.00,29.97,10.00,M,None,None,None,None,M,M,M,M,None,
EDW,2009-05-07 10:55:00+00,65.84,48.56,53.62,250.00,17.00,0.00,29.96,10.00,M,None,None,None,None,M,M,M,M,None,
EDW,2009-05-07 11:55:00+00,63.86,50.00,60.63,250.00,15.00,0.00,29.94,10.00,M,None,None,None,None,M,M,M,M,None,
EDW,2009-05-07 12:55:00+00,64.40,50.18,59.90,260.00,17.00,0.00,29.95,90.00,23.00,None,None,None,None,M,M,M,M,None,
EDW,2009-05-07 13:55:00+00,65.30,49.46,56.51,270.00,12.00,0.00,29.96,10.00,M,None,None,None,None,M,M,M,M,None,
EDW,2009-05-07 14:55:00+00,69.80,48.02,45.85,240.00,12.00,0.00,29.97,85.00,M,None,None,None,None,M,M,M,M,None,
EDW,2009-05-07 15:55:00+00,74.66,44.42,33.95,260.00,11.00,0.00,29.97,85.00,M,None,None,None,None,M,M,M,M,None,
EDW,2009-05-07 16:55:00+00,78.26,41.90,27.35,250.00,10.00,0.00,29.97,85.00,M,None,None,None,None,M,M,M,M,None,
EDW,2009-05-07 17:55:00+00,80.96,40.46,23.67,220.00,6.00,0.00,29.96,85.00,M,None,None,None,None,M,M,M,M,None,
EDW,2009-05-07 18:55:00+00,85.46,42.26,21.94,220.00,15.00,0.00,29.94,85.00,M,None,None,None,None,M,M,M,M,None,
EDW,2009-05-07 19:55:00+00,87.44,39.20,18.30,260.00,18.00,0.00,29.92,85.00,22.00,None,None,None,None,M,M,M,M,None,
EDW,2009-05-07 20:55:00+00,89.06,34.70,14.56,270.00,15.00,0.00,29.90,85.00,M,None,None,None,None,M,M,M,M,None,
EDW,2009-05-07 21:55:00+00,88.16,36.86,16.31,280.00,22.00,0.00,29.88,85.00,M,None,None,None,None,M,M,M,M,None,
EDW,2009-05-07 22:55:00+00,87.08,37.58,17.37,270.00,20.00,0.00,29.86,85.00,28.00,None,None,None,None,M,M,M,M,None,
EDW,2009-05-07 23:55:00+00,83.66,39.20,20.65,270.00,28.00,0.00,29.84,85.00,M,None,None,None,None,M,M,M,M,None,
EDW,2009-05-08 00:55:00+00,79.34,42.08,26.57,270.00,30.00,0.00,29.84,85.00,36.00,None,None,None,None,M,M,M,M,None,
EDW,2009-05-08 01:55:00+00,75.92,42.98,30.80,250.00,22.00,0.00,29.84,70.00,30.00,None,None,None,None,M,M,M,M,None,
EDW,2009-05-08 02:55:00+00,72.50,42.98,34.55,270.00,23.00,0.00,29.84,50.00,31.00,None,None,None,None,M,M,M,M,None,
EDW,2009-05-08 03:55:00+00,70.16,43.88,38.72,270.00,26.00,0.00,29.85,30.00,31.00,None,None,None,None,M,M,M,M,None,
EDW,2009-05-08 04:55:00+00,69.44,43.16,38.60,270.00,23.00,0.00,29.87,30.00,28.00,None,None,None,None,M,M,M,M,None,
EDW,2009-05-08 05:55:00+00,69.08,43.52,39.62,280.00,16.00,0.00,29.89,10.00,M,None,None,None,None,M,M,M,M,None,
EDW,2009-05-08 06:15:00+00,68.00,42.80,40.00,220.00,11.00,0.00,29.89,10.00,M,None,None,None,None,M,M,M,M,None,
EDW,2009-05-08 06:55:00+00,66.74,43.34,42.65,210.00,8.00,0.00,29.89,10.00,M,None,None,None,None,M,M,M,M,None,
EDW,2009-05-08 07:55:00+00,64.40,43.52,46.59,210.00,10.00,0.00,29.88,10.00,M,None,None,None,None,M,M,M,M,None,
EDW,2009-05-08 08:55:00+00,63.86,42.80,46.19,200.00,9.00,0.00,29.88,10.00,M,None,None,None,None,M,M,M,M,None,
EDW,2009-05-08 11:55:00+00,58.46,36.32,43.45,200.00,10.00,0.00,29.87,10.00,M,None,None,None,None,M,M,M,M,None,
EDW,2009-05-08 12:55:00+00,56.66,34.70,43.47,180.00,7.00,0.00,29.88,85.00,M,None,None,None,None,M,M,M,M,None,
EDW,2009-05-08 13:55:00+00,57.74,34.70,41.81,190.00,9.00,0.00,29.89,85.00,M,None,None,None,None,M,M,M,M,None,
EDW,2009-05-08 14:55:00+00,64.04,36.14,35.40,200.00,8.00,0.00,29.90,75.00,M,None,None,None,None,M,M,M,M,None,
EDW,2009-05-08 15:55:00+00,70.16,37.40,30.11,260.00,3.00,0.00,29.90,75.00,M,None,None,None,None,M,M,M,M,None,
EDW,2009-05-08 16:55:00+00,74.48,37.94,26.58,80.00,5.00,0.00,29.91,75.00,M,None,None,None,None,M,M,M,M,None,
EDW,2009-05-08 17:55:00+00,78.08,37.76,23.42,80.00,3.00,0.00,29.90,75.00,M,None,None,None,None,M,M,M,M,None,
EDW,2009-05-08 18:55:00+00,82.58,35.60,18.56,60.00,4.00,0.00,29.88,50.00,M,None,None,None,None,M,M,M,M,None,
EDW,2009-05-08 19:55:00+00,85.28,33.26,15.50,10.00,5.00,0.00,29.86,50.00,M,None,None,None,None,M,M,M,M,None,
EDW,2009-05-08 20:55:00+00,88.52,31.46,13.00,M,4.00,0.00,29.84,50.00,M,None,None,None,None,M,M,M,M,None,
EDW,2009-05-08 21:55:00+00,91.94,30.38,11.18,240.00,8.00,0.00,29.82,50.00,M,None,None,None,None,M,M,M,M,None,
EDW,2009-05-08 22:55:00+00,91.76,25.88,9.34,260.00,16.00,0.00,29.80,50.00,M,None,None,None,None,M,M,M,M,None,
EDW,2009-05-08 23:55:00+00,90.32,31.28,12.20,260.00,16.00,0.00,29.79,50.00,M,None,None,None,None,M,M,M,M,None,
EDW,2009-05-09 00:55:00+00,85.82,36.50,17.33,270.00,20.00,0.00,29.78,50.00,25.00,None,None,None,None,M,M,M,M,None,
EDW,2009-05-09 01:55:00+00,80.06,38.30,22.41,270.00,19.00,0.00,29.78,50.00,30.00,None,None,None,None,M,M,M,M,None,
EDW,2009-05-09 02:55:00+00,75.38,36.68,24.54,270.00,18.00,0.00,29.79,40.00,27.00,None,None,None,None,M,M,M,M,None,
EDW,2009-05-09 03:55:00+00,72.32,38.84,29.61,250.00,14.00,0.00,29.83,30.00,21.00,None,None,None,None,M,M,M,M,None,
EDW,2009-05-09 04:55:00+00,71.24,37.94,29.65,230.00,15.00,0.00,29.84,30.00,M,None,None,None,None,M,M,M,M,None,
EDW,2009-05-09 05:55:00+00,69.44,41.54,36.27,230.00,14.00,0.00,29.85,10.00,M,None,None,None,None,M,M,M,M,None,
EDW,2009-05-09 06:55:00+00,68.36,42.80,39.51,240.00,11.00,0.00,29.84,10.00,M,None,None,None,None,M,M,M,M,None,
EDW,2009-05-09 07:55:00+00,66.20,41.72,40.84,200.00,7.00,0.00,29.84,10.00,M,None,None,None,None,M,M,M,M,None,
EDW,2009-05-09 08:55:00+00,64.76,43.34,45.69,220.00,7.00,0.00,29.83,10.00,M,None,None,None,None,M,M,M,M,None,
EDW,2009-05-09 09:55:00+00,62.96,45.32,52.48,210.00,8.00,0.00,29.84,10.00,M,None,None,None,None,M,M,M,M,None,
EDW,2009-05-09 10:55:00+00,61.52,45.14,54.84,210.00,7.00,0.00,29.84,10.00,M,None,None,None,None,M,M,M,M,None,
EDW,2009-05-09 11:55:00+00,59.00,44.42,58.37,220.00,3.00,0.00,29.85,30.00,M,None,None,None,None,M,M,M,M,None,
EDW,2009-05-09 12:55:00+00,55.58,40.28,56.30,170.00,6.00,0.00,29.85,85.00,M,None,None,None,None,M,M,M,M,None,
EDW,2009-05-09 13:55:00+00,58.82,37.76,45.40,190.00,6.00,0.00,29.87,85.00,M,None,None,None,None,M,M,M,M,None,
EDW,2009-05-09 14:55:00+00,61.52,39.20,43.63,0.00,0.00,0.00,29.88,85.00,M,None,None,None,None,M,M,M,M,None,
EDW,2009-05-09 15:55:00+00,67.82,41.00,37.55,20.00,5.00,0.00,29.88,70.00,M,None,None,None,None,M,M,M,M,None,
EDW,2009-05-09 16:55:00+00,74.12,41.36,30.74,0.00,0.00,0.00,29.89,70.00,M,None,None,None,None,M,M,M,M,None,
EDW,2009-05-09 17:55:00+00,80.78,40.82,24.15,50.00,4.00,0.00,29.88,50.00,M,None,None,None,None,M,M,M,M,None,
EDW,2009-05-09 18:55:00+00,87.08,37.22,17.12,260.00,11.00,0.00,29.85,50.00,M,None,None,None,None,M,M,M,M,None,
EDW,2009-05-09 19:55:00+00,91.58,30.56,11.39,210.00,10.00,0.00,29.83,50.00,21.00,None,None,None,None,M,M,M,M,None,
EDW,2009-05-09 20:31:00+00,91.40,33.80,13.05,270.00,13.00,0.00,29.82,50.00,22.00,None,None,None,None,M,M,M,M,None,
EDW,2009-05-09 20:55:00+00,91.76,32.90,12.44,280.00,15.00,0.00,29.82,50.00,21.00,None,None,None,None,M,M,M,M,None,
EDW,2009-05-09 21:55:00+00,90.86,31.82,12.25,280.00,18.00,0.00,29.82,50.00,25.00,None,None,None,None,M,M,M,M,None,
EDW,2009-05-09 22:55:00+00,90.86,29.12,10.98,290.00,19.00,0.00,29.81,50.00,24.00,None,None,None,None,M,M,M,M,None,
EDW,2009-05-09 23:55:00+00,87.62,29.66,12.44,280.00,22.00,0.00,29.82,50.00,27.00,None,None,None,None,M,M,M,M,None,
EDW,2009-05-10 00:55:00+00,84.20,33.98,16.51,270.00,21.00,0.00,29.82,50.00,M,None,None,None,None,M,M,M,M,None,
EDW,2009-05-10 01:55:00+00,81.14,34.34,18.50,260.00,22.00,0.00,29.82,50.00,30.00,None,None,None,None,M,M,M,M,None,
EDW,2009-05-10 02:55:00+00,76.28,32.90,20.49,220.00,6.00,0.00,29.84,50.00,M,None,None,None,None,M,M,M,M,None,
EDW,2009-05-10 03:55:00+00,74.84,30.38,19.42,250.00,12.00,0.00,29.85,30.00,22.00,None,None,None,None,M,M,M,M,None,
EDW,2009-05-10 04:55:00+00,74.12,31.10,20.48,260.00,20.00,0.00,29.85,30.00,26.00,None,None,None,None,M,M,M,M,None,
EDW,2009-05-10 05:55:00+00,73.58,34.70,24.10,250.00,24.00,0.00,29.84,10.00,34.00,None,None,None,None,M,M,M,M,None,
EDW,2009-05-10 06:55:00+00,70.88,34.88,26.60,200.00,12.00,0.00,29.87,10.00,M,None,None,None,None,M,M,M,M,None,
EDW,2009-05-10 07:55:00+00,71.24,40.64,32.94,240.00,17.00,0.00,29.86,10.00,M,None,None,None,None,M,M,M,M,None,
EDW,2009-05-10 08:55:00+00,69.26,41.54,36.49,230.00,16.00,0.00,29.84,10.00,M,None,None,None,None,M,M,M,M,None,
EDW,2009-05-10 09:55:00+00,68.18,42.62,39.48,220.00,13.00,0.00,29.85,10.00,M,None,None,None,None,M,M,M,M,None,
EDW,2009-05-10 10:55:00+00,67.64,38.48,34.25,210.00,10.00,0.00,29.85,10.00,M,None,None,None,None,M,M,M,M,None,
EDW,2009-05-10 11:55:00+00,64.40,37.04,36.23,230.00,12.00,0.00,29.86,10.00,M,None,None,None,None,M,M,M,M,None,
EDW,2009-05-10 12:55:00+00,61.34,35.06,37.30,190.00,9.00,0.00,29.87,10.00,M,None,None,None,None,M,M,M,M,None,
EDW,2009-05-10 13:55:00+00,64.58,34.88,33.05,190.00,9.00,0.00,29.89,80.00,M,None,None,None,None,M,M,M,M,None,
EDW,2009-05-10 14:55:00+00,69.44,35.60,28.75,200.00,8.00,0.00,29.91,80.00,M,None,None,None,None,M,M,M,M,None,
EDW,2009-05-10 15:55:00+00,75.02,35.24,23.46,0.00,0.00,0.00,29.92,80.00,M,None,None,None,None,M,M,M,M,None,
EDW,2009-05-10 16:55:00+00,78.44,34.70,20.50,M,4.00,0.00,29.92,80.00,M,None,None,None,None,M,M,M,M,None,
EDW,2009-05-10 17:55:00+00,81.86,33.80,17.68,M,3.00,0.00,29.92,80.00,M,None,None,None,None,M,M,M,M,None,
EDW,2009-05-10 18:55:00+00,84.92,32.90,15.45,60.00,5.00,0.00,29.91,80.00,M,None,None,None,None,M,M,M,M,None,
EDW,2009-05-10 19:55:00+00,87.26,33.08,14.44,M,5.00,0.00,29.88,80.00,M,None,None,None,None,M,M,M,M,None,
EDW,2009-05-10 20:55:00+00,89.42,31.10,12.45,260.00,4.00,0.00,29.86,70.00,M,None,None,None,None,M,M,M,M,None,
EDW,2009-05-10 21:55:00+00,90.86,30.02,11.39,0.00,0.00,0.00,29.84,70.00,M,None,None,None,None,M,M,M,M,None,
EDW,2009-05-10 22:55:00+00,93.56,27.68,9.52,0.00,0.00,0.00,29.82,60.00,M,None,None,None,None,M,M,M,M,None,
EDW,2009-05-10 23:55:00+00,93.38,28.22,9.79,230.00,9.00,0.00,29.80,60.00,M,None,None,None,None,M,M,M,M,None,
EDW,2009-05-11 00:55:00+00,88.34,35.78,15.54,270.00,19.00,0.00,29.81,50.00,M,None,None,None,None,M,M,M,M,None,
EDW,2009-05-11 01:55:00+00,82.94,36.68,19.14,270.00,20.00,0.00,29.81,50.00,26.00,None,None,None,None,M,M,M,M,None,
EDW,2009-05-11 02:55:00+00,78.26,34.88,20.77,270.00,18.00,0.00,29.82,50.00,M,None,None,None,None,M,M,M,M,None,
EDW,2009-05-11 03:55:00+00,75.56,34.52,22.39,230.00,6.00,0.00,29.86,30.00,18.00,None,None,None,None,M,M,M,M,None,
EDW,2009-05-11 04:55:00+00,72.68,33.08,23.29,210.00,8.00,0.00,29.88,30.00,M,None,None,None,None,M,M,M,M,None,
EDW,2009-05-11 05:55:00+00,70.52,29.48,21.66,210.00,13.00,0.00,29.88,30.00,M,None,None,None,None,M,M,M,M,None,
EDW,2009-05-11 06:55:00+00,70.52,33.08,25.06,230.00,13.00,0.00,29.87,30.00,M,None,None,None,None,M,M,M,M,None,
EDW,2009-05-11 07:55:00+00,70.88,36.32,28.16,230.00,17.00,0.00,29.86,30.00,M,None,None,None,None,M,M,M,M,None,
EDW,2009-05-11 08:55:00+00,69.80,39.92,33.65,240.00,17.00,0.00,29.85,30.00,M,None,None,None,None,M,M,M,M,None,
EDW,2009-05-11 09:55:00+00,69.26,41.54,36.49,240.00,12.00,0.00,29.85,30.00,M,None,None,None,None,M,M,M,M,None,
EDW,2009-05-11 10:55:00+00,69.26,36.50,29.97,220.00,12.00,0.00,29.85,30.00,M,None,None,None,None,M,M,M,M,None,
EDW,2009-05-11 11:55:00+00,66.74,37.40,33.87,200.00,10.00,0.00,29.85,30.00,M,None,None,None,None,M,M,M,M,None,
EDW,2009-05-11 12:55:00+00,62.42,35.78,36.95,200.00,8.00,0.00,29.86,80.00,M,None,None,None,None,M,M,M,M,None,
EDW,2009-05-11 13:55:00+00,64.22,35.96,34.93,200.00,11.00,0.00,29.87,80.00,M,None,None,None,None,M,M,M,M,None,
EDW,2009-05-11 14:55:00+00,71.60,35.42,26.52,220.00,10.00,0.00,29.88,80.00,M,None,None,None,None,M,M,M,M,None,
EDW,2009-05-11 15:55:00+00,76.64,35.60,22.55,210.00,14.00,0.00,29.88,75.00,M,None,None,None,None,M,M,M,M,None,
EDW,2009-05-11 16:55:00+00,80.96,32.72,17.44,260.00,17.00,0.00,29.87,85.00,M,None,None,None,None,M,M,M,M,None,
EDW,2009-05-11 17:55:00+00,83.66,30.20,14.43,250.00,16.00,0.00,29.87,60.00,22.00,None,None,None,None,M,M,M,M,None,
EDW,2009-05-11 18:55:00+00,86.00,27.86,12.16,250.00,20.00,0.00,29.85,45.00,26.00,None,None,None,None,M,M,M,M,None,
EDW,2009-05-11 19:55:00+00,88.70,26.06,10.36,240.00,17.00,0.00,29.85,45.00,22.00,None,None,None,None,M,M,M,M,None,
EDW,2009-05-11 20:55:00+00,89.42,22.46,8.72,280.00,20.00,0.00,29.83,45.00,24.00,None,None,None,None,M,M,M,M,None,
EDW,2009-05-11 21:55:00+00,88.52,26.24,10.50,280.00,20.00,0.00,29.82,50.00,M,None,None,None,None,M,M,M,M,None,
EDW,2009-05-11 22:55:00+00,87.08,29.30,12.47,270.00,23.00,0.00,29.81,50.00,28.00,None,None,None,None,M,M,M,M,None,
EDW,2009-05-11 23:55:00+00,85.64,31.10,14.04,270.00,22.00,0.00,29.80,50.00,32.00,None,None,None,None,M,M,M,M,None,
EDW,2009-05-12 00:55:00+00,82.22,35.24,18.51,280.00,22.00,0.00,29.81,50.00,29.00,None,None,None,None,M,M,M,M,None,
EDW,2009-05-12 01:55:00+00,78.08,39.92,25.48,270.00,19.00,0.00,29.82,50.00,27.00,None,None,None,None,M,M,M,M,None,
EDW,2009-05-12 02:55:00+00,75.02,39.20,27.42,250.00,23.00,0.00,29.82,50.00,26.00,None,None,None,None,M,M,M,M,None,
EDW,2009-05-12 03:55:00+00,73.94,38.12,27.26,260.00,22.00,0.00,29.83,20.00,30.00,None,None,None,None,M,M,M,M,None,
EDW,2009-05-12 04:55:00+00,72.68,36.14,26.31,240.00,16.00,0.00,29.86,30.00,23.00,None,None,None,None,M,M,M,M,None,
EDW,2009-05-12 05:55:00+00,72.68,38.66,29.05,250.00,21.00,0.00,29.86,10.00,26.00,None,None,None,None,M,M,M,M,None,
EDW,2009-05-12 06:55:00+00,70.88,41.36,34.29,250.00,16.00,0.00,29.87,10.00,21.00,None,None,None,None,M,M,M,M,None,
EDW,2009-05-12 07:55:00+00,70.34,40.82,34.21,250.00,23.00,0.00,29.86,10.00,29.00,None,None,None,None,M,M,M,M,None,
EDW,2009-05-12 08:55:00+00,66.56,41.00,39.22,220.00,12.00,0.00,29.86,10.00,M,None,None,None,None,M,M,M,M,None,
EDW,2009-05-12 08:57:00+00,66.20,41.00,39.72,210.00,11.00,0.00,29.85,10.00,M,None,None,None,None,M,M,M,M,None,
EDW,2009-05-12 09:55:00+00,67.46,39.38,35.70,240.00,20.00,0.00,29.85,10.00,26.00,None,None,None,None,M,M,M,M,None,
EDW,2009-05-12 10:55:00+00,65.84,37.22,34.70,250.00,18.00,0.00,29.85,10.00,22.00,None,None,None,None,M,M,M,M,None,
EDW,2009-05-12 11:55:00+00,59.72,28.22,29.98,210.00,12.00,0.00,29.85,10.00,M,None,None,None,None,M,M,M,M,None,
EDW,2009-05-12 12:55:00+00,60.08,28.04,29.38,200.00,10.00,0.00,29.85,60.00,M,None,None,None,None,M,M,M,M,None,
EDW,2009-05-12 13:55:00+00,64.76,30.38,27.41,200.00,13.00,0.00,29.86,50.00,19.00,None,None,None,None,M,M,M,M,None,
EDW,2009-05-12 14:55:00+00,68.00,30.38,24.49,220.00,18.00,0.00,29.87,50.00,22.00,None,None,None,None,M,M,M,M,None,
EDW,2009-05-12 15:55:00+00,74.12,30.92,20.33,220.00,15.00,0.00,29.87,50.00,18.00,None,None,None,None,M,M,M,M,None,
EDW,2009-05-12 16:55:00+00,79.16,28.76,15.75,260.00,19.00,0.00,29.86,50.00,25.00,None,None,None,None,M,M,M,M,None,
EDW,2009-05-12 17:55:00+00,80.24,26.06,13.61,250.00,21.00,0.00,29.86,45.00,27.00,None,None,None,None,M,M,M,M,None,
EDW,2009-05-12 18:55:00+00,82.04,18.86,9.47,280.00,22.00,0.00,29.84,45.00,30.00,None,None,None,None,M,M,M,M,None,
EDW,2009-05-12 19:55:00+00,82.58,18.68,9.24,270.00,27.00,0.00,29.80,45.00,36.00,None,None,None,None,M,M,M,M,None,
EDW,2009-05-12 20:55:00+00,84.20,19.94,9.25,280.00,30.00,0.00,29.79,45.00,37.00,None,None,None,None,M,M,M,M,None,
EDW,2009-05-12 21:55:00+00,83.48,16.70,8.24,260.00,27.00,0.00,29.80,45.00,38.00,None,None,None,None,M,M,M,M,None,
EDW,2009-05-12 22:55:00+00,81.86,16.52,8.61,270.00,29.00,0.00,29.79,45.00,36.00,None,None,None,None,M,M,M,M,None,
EDW,2009-05-12 23:55:00+00,79.88,19.04,10.24,270.00,27.00,0.00,29.80,45.00,32.00,None,None,None,None,M,M,M,M,None,
EDW,2009-05-13 00:55:00+00,77.90,21.74,12.26,260.00,26.00,0.00,29.79,45.00,32.00,None,None,None,None,M,M,M,M,None,
EDW,2009-05-13 01:55:00+00,74.84,24.62,15.32,260.00,26.00,0.00,29.78,45.00,34.00,None,None,None,None,M,M,M,M,None,
EDW,2009-05-13 02:55:00+00,70.70,26.96,19.41,240.00,28.00,0.00,29.79,40.00,34.00,None,None,None,None,M,M,M,M,None,
EDW,2009-05-13 03:55:00+00,69.44,25.88,19.38,260.00,24.00,0.00,29.82,30.00,32.00,None,None,None,None,M,M,M,M,None,
EDW,2009-05-13 04:55:00+00,69.26,24.44,18.37,220.00,16.00,0.00,29.86,30.00,23.00,None,None,None,None,M,M,M,M,None,
EDW,2009-05-13 05:55:00+00,68.00,32.54,26.73,220.00,16.00,0.00,29.87,30.00,22.00,None,None,None,None,M,M,M,M,None,
EDW,2009-05-13 06:55:00+00,66.56,32.00,27.49,240.00,16.00,0.00,29.86,10.00,21.00,None,None,None,None,M,M,M,M,None,
EDW,2009-05-13 07:55:00+00,66.20,32.54,28.44,250.00,20.00,0.00,29.85,10.00,25.00,None,None,None,None,M,M,M,M,None,
EDW,2009-05-13 08:55:00+00,65.84,27.68,23.64,230.00,18.00,0.00,29.85,10.00,26.00,None,None,None,None,M,M,M,M,None,
EDW,2009-05-13 09:55:00+00,64.94,23.36,20.38,220.00,14.00,0.00,29.83,10.00,M,None,None,None,None,M,M,M,M,None,
EDW,2009-05-13 10:48:00+00,62.60,24.80,23.50,200.00,12.00,0.00,29.84,10.00,M,None,None,None,None,M,M,M,M,None,
EDW,2009-05-13 10:55:00+00,62.24,22.82,21.91,210.00,14.00,0.00,29.84,10.00,M,None,None,None,None,M,M,M,M,None,
EDW,2009-05-13 11:55:00+00,58.64,26.24,28.71,190.00,11.00,0.00,29.85,10.00,M,None,None,None,None,M,M,M,M,None,
EDW,2009-05-13 12:55:00+00,59.00,24.26,26.11,190.00,8.00,0.00,29.87,80.00,M,None,None,None,None,M,M,M,M,None,
EDW,2009-05-13 13:55:00+00,61.34,25.52,25.31,190.00,9.00,0.00,29.90,80.00,M,None,None,None,None,M,M,M,M,None,
EDW,2009-05-13 14:55:00+00,68.18,23.54,18.36,220.00,8.00,0.00,29.92,80.00,M,None,None,None,None,M,M,M,M,None,
EDW,2009-05-13 15:55:00+00,71.60,22.10,15.37,M,4.00,0.00,29.92,80.00,M,None,None,None,None,M,M,M,M,None,
EDW,2009-05-13 16:55:00+00,75.92,22.10,13.30,230.00,3.00,0.00,29.91,50.00,M,None,None,None,None,M,M,M,M,None,
EDW,2009-05-13 17:55:00+00,78.80,22.64,12.37,M,5.00,0.00,29.91,50.00,M,None,None,None,None,M,M,M,M,None,
EDW,2009-05-13 18:55:00+00,80.78,26.06,13.37,M,4.00,0.00,29.91,50.00,M,None,None,None,None,M,M,M,M,None,
EDW,2009-05-13 19:55:00+00,84.38,25.88,11.81,270.00,14.00,0.00,29.89,60.00,17.00,None,None,None,None,M,M,M,M,None,
EDW,2009-05-13 20:55:00+00,86.36,26.60,11.42,270.00,13.00,0.00,29.87,60.00,20.00,None,None,None,None,M,M,M,M,None,
EDW,2009-05-13 21:55:00+00,85.82,26.60,11.62,260.00,15.00,0.00,29.86,70.00,M,None,None,None,None,M,M,M,M,None,
EDW,2009-05-13 22:55:00+00,86.00,24.80,10.72,260.00,18.00,0.00,29.85,70.00,25.00,None,None,None,None,M,M,M,M,None,
EDW,2009-05-13 23:55:00+00,82.22,28.40,14.05,270.00,22.00,0.00,29.85,70.00,26.00,None,None,None,None,M,M,M,M,None,
EDW,2009-05-14 00:55:00+00,77.72,31.46,18.44,270.00,23.00,0.00,29.85,70.00,31.00,None,None,None,None,M,M,M,M,None,
EDW,2009-05-14 01:55:00+00,75.74,32.36,20.42,270.00,18.00,0.00,29.85,50.00,24.00,None,None,None,None,M,M,M,M,None,
EDW,2009-05-14 02:55:00+00,72.14,32.00,22.71,270.00,21.00,0.00,29.85,40.00,29.00,None,None,None,None,M,M,M,M,None,
EDW,2009-05-14 03:55:00+00,70.16,32.90,25.18,280.00,19.00,0.00,29.87,30.00,25.00,None,None,None,None,M,M,M,M,None,
EDW,2009-05-14 04:55:00+00,69.26,32.36,25.41,280.00,18.00,0.00,29.90,30.00,25.00,None,None,None,None,M,M,M,M,None,
EDW,2009-05-14 05:55:00+00,66.92,36.50,32.49,200.00,7.00,0.00,29.93,10.00,M,None,None,None,None,M,M,M,M,None,
EDW,2009-05-14 06:55:00+00,65.84,35.60,32.55,210.00,8.00,0.00,29.93,10.00,M,None,None,None,None,M,M,M,M,None,
EDW,2009-05-14 07:55:00+00,65.84,33.08,29.43,220.00,7.00,0.00,29.93,10.00,M,None,None,None,None,M,M,M,M,None,
EDW,2009-05-14 08:55:00+00,66.20,33.44,29.49,230.00,13.00,0.00,29.92,10.00,M,None,None,None,None,M,M,M,M,None,
EDW,2009-05-14 09:55:00+00,62.78,33.26,32.99,190.00,9.00,0.00,29.91,10.00,M,None,None,None,None,M,M,M,M,None,
EDW,2009-05-14 10:55:00+00,63.14,34.70,34.51,210.00,11.00,0.00,29.91,10.00,M,None,None,None,None,M,M,M,M,None,
EDW,2009-05-14 11:55:00+00,62.24,35.78,37.18,230.00,13.00,0.00,29.90,10.00,M,None,None,None,None,M,M,M,M,None,
EDW,2009-05-14 12:15:00+00,62.60,35.60,36.45,190.00,8.00,0.00,29.90,50.00,M,None,None,None,None,M,M,M,M,None,
EDW,2009-05-14 12:55:00+00,60.08,35.78,40.14,200.00,8.00,0.00,29.92,60.00,M,None,None,None,None,M,M,M,M,None,
EDW,2009-05-14 13:55:00+00,62.78,36.68,37.80,200.00,9.00,0.00,29.93,85.00,M,None,None,None,None,M,M,M,M,None,
EDW,2009-05-14 14:55:00+00,69.80,37.04,30.06,190.00,8.00,0.00,29.94,85.00,M,None,None,None,None,M,M,M,M,None,
EDW,2009-05-14 15:55:00+00,75.02,36.14,24.32,M,5.00,0.00,29.93,85.00,M,None,None,None,None,M,M,M,M,None,
EDW,2009-05-14 16:55:00+00,76.46,34.88,22.05,10.00,6.00,0.00,29.94,80.00,M,None,None,None,None,M,M,M,M,None,
EDW,2009-05-14 17:56:00+00,78.80,35.60,21.00,M,3.00,0.00,29.93,50.00,M,None,None,None,None,M,M,M,M,None,
EDW,2009-05-14 18:55:00+00,82.58,35.06,18.17,M,5.00,0.00,29.92,50.00,M,None,None,None,None,M,M,M,M,None,
EDW,2009-05-14 19:55:00+00,85.10,33.08,15.47,130.00,2.00,0.00,29.90,50.00,M,None,None,None,None,M,M,M,M,None,
EDW,2009-05-14 20:55:00+00,87.44,32.54,14.05,120.00,5.00,0.00,29.88,50.00,M,None,None,None,None,M,M,M,M,None,
EDW,2009-05-14 21:55:00+00,88.70,35.96,15.48,260.00,11.00,0.00,29.87,50.00,19.00,None,None,None,None,M,M,M,M,None,
EDW,2009-05-14 22:55:00+00,88.52,35.96,15.57,300.00,15.00,0.00,29.85,50.00,19.00,None,None,None,None,M,M,M,M,None,
EDW,2009-05-14 23:55:00+00,85.82,38.30,18.60,260.00,16.00,0.00,29.84,50.00,M,None,None,None,None,M,M,M,M,None,
EDW,2009-05-15 00:55:00+00,82.58,39.56,21.69,270.00,21.00,0.00,29.83,50.00,M,None,None,None,None,M,M,M,M,None,
EDW,2009-05-15 01:55:00+00,78.80,39.74,24.71,270.00,15.00,0.00,29.84,50.00,M,None,None,None,None,M,M,M,M,None,
EDW,2009-05-15 02:55:00+00,74.84,40.10,28.57,260.00,13.00,0.00,29.85,40.00,M,None,None,None,None,M,M,M,M,None,
EDW,2009-05-15 03:55:00+00,72.14,39.02,30.00,260.00,8.00,0.00,29.87,30.00,M,None,None,None,None,M,M,M,M,None,
EDW,2009-05-15 04:55:00+00,69.80,39.20,32.72,210.00,12.00,0.00,29.89,30.00,M,None,None,None,None,M,M,M,M,None,
EDW,2009-05-15 05:55:00+00,68.72,39.20,33.95,210.00,10.00,0.00,29.89,10.00,M,None,None,None,None,M,M,M,M,None,
EDW,2009-05-15 06:55:00+00,68.18,40.82,36.83,220.00,8.00,0.00,29.89,10.00,M,None,None,None,None,M,M,M,M,None,
EDW,2009-05-15 07:55:00+00,67.10,41.90,39.86,210.00,10.00,0.00,29.88,10.00,M,None,None,None,None,M,M,M,M,None,
EDW,2009-05-15 08:55:00+00,66.38,42.26,41.44,210.00,9.00,0.00,29.88,10.00,M,None,None,None,None,M,M,M,M,None,
EDW,2009-05-15 09:55:00+00,65.12,42.44,43.59,210.00,9.00,0.00,29.87,10.00,M,None,None,None,None,M,M,M,M,None,
EDW,2009-05-15 10:55:00+00,62.78,42.62,47.64,220.00,4.00,0.00,29.88,10.00,M,None,None,None,None,M,M,M,M,None,
EDW,2009-05-15 11:55:00+00,59.00,43.70,56.78,180.00,8.00,0.00,29.88,10.00,M,None,None,None,None,M,M,M,M,None,
EDW,2009-05-15 12:55:00+00,57.38,45.14,63.58,180.00,8.00,0.00,29.89,10.00,M,None,None,None,None,M,M,M,M,None,
EDW,2009-05-15 13:55:00+00,59.18,46.76,63.37,180.00,8.00,0.00,29.91,50.00,M,None,None,None,None,M,M,M,M,None,
EDW,2009-05-15 14:55:00+00,64.76,47.84,54.20,200.00,5.00,0.00,29.92,50.00,M,None,None,None,None,M,M,M,M,None,
EDW,2009-05-15 15:55:00+00,69.80,46.58,43.43,160.00,1.00,0.00,29.92,50.00,M,None,None,None,None,M,M,M,M,None,
EDW,2009-05-15 16:55:00+00,73.76,44.96,35.71,80.00,3.00,0.00,29.93,50.00,M,None,None,None,None,M,M,M,M,None,
EDW,2009-05-15 17:55:00+00,77.18,43.88,30.58,40.00,3.00,0.00,29.92,50.00,M,None,None,None,None,M,M,M,M,None,
EDW,2009-05-15 18:55:00+00,81.86,43.34,25.69,0.00,0.00,0.00,29.91,50.00,M,None,None,None,None,M,M,M,M,None,
EDW,2009-05-15 19:55:00+00,91.40,34.88,13.62,70.00,9.00,0.00,29.88,50.00,M,None,None,None,None,M,M,M,M,None,
EDW,2009-05-15 20:55:00+00,92.48,34.34,12.89,M,3.00,0.00,29.86,50.00,M,None,None,None,None,M,M,M,M,None,
EDW,2009-05-15 21:55:00+00,93.74,34.52,12.48,10.00,4.00,0.00,29.84,50.00,18.00,None,None,None,None,M,M,M,M,None,
EDW,2009-05-15 22:55:00+00,93.20,34.16,12.51,80.00,8.00,0.00,29.82,50.00,M,None,None,None,None,M,M,M,M,None,
EDW,2009-05-15 23:55:00+00,93.38,34.16,12.44,360.00,5.00,0.00,29.80,50.00,M,None,None,None,None,M,M,M,M,None,
EDW,2009-05-16 00:55:00+00,93.20,34.16,12.51,M,5.00,0.00,29.80,50.00,M,None,None,None,None,M,M,M,M,None,
EDW,2009-05-16 01:55:00+00,92.66,32.00,11.67,0.00,0.00,0.00,29.80,50.00,M,None,None,None,None,M,M,M,M,None,
EDW,2009-05-16 02:55:00+00,85.46,47.30,26.58,240.00,15.00,0.00,29.81,40.00,M,None,None,None,None,M,M,M,M,None,
EDW,2009-05-16 03:55:00+00,79.70,49.46,34.74,250.00,11.00,0.00,29.84,30.00,M,None,None,None,None,M,M,M,M,None,
EDW,2009-05-16 04:55:00+00,75.92,50.00,40.16,220.00,10.00,0.00,29.86,30.00,M,None,None,None,None,M,M,M,M,None,
EDW,2009-05-16 05:55:00+00,71.96,50.54,46.80,210.00,8.00,0.00,29.87,10.00,M,None,None,None,None,M,M,M,M,None,
EDW,2009-05-16 06:55:00+00,68.90,50.36,51.60,230.00,9.00,0.00,29.87,10.00,M,None,None,None,None,M,M,M,M,None,
EDW,2009-05-16 07:55:00+00,67.28,49.28,52.41,210.00,7.00,0.00,29.87,10.00,M,None,None,None,None,M,M,M,M,None,
EDW,2009-05-16 08:55:00+00,65.84,48.38,53.26,220.00,9.00,0.00,29.86,10.00,M,None,None,None,None,M,M,M,M,None,
EDW,2009-05-16 09:55:00+00,64.40,47.48,54.14,200.00,7.00,0.00,29.87,10.00,M,None,None,None,None,M,M,M,M,None,
EDW,2009-05-16 10:55:00+00,60.62,46.58,59.80,220.00,4.00,0.00,29.88,10.00,M,None,None,None,None,M,M,M,M,None,
EDW,2009-05-16 11:55:00+00,60.44,44.24,55.07,340.00,3.00,0.00,29.89,10.00,M,None,None,None,None,M,M,M,M,None,
EDW,2009-05-16 12:55:00+00,58.46,43.52,57.50,310.00,3.00,0.00,29.91,85.00,M,None,None,None,None,M,M,M,M,None,
EDW,2009-05-16 13:55:00+00,60.08,42.44,52.06,360.00,5.00,0.00,29.94,85.00,M,None,None,None,None,M,M,M,M,None,
EDW,2009-05-16 14:55:00+00,64.40,46.22,51.63,0.00,0.00,0.00,29.96,85.00,M,None,None,None,None,M,M,M,M,None,
EDW,2009-05-16 15:55:00+00,70.70,47.48,43.57,260.00,3.00,0.00,29.97,70.00,M,None,None,None,None,M,M,M,M,None,
EDW,2009-05-16 16:55:00+00,78.44,47.12,33.17,0.00,0.00,0.00,29.97,70.00,M,None,None,None,None,M,M,M,M,None,
EDW,2009-05-16 17:55:00+00,86.00,42.26,21.57,0.00,0.00,0.00,29.96,70.00,M,None,None,None,None,M,M,M,M,None,
EDW,2009-05-16 18:55:00+00,90.68,41.00,17.71,0.00,0.00,0.00,29.95,70.00,M,None,None,None,None,M,M,M,M,None,
EDW,2009-05-16 19:55:00+00,96.44,32.00,10.38,50.00,9.00,0.00,29.93,70.00,18.00,None,None,None,None,M,M,M,M,None,
EDW,2009-05-16 20:55:00+00,97.70,30.38,9.36,90.00,8.00,0.00,29.92,70.00,18.00,None,None,None,None,M,M,M,M,None,
EDW,2009-05-16 21:55:00+00,97.34,29.12,8.99,60.00,11.00,0.00,29.90,70.00,16.00,None,None,None,None,M,M,M,M,None,
EDW,2009-05-16 22:55:00+00,98.78,28.40,8.35,60.00,14.00,0.00,29.89,70.00,22.00,None,None,None,None,M,M,M,M,None,
EDW,2009-05-16 23:55:00+00,98.60,28.22,8.34,40.00,8.00,0.00,29.89,70.00,M,None,None,None,None,M,M,M,M,None,
EDW,2009-05-17 00:55:00+00,97.70,27.50,8.32,60.00,3.00,0.00,29.88,70.00,15.00,None,None,None,None,M,M,M,M,None,
EDW,2009-05-17 01:55:00+00,95.90,26.24,8.34,90.00,3.00,0.00,29.88,70.00,M,None,None,None,None,M,M,M,M,None,
EDW,2009-05-17 02:55:00+00,88.88,28.04,11.18,100.00,3.00,0.00,29.89,70.00,M,None,None,None,None,M,M,M,M,None,
EDW,2009-05-17 03:55:00+00,82.94,26.78,12.84,100.00,3.00,0.00,29.91,30.00,M,None,None,None,None,M,M,M,M,None,
EDW,2009-05-17 04:55:00+00,82.22,46.58,28.72,220.00,7.00,0.00,29.93,30.00,M,None,None,None,None,M,M,M,M,None,
EDW,2009-05-17 05:55:00+00,75.92,43.70,31.67,210.00,8.00,0.00,29.95,10.00,M,None,None,None,None,M,M,M,M,None,
EDW,2009-05-17 06:55:00+00,74.48,42.26,31.44,210.00,8.00,0.00,29.95,10.00,M,None,None,None,None,M,M,M,M,None,
EDW,2009-05-17 07:55:00+00,69.62,44.24,39.98,240.00,7.00,0.00,29.95,10.00,M,None,None,None,None,M,M,M,M,None,
EDW,2009-05-17 08:55:00+00,67.46,43.70,42.18,210.00,6.00,0.00,29.95,10.00,M,None,None,None,None,M,M,M,M,None,
EDW,2009-05-17 09:55:00+00,64.04,41.36,43.42,110.00,4.00,0.00,29.96,10.00,M,None,None,None,None,M,M,M,M,None,
EDW,2009-05-17 10:55:00+00,60.80,39.92,46.03,0.00,0.00,0.00,29.96,10.00,M,None,None,None,None,M,M,M,M,None,
EDW,2009-05-17 11:55:00+00,59.00,39.74,48.74,0.00,0.00,0.00,29.96,10.00,M,None,None,None,None,M,M,M,M,None,
EDW,2009-05-17 12:55:00+00,58.64,37.04,44.42,80.00,3.00,0.00,29.99,60.00,M,None,None,None,None,M,M,M,M,None,
EDW,2009-05-17 13:55:00+00,62.96,38.66,40.60,320.00,4.00,0.00,30.00,50.00,M,None,None,None,None,M,M,M,M,None,
EDW,2009-05-17 14:55:00+00,69.80,42.62,37.35,0.00,0.00,0.00,30.02,50.00,M,None,None,None,None,M,M,M,M,None,
EDW,2009-05-17 15:55:00+00,75.38,44.06,32.69,10.00,3.00,0.00,30.02,50.00,M,None,None,None,None,M,M,M,M,None,
EDW,2009-05-17 16:55:00+00,81.32,44.78,27.62,10.00,4.00,0.00,30.02,50.00,M,None,None,None,None,M,M,M,M,None,
EDW,2009-05-17 17:55:00+00,88.16,43.70,21.28,30.00,4.00,0.00,30.01,50.00,M,None,None,None,None,M,M,M,M,None,
EDW,2009-05-17 18:55:00+00,93.92,37.76,14.11,0.00,0.00,0.00,29.99,50.00,M,None,None,None,None,M,M,M,M,None,
EDW,2009-05-17 19:55:00+00,97.34,32.36,10.25,M,3.00,0.00,29.97,60.00,M,None,None,None,None,M,M,M,M,None,
EDW,2009-05-17 20:55:00+00,99.86,26.06,7.34,90.00,6.00,0.00,29.95,60.00,M,None,None,None,None,M,M,M,M,None,
EDW,2009-05-17 21:55:00+00,101.48,27.14,7.31,M,6.00,0.00,29.93,60.00,M,None,None,None,None,M,M,M,M,None,
EDW,2009-05-17 22:55:00+00,101.12,26.96,7.33,10.00,6.00,0.00,29.90,50.00,M,None,None,None,None,M,M,M,M,None,
EDW,2009-05-17 23:55:00+00,98.42,33.08,10.21,210.00,8.00,0.00,29.89,50.00,M,None,None,None,None,M,M,M,M,None,
EDW,2009-05-18 00:55:00+00,98.06,37.94,12.52,220.00,16.00,0.00,29.89,50.00,21.00,None,None,None,None,M,M,M,M,None,
EDW,2009-05-18 01:55:00+00,93.56,39.92,15.53,220.00,18.00,0.00,29.89,50.00,22.00,None,None,None,None,M,M,M,M,None,
EDW,2009-05-18 02:55:00+00,88.34,38.84,17.53,220.00,16.00,0.00,29.91,50.00,M,None,None,None,None,M,M,M,M,None,
EDW,2009-05-18 03:55:00+00,84.20,33.98,16.51,220.00,11.00,0.00,29.93,30.00,M,None,None,None,None,M,M,M,M,None,
EDW,2009-05-18 04:55:00+00,81.50,31.82,16.52,220.00,9.00,0.00,29.94,30.00,M,None,None,None,None,M,M,M,M,None,
EDW,2009-05-18 05:55:00+00,79.70,33.08,18.44,200.00,6.00,0.00,29.95,10.00,M,None,None,None,None,M,M,M,M,None,
EDW,2009-05-18 06:55:00+00,77.72,40.64,26.51,210.00,10.00,0.00,29.95,10.00,M,None,None,None,None,M,M,M,M,None,
EDW,2009-05-18 07:55:00+00,77.00,39.92,26.40,190.00,10.00,0.00,29.94,10.00,M,None,None,None,None,M,M,M,M,None,
EDW,2009-05-18 08:55:00+00,74.84,39.56,27.98,190.00,8.00,0.00,29.92,10.00,M,None,None,None,None,M,M,M,M,None,
EDW,2009-05-18 09:55:00+00,73.58,38.84,28.38,190.00,9.00,0.00,29.92,10.00,M,None,None,None,None,M,M,M,M,None,
EDW,2009-05-18 10:55:00+00,70.16,39.38,32.54,200.00,7.00,0.00,29.91,10.00,M,None,None,None,None,M,M,M,M,None,
EDW,2009-05-18 11:55:00+00,67.28,38.48,34.68,210.00,5.00,0.00,29.92,10.00,M,None,None,None,None,M,M,M,M,None,
EDW,2009-05-18 12:55:00+00,66.20,35.96,32.60,190.00,3.00,0.00,29.93,40.00,M,None,None,None,None,M,M,M,M,None,
EDW,2009-05-18 13:55:00+00,69.62,36.50,29.61,240.00,4.00,0.00,29.94,40.00,M,None,None,None,None,M,M,M,M,None,
EDW,2009-05-18 14:55:00+00,78.62,38.48,23.66,190.00,6.00,0.00,29.96,85.00,M,None,None,None,None,M,M,M,M,None,
EDW,2009-05-18 15:55:00+00,81.68,39.92,22.64,200.00,6.00,0.00,29.97,85.00,M,None,None,None,None,M,M,M,M,None,
EDW,2009-05-18 16:55:00+00,84.56,41.18,21.66,0.00,0.00,0.00,29.97,85.00,M,None,None,None,None,M,M,M,M,None,
EDW,2009-05-18 17:55:00+00,89.96,40.28,17.62,260.00,3.00,0.00,29.95,50.00,M,None,None,None,None,M,M,M,M,None,
EDW,2009-05-18 18:55:00+00,93.02,39.56,15.57,0.00,0.00,0.00,29.94,50.00,M,None,None,None,None,M,M,M,M,None,
EDW,2009-05-18 19:55:00+00,94.10,38.66,14.54,290.00,3.00,0.00,29.92,50.00,M,None,None,None,None,M,M,M,M,None,
EDW,2009-05-18 20:40:00+00,95.00,35.60,12.53,0.00,0.00,0.00,29.91,50.00,M,None,None,None,None,M,M,M,M,None,
EDW,2009-05-18 20:55:00+00,95.00,35.96,12.71,180.00,7.00,0.00,29.90,50.00,M,None,None,None,None,M,M,M,M,None,
EDW,2009-05-18 21:16:00+00,93.20,37.40,14.23,210.00,14.00,0.00,29.91,50.00,22.00,None,None,None,None,M,M,M,M,None,
EDW,2009-05-18 21:34:00+00,87.80,41.00,19.40,220.00,14.00,0.00,29.94,40.00,43.00,None,None,None,None,M,M,M,M,None,
EDW,2009-05-18 21:41:00+00,87.80,44.60,22.27,240.00,11.00,0.00,29.95,30.00,22.00,None,None,None,None,M,M,M,M,None,
EDW,2009-05-18 21:55:00+00,85.10,45.86,25.47,230.00,7.00,0.00,29.99,30.00,37.00,None,None,None,None,M,M,M,M,None,
EDW,2009-05-18 22:08:00+00,82.40,48.20,30.35,150.00,11.00,0.00,30.01,25.00,21.00,None,None,None,None,M,M,M,M,None,
EDW,2009-05-18 22:17:00+00,80.60,48.20,32.18,330.00,11.00,0.00,29.99,25.00,23.00,None,None,None,None,M,M,M,M,None,
EDW,2009-05-18 22:55:00+00,80.42,51.08,36.03,330.00,12.00,0.00,29.95,50.00,M,None,None,None,None,M,M,M,M,None,
EDW,2009-05-18 23:39:00+00,84.20,48.20,28.63,70.00,16.00,0.00,29.92,50.00,22.00,None,None,None,None,M,M,M,M,None,
EDW,2009-05-18 23:55:00+00,85.28,42.98,22.69,50.00,10.00,0.00,29.92,50.00,M,None,None,None,None,M,M,M,M,None,
EDW,2009-05-19 00:55:00+00,85.82,43.34,22.61,M,2.00,0.00,29.91,50.00,M,None,None,None,None,M,M,M,M,None,
EDW,2009-05-19 01:55:00+00,85.82,46.76,25.75,220.00,4.00,0.00,29.90,50.00,M,None,None,None,None,M,M,M,M,None,
EDW,2009-05-19 02:55:00+00,79.88,43.34,27.40,220.00,12.00,0.00,29.92,50.00,M,None,None,None,None,M,M,M,M,None,
EDW,2009-05-19 03:55:00+00,73.04,42.98,33.92,200.00,9.00,0.00,29.94,30.00,M,None,None,None,None,M,M,M,M,None,
EDW,2009-05-19 04:55:00+00,72.86,34.34,24.34,200.00,10.00,0.00,29.95,30.00,M,None,None,None,None,M,M,M,M,None,
EDW,2009-05-19 05:55:00+00,70.88,35.60,27.37,210.00,9.00,0.00,29.96,10.00,M,None,None,None,None,M,M,M,M,None,
EDW,2009-05-19 06:55:00+00,67.82,32.90,27.29,200.00,4.00,0.00,29.96,10.00,M,None,None,None,None,M,M,M,M,None,
EDW,2009-05-19 07:55:00+00,69.08,34.16,27.48,200.00,9.00,0.00,29.95,10.00,M,None,None,None,None,M,M,M,M,None,
EDW,2009-05-19 08:55:00+00,69.98,32.00,24.44,210.00,10.00,0.00,29.95,10.00,M,None,None,None,None,M,M,M,M,None,
EDW,2009-05-19 09:55:00+00,64.76,33.08,30.56,210.00,5.00,0.00,29.95,10.00,M,None,None,None,None,M,M,M,M,None,
EDW,2009-05-19 10:55:00+00,65.48,32.18,28.75,200.00,10.00,0.00,29.95,10.00,M,None,None,None,None,M,M,M,M,None,
EDW,2009-05-19 11:39:00+00,62.60,33.80,33.93,220.00,5.00,0.00,29.94,10.00,M,None,None,None,None,M,M,M,M,None,
EDW,2009-05-19 11:55:00+00,63.14,33.08,32.35,210.00,3.00,0.00,29.94,10.00,M,None,None,None,None,M,M,M,M,None,
EDW,2009-05-19 12:55:00+00,61.70,33.98,35.28,M,2.00,0.00,29.94,60.00,M,None,None,None,None,M,M,M,M,None,
EDW,2009-05-19 13:55:00+00,65.30,32.54,29.35,160.00,5.00,0.00,29.96,85.00,M,None,None,None,None,M,M,M,M,None,
EDW,2009-05-19 14:55:00+00,71.60,34.34,25.40,180.00,5.00,0.00,29.95,50.00,M,None,None,None,None,M,M,M,M,None,
EDW,2009-05-19 15:55:00+00,78.26,35.78,21.53,160.00,7.00,0.00,29.94,80.00,M,None,None,None,None,M,M,M,M,None,
EDW,2009-05-19 16:55:00+00,84.74,29.30,13.43,210.00,7.00,0.00,29.94,80.00,M,None,None,None,None,M,M,M,M,None,
EDW,2009-05-19 17:55:00+00,89.42,30.92,12.36,230.00,11.00,0.00,29.93,80.00,17.00,None,None,None,None,M,M,M,M,None,
EDW,2009-05-19 18:55:00+00,90.86,35.42,14.15,220.00,15.00,0.00,29.92,50.00,20.00,None,None,None,None,M,M,M,M,None,
EDW,2009-05-19 19:55:00+00,91.58,35.96,14.14,210.00,15.00,0.00,29.91,50.00,24.00,None,None,None,None,M,M,M,M,None,
EDW,2009-05-19 21:55:00+00,91.40,39.92,16.61,210.00,19.00,0.00,29.88,50.00,28.00,None,None,None,None,M,M,M,M,None,
EDW,2009-05-19 22:55:00+00,91.40,36.50,14.52,220.00,21.00,0.00,29.86,50.00,29.00,None,None,None,None,M,M,M,M,None,
EDW,2009-05-19 23:55:00+00,90.14,35.42,14.48,230.00,20.00,0.00,29.85,50.00,26.00,None,None,None,None,M,M,M,M,None,
EDW,2009-05-20 00:55:00+00,88.70,32.36,13.41,220.00,18.00,0.00,29.86,50.00,26.00,None,None,None,None,M,M,M,M,None,
EDW,2009-05-20 01:55:00+00,84.56,34.16,16.44,220.00,22.00,0.00,29.86,50.00,25.00,None,None,None,None,M,M,M,M,None,
EDW,2009-05-20 02:55:00+00,79.70,31.64,17.40,220.00,18.00,0.00,29.88,40.00,21.00,None,None,None,None,M,M,M,M,None,
EDW,2009-05-20 03:55:00+00,75.56,32.36,20.54,230.00,14.00,0.00,29.91,40.00,M,None,None,None,None,M,M,M,M,None,
EDW,2009-05-20 04:55:00+00,72.14,30.56,21.42,220.00,9.00,0.00,29.92,30.00,M,None,None,None,None,M,M,M,M,None,
EDW,2009-05-20 05:55:00+00,70.34,30.20,22.44,200.00,7.00,0.00,29.92,10.00,M,None,None,None,None,M,M,M,M,None,
EDW,2009-05-20 06:55:00+00,68.36,30.56,24.37,220.00,8.00,0.00,29.92,10.00,M,None,None,None,None,M,M,M,M,None,
EDW,2009-05-20 07:55:00+00,66.92,30.38,25.42,190.00,6.00,0.00,29.91,10.00,M,None,None,None,None,M,M,M,M,None,
EDW,2009-05-20 08:55:00+00,63.86,31.28,29.33,170.00,7.00,0.00,29.91,10.00,M,None,None,None,None,M,M,M,M,None,
EDW,2009-05-20 09:55:00+00,62.06,29.66,29.26,200.00,9.00,0.00,29.91,10.00,M,None,None,None,None,M,M,M,M,None,
EDW,2009-05-20 10:55:00+00,62.42,29.30,28.47,240.00,11.00,0.00,29.91,10.00,M,None,None,None,None,M,M,M,M,None,
EDW,2009-05-20 11:55:00+00,63.86,30.56,28.49,220.00,9.00,0.00,29.91,10.00,M,None,None,None,None,M,M,M,M,None,
EDW,2009-05-20 12:55:00+00,61.34,31.46,32.29,210.00,5.00,0.00,29.92,60.00,M,None,None,None,None,M,M,M,M,None,
EDW,2009-05-20 13:55:00+00,66.02,34.34,30.76,210.00,9.00,0.00,29.93,70.00,M,None,None,None,None,M,M,M,M,None,
EDW,2009-05-20 14:55:00+00,73.22,39.56,29.54,210.00,8.00,0.00,29.94,85.00,M,None,None,None,None,M,M,M,M,None,
EDW,2009-05-20 15:25:00+00,73.40,39.20,28.96,180.00,10.00,0.00,29.94,85.00,M,None,None,None,None,M,M,M,M,None,
EDW,2009-05-20 15:55:00+00,78.44,35.06,20.80,220.00,7.00,0.00,29.95,85.00,M,None,None,None,None,M,M,M,M,None,
EDW,2009-05-20 16:55:00+00,82.22,31.46,15.91,200.00,14.00,0.00,29.93,85.00,M,None,None,None,None,M,M,M,M,None,
EDW,2009-05-20 17:55:00+00,86.72,26.78,11.37,220.00,15.00,0.00,29.92,85.00,25.00,None,None,None,None,M,M,M,M,None,
EDW,2009-05-20 18:55:00+00,89.06,26.24,10.32,220.00,16.00,0.00,29.91,80.00,22.00,None,None,None,None,M,M,M,M,None,
EDW,2009-05-20 19:55:00+00,90.50,27.50,10.39,230.00,18.00,0.00,29.88,50.00,22.00,None,None,None,None,M,M,M,M,None,
EDW,2009-05-20 20:55:00+00,90.68,29.84,11.37,230.00,17.00,0.00,29.88,50.00,26.00,None,None,None,None,M,M,M,M,None,
EDW,2009-05-20 21:55:00+00,91.04,31.46,12.01,200.00,17.00,0.00,29.86,50.00,25.00,None,None,None,None,M,M,M,M,None,
EDW,2009-05-20 22:55:00+00,90.32,35.60,14.50,210.00,18.00,0.00,29.85,50.00,26.00,None,None,None,None,M,M,M,M,None,
EDW,2009-05-20 23:55:00+00,89.24,36.68,15.65,220.00,21.00,0.00,29.84,50.00,26.00,None,None,None,None,M,M,M,M,None,
EDW,2009-05-21 00:55:00+00,86.54,37.76,17.80,220.00,21.00,0.00,29.83,50.00,28.00,None,None,None,None,M,M,M,M,None,
EDW,2009-05-21 01:55:00+00,84.02,35.24,17.46,220.00,19.00,0.00,29.84,50.00,24.00,None,None,None,None,M,M,M,M,None,
EDW,2009-05-21 02:55:00+00,79.52,32.90,18.41,220.00,14.00,0.00,29.86,45.00,21.00,None,None,None,None,M,M,M,M,None,
EDW,2009-05-21 03:55:00+00,75.20,35.60,23.66,220.00,13.00,0.00,29.87,30.00,19.00,None,None,None,None,M,M,M,M,None,
EDW,2009-05-21 04:55:00+00,72.32,33.08,23.57,220.00,12.00,0.00,29.89,30.00,M,None,None,None,None,M,M,M,M,None,
EDW,2009-05-21 05:55:00+00,69.98,33.08,25.52,220.00,12.00,0.00,29.90,10.00,M,None,None,None,None,M,M,M,M,None,
EDW,2009-05-21 06:55:00+00,67.46,31.82,26.45,210.00,9.00,0.00,29.90,10.00,M,None,None,None,None,M,M,M,M,None,
EDW,2009-05-21 07:55:00+00,66.92,33.98,29.39,200.00,11.00,0.00,29.89,10.00,M,None,None,None,None,M,M,M,M,None,
EDW,2009-05-21 08:55:00+00,64.22,32.54,30.48,200.00,9.00,0.00,29.88,10.00,M,None,None,None,None,M,M,M,M,None,
EDW,2009-05-21 09:55:00+00,62.24,32.36,32.43,190.00,10.00,0.00,29.88,10.00,M,None,None,None,None,M,M,M,M,None,
EDW,2009-05-21 10:55:00+00,63.50,31.10,29.49,200.00,10.00,0.00,29.88,10.00,M,None,None,None,None,M,M,M,M,None,
EDW,2009-05-21 11:55:00+00,61.34,30.56,31.13,200.00,10.00,0.00,29.87,10.00,M,None,None,None,None,M,M,M,M,None,
EDW,2009-05-21 12:55:00+00,59.54,31.82,34.93,190.00,10.00,0.00,29.88,85.00,M,None,None,None,None,M,M,M,M,None,
EDW,2009-05-21 13:55:00+00,63.68,33.08,31.74,180.00,9.00,0.00,29.90,85.00,M,None,None,None,None,M,M,M,M,None,
EDW,2009-05-21 14:55:00+00,71.42,35.24,26.49,210.00,11.00,0.00,29.91,85.00,M,None,None,None,None,M,M,M,M,None,
EDW,2009-05-21 15:55:00+00,75.56,35.78,23.54,210.00,11.00,0.00,29.92,85.00,M,None,None,None,None,M,M,M,M,None,
EDW,2009-05-21 16:55:00+00,79.88,33.26,18.46,200.00,11.00,0.00,29.92,80.00,M,None,None,None,None,M,M,M,M,None,
EDW,2009-05-21 17:55:00+00,83.30,33.26,16.52,240.00,8.00,0.00,29.91,85.00,M,None,None,None,None,M,M,M,M,None,
EDW,2009-05-21 18:55:00+00,87.08,31.10,13.41,240.00,9.00,0.00,29.90,85.00,16.00,None,None,None,None,M,M,M,M,None,
EDW,2009-05-21 19:55:00+00,88.70,30.56,12.46,240.00,11.00,0.00,29.89,85.00,19.00,None,None,None,None,M,M,M,M,None,
EDW,2009-05-21 20:55:00+00,89.06,30.74,12.41,220.00,13.00,0.00,29.88,85.00,24.00,None,None,None,None,M,M,M,M,None,
EDW,2009-05-21 21:55:00+00,89.78,31.64,12.59,230.00,16.00,0.00,29.86,70.00,23.00,None,None,None,None,M,M,M,M,None,
EDW,2009-05-21 22:55:00+00,88.34,33.98,14.47,230.00,20.00,0.00,29.85,70.00,27.00,None,None,None,None,M,M,M,M,None,
EDW,2009-05-21 23:55:00+00,86.72,37.04,17.20,220.00,20.00,0.00,29.84,70.00,27.00,None,None,None,None,M,M,M,M,None,
EDW,2009-05-22 00:55:00+00,84.38,40.46,21.19,220.00,21.00,0.00,29.82,70.00,27.00,None,None,None,None,M,M,M,M,None,
EDW,2009-05-22 01:55:00+00,80.60,44.06,27.51,220.00,20.00,0.00,29.83,70.00,25.00,None,None,None,None,M,M,M,M,None,
EDW,2009-05-22 02:55:00+00,75.74,44.42,32.74,220.00,17.00,0.00,29.85,50.00,M,None,None,None,None,M,M,M,M,None,
EDW,2009-05-22 03:55:00+00,71.78,43.88,36.64,220.00,16.00,0.00,29.86,30.00,M,None,None,None,None,M,M,M,M,None,
EDW,2009-05-22 04:55:00+00,69.26,41.54,36.49,220.00,12.00,0.00,29.89,30.00,M,None,None,None,None,M,M,M,M,None,
EDW,2009-05-22 05:55:00+00,66.74,40.10,37.64,200.00,9.00,0.00,29.89,30.00,M,None,None,None,None,M,M,M,M,None,
EDW,2009-05-22 06:55:00+00,64.22,37.94,37.77,210.00,11.00,0.00,29.88,30.00,M,None,None,None,None,M,M,M,M,None,
EDW,2009-05-22 07:55:00+00,64.22,38.48,38.58,210.00,12.00,0.00,29.86,30.00,M,None,None,None,None,M,M,M,M,None,
EDW,2009-05-22 08:55:00+00,64.94,37.04,35.55,210.00,13.00,0.00,29.85,30.00,M,None,None,None,None,M,M,M,M,None,
EDW,2009-05-22 09:55:00+00,64.22,37.76,37.50,210.00,13.00,0.00,29.84,30.00,M,None,None,None,None,M,M,M,M,None,
EDW,2009-05-22 10:55:00+00,62.06,37.04,39.33,210.00,12.00,0.00,29.85,30.00,M,None,None,None,None,M,M,M,M,None,
EDW,2009-05-22 11:55:00+00,59.90,34.88,38.98,200.00,11.00,0.00,29.85,30.00,M,None,None,None,None,M,M,M,M,None,
EDW,2009-05-22 12:55:00+00,58.10,36.50,44.33,220.00,10.00,0.00,29.85,60.00,M,None,None,None,None,M,M,M,M,None,
EDW,2009-05-22 13:55:00+00,64.22,38.12,38.03,210.00,9.00,0.00,29.86,60.00,M,None,None,None,None,M,M,M,M,None,
EDW,2009-05-22 14:55:00+00,68.72,36.68,30.75,210.00,8.00,0.00,29.88,60.00,M,None,None,None,None,M,M,M,M,None,
EDW,2009-05-22 15:55:00+00,74.84,34.88,23.27,200.00,10.00,0.00,29.88,60.00,M,None,None,None,None,M,M,M,M,None,
EDW,2009-05-22 16:55:00+00,79.70,35.60,20.39,200.00,10.00,0.00,29.87,60.00,M,None,None,None,None,M,M,M,M,None,
EDW,2009-05-22 17:55:00+00,83.84,30.38,14.45,240.00,8.00,0.00,29.87,60.00,M,None,None,None,None,M,M,M,M,None,
EDW,2009-05-22 18:55:00+00,87.08,27.14,11.41,210.00,9.00,0.00,29.86,60.00,17.00,None,None,None,None,M,M,M,M,None,
EDW,2009-05-22 19:55:00+00,89.06,23.72,9.30,210.00,12.00,0.00,29.85,50.00,M,None,None,None,None,M,M,M,M,None,
EDW,2009-05-22 20:55:00+00,89.96,24.62,9.38,230.00,17.00,0.00,29.84,50.00,22.00,None,None,None,None,M,M,M,M,None,
EDW,2009-05-22 21:55:00+00,89.42,21.20,8.26,220.00,19.00,0.00,29.84,50.00,27.00,None,None,None,None,M,M,M,M,None,
EDW,2009-05-22 22:55:00+00,87.26,31.28,13.43,210.00,21.00,0.00,29.83,50.00,29.00,None,None,None,None,M,M,M,M,None,
EDW,2009-05-22 23:55:00+00,85.28,33.26,15.50,220.00,23.00,0.00,29.82,50.00,31.00,None,None,None,None,M,M,M,M,None,
EDW,2009-05-23 00:55:00+00,82.22,37.94,20.59,210.00,23.00,0.00,29.82,50.00,29.00,None,None,None,None,M,M,M,M,None,
EDW,2009-05-23 01:55:00+00,79.70,38.30,22.68,220.00,19.00,0.00,29.83,50.00,25.00,None,None,None,None,M,M,M,M,None,
EDW,2009-05-23 02:55:00+00,74.48,37.76,26.39,220.00,16.00,0.00,29.85,50.00,M,None,None,None,None,M,M,M,M,None,
EDW,2009-05-23 03:55:00+00,69.80,39.74,33.41,220.00,15.00,0.00,29.87,30.00,M,None,None,None,None,M,M,M,M,None,
EDW,2009-05-23 04:55:00+00,66.92,40.10,37.41,220.00,15.00,0.00,29.88,30.00,M,None,None,None,None,M,M,M,M,None,
EDW,2009-05-23 05:55:00+00,65.84,37.76,35.44,220.00,13.00,0.00,29.89,30.00,M,None,None,None,None,M,M,M,M,None,
EDW,2009-05-23 06:55:00+00,64.76,38.84,38.39,190.00,10.00,0.00,29.90,30.00,M,None,None,None,None,M,M,M,M,None,
EDW,2009-05-23 07:55:00+00,63.86,34.52,33.41,210.00,9.00,0.00,29.89,30.00,M,None,None,None,None,M,M,M,M,None,
EDW,2009-05-23 08:55:00+00,62.96,32.18,31.39,200.00,11.00,0.00,29.88,30.00,M,None,None,None,None,M,M,M,M,None,
EDW,2009-05-23 09:55:00+00,61.70,32.54,33.30,200.00,12.00,0.00,29.88,30.00,M,None,None,None,None,M,M,M,M,None,
EDW,2009-05-23 10:55:00+00,60.62,31.82,33.61,200.00,13.00,0.00,29.86,30.00,M,None,None,None,None,M,M,M,M,None,
EDW,2009-05-23 11:55:00+00,56.66,29.66,35.49,180.00,9.00,0.00,29.86,30.00,M,None,None,None,None,M,M,M,M,None,
EDW,2009-05-23 12:13:00+00,57.20,28.40,33.05,180.00,7.00,0.00,29.87,30.00,M,None,None,None,None,M,M,M,M,None,
EDW,2009-05-23 12:30:00+00,55.40,28.40,35.28,180.00,9.00,0.00,29.87,85.00,M,None,None,None,None,M,M,M,M,None,
EDW,2009-05-23 12:55:00+00,56.84,28.76,33.98,190.00,9.00,0.00,29.87,85.00,M,None,None,None,None,M,M,M,M,None,
EDW,2009-05-23 13:14:00+00,57.20,28.40,33.05,170.00,8.00,0.00,29.87,85.00,M,None,None,None,None,M,M,M,M,None,
EDW,2009-05-23 13:55:00+00,60.26,26.78,27.71,200.00,9.00,0.00,29.88,85.00,M,None,None,None,None,M,M,M,M,None,
EDW,2009-05-23 14:55:00+00,68.18,25.16,19.64,210.00,10.00,0.00,29.89,85.00,M,None,None,None,None,M,M,M,M,None,
EDW,2009-05-23 15:55:00+00,75.20,24.26,14.91,230.00,14.00,0.00,29.90,85.00,M,None,None,None,None,M,M,M,M,None,
EDW,2009-05-23 16:55:00+00,80.06,22.64,11.86,230.00,15.00,0.00,29.89,85.00,M,None,None,None,None,M,M,M,M,None,
EDW,2009-05-23 17:55:00+00,83.12,21.20,10.11,220.00,12.00,0.00,29.90,85.00,M,None,None,None,None,M,M,M,M,None,
EDW,2009-05-23 18:55:00+00,85.10,22.64,10.08,240.00,13.00,0.00,29.89,85.00,20.00,None,None,None,None,M,M,M,M,None,
EDW,2009-05-23 19:55:00+00,87.08,16.34,7.23,250.00,16.00,0.00,29.88,80.00,20.00,None,None,None,None,M,M,M,M,None,
EDW,2009-05-23 20:55:00+00,87.44,13.10,6.20,220.00,18.00,0.00,29.86,80.00,23.00,None,None,None,None,M,M,M,M,None,
EDW,2009-05-23 21:55:00+00,87.08,12.92,6.22,230.00,23.00,0.00,29.84,60.00,30.00,None,None,None,None,M,M,M,M,None,
EDW,2009-05-23 22:55:00+00,86.00,17.42,7.84,230.00,25.00,0.00,29.83,60.00,31.00,None,None,None,None,M,M,M,M,None,
EDW,2009-05-23 23:55:00+00,84.02,17.60,8.42,230.00,23.00,0.00,29.83,60.00,31.00,None,None,None,None,M,M,M,M,None,
EDW,2009-05-24 00:55:00+00,81.68,18.50,9.44,220.00,23.00,0.00,29.83,60.00,29.00,None,None,None,None,M,M,M,M,None,
EDW,2009-05-24 01:55:00+00,77.54,17.24,10.24,220.00,22.00,0.00,29.85,60.00,28.00,None,None,None,None,M,M,M,M,None,
EDW,2009-05-24 02:55:00+00,72.68,22.28,14.93,220.00,17.00,0.00,29.87,50.00,24.00,None,None,None,None,M,M,M,M,None,
EDW,2009-05-24 03:55:00+00,69.44,31.46,24.36,220.00,15.00,0.00,29.88,30.00,M,None,None,None,None,M,M,M,M,None,
EDW,2009-05-24 04:55:00+00,67.10,32.36,27.37,220.00,15.00,0.00,29.90,30.00,M,None,None,None,None,M,M,M,M,None,
EDW,2009-05-24 05:55:00+00,64.94,29.66,26.45,210.00,12.00,0.00,29.91,30.00,M,None,None,None,None,M,M,M,M,None,
EDW,2009-05-24 06:55:00+00,63.86,29.66,27.47,210.00,13.00,0.00,29.90,25.00,M,None,None,None,None,M,M,M,M,None,
EDW,2009-05-24 07:55:00+00,62.78,26.42,24.97,210.00,14.00,0.00,29.89,25.00,M,None,None,None,None,M,M,M,M,None,
EDW,2009-05-24 08:55:00+00,61.34,24.62,24.38,210.00,13.00,0.00,29.88,30.00,M,None,None,None,None,M,M,M,M,None,
EDW,2009-05-24 09:55:00+00,58.46,21.74,23.94,200.00,11.00,0.00,29.88,30.00,M,None,None,None,None,M,M,M,M,None,
EDW,2009-05-24 10:55:00+00,58.10,21.74,24.25,210.00,11.00,0.00,29.87,30.00,M,None,None,None,None,M,M,M,M,None,
EDW,2009-05-24 11:55:00+00,59.00,25.34,27.31,210.00,12.00,0.00,29.88,30.00,M,None,None,None,None,M,M,M,M,None,
EDW,2009-05-24 12:41:00+00,57.20,28.40,33.05,190.00,11.00,0.00,29.88,30.00,M,None,None,None,None,M,M,M,M,None,
EDW,2009-05-24 12:55:00+00,58.10,29.30,33.20,200.00,11.00,0.00,29.88,40.00,M,None,None,None,None,M,M,M,M,None,
EDW,2009-05-24 13:15:00+00,57.20,32.00,38.26,190.00,12.00,0.00,29.88,40.00,M,None,None,None,None,M,M,M,M,None,
EDW,2009-05-24 13:29:00+00,57.20,32.00,38.26,190.00,12.00,0.00,29.89,40.00,M,None,None,None,None,M,M,M,M,None,
EDW,2009-05-24 13:45:00+00,59.00,32.00,35.87,190.00,10.00,0.00,29.89,40.00,M,None,None,None,None,M,M,M,M,None,
EDW,2009-05-24 13:55:00+00,58.82,33.80,38.80,190.00,10.00,0.00,29.89,40.00,M,None,None,None,None,M,M,M,M,None,
EDW,2009-05-24 14:12:00+00,60.80,32.00,33.64,200.00,9.00,0.00,29.89,40.00,M,None,None,None,None,M,M,M,M,None,
EDW,2009-05-24 14:30:00+00,62.60,33.80,33.93,200.00,10.00,0.00,29.90,40.00,M,None,None,None,None,M,M,M,M,None,
EDW,2009-05-24 14:55:00+00,66.38,35.24,31.49,210.00,14.00,0.00,29.90,50.00,20.00,None,None,None,None,M,M,M,M,None,
EDW,2009-05-24 15:26:00+00,69.80,35.60,28.39,210.00,15.00,0.00,29.90,50.00,M,None,None,None,None,M,M,M,M,None,
EDW,2009-05-24 15:29:00+00,71.60,35.60,26.71,220.00,16.00,0.00,29.90,50.00,20.00,None,None,None,None,M,M,M,M,None,
EDW,2009-05-24 15:43:00+00,73.40,35.60,25.13,210.00,15.00,0.00,29.90,50.00,M,None,None,None,None,M,M,M,M,None,
EDW,2009-05-24 15:55:00+00,73.40,34.16,23.73,220.00,15.00,0.00,29.90,50.00,M,None,None,None,None,M,M,M,M,None,
EDW,2009-05-24 16:55:00+00,77.54,33.98,20.52,220.00,11.00,0.00,29.90,50.00,M,None,None,None,None,M,M,M,M,None,
EDW,2009-05-24 17:55:00+00,80.96,34.16,18.47,210.00,9.00,0.00,29.90,50.00,M,None,None,None,None,M,M,M,M,None,
EDW,2009-05-24 18:55:00+00,83.48,34.88,17.52,220.00,10.00,0.00,29.88,50.00,17.00,None,None,None,None,M,M,M,M,None,
EDW,2009-05-24 19:55:00+00,85.46,35.06,16.56,210.00,8.00,0.00,29.87,60.00,19.00,None,None,None,None,M,M,M,M,None,
EDW,2009-05-24 20:55:00+00,86.72,38.12,17.95,220.00,15.00,0.00,29.85,60.00,21.00,None,None,None,None,M,M,M,M,None,
EDW,2009-05-24 21:55:00+00,87.08,39.20,18.51,200.00,18.00,0.00,29.84,60.00,24.00,None,None,None,None,M,M,M,M,None,
EDW,2009-05-24 22:55:00+00,85.28,39.20,19.60,220.00,21.00,0.00,29.82,50.00,29.00,None,None,None,None,M,M,M,M,None,
EDW,2009-05-24 23:55:00+00,83.48,40.82,22.12,220.00,23.00,0.00,29.81,50.00,32.00,None,None,None,None,M,M,M,M,None,
EDW,2009-05-25 00:55:00+00,80.42,42.98,26.55,220.00,24.00,0.00,29.81,50.00,32.00,None,None,None,None,M,M,M,M,None,
EDW,2009-05-25 01:55:00+00,77.54,43.88,30.21,230.00,19.00,0.00,29.82,60.00,29.00,None,None,None,None,M,M,M,M,None,
EDW,2009-05-25 02:55:00+00,71.60,47.12,41.69,230.00,20.00,0.00,29.84,60.00,25.00,None,None,None,None,M,M,M,M,None,
EDW,2009-05-25 03:55:00+00,67.82,46.22,45.85,220.00,19.00,0.00,29.86,30.00,23.00,None,None,None,None,M,M,M,M,None,
EDW,2009-05-25 04:55:00+00,65.30,44.42,46.73,200.00,15.00,0.00,29.88,30.00,20.00,None,None,None,None,M,M,M,M,None,
EDW,2009-05-25 05:55:00+00,62.96,41.72,45.73,190.00,10.00,0.00,29.89,30.00,M,None,None,None,None,M,M,M,M,None,
EDW,2009-05-25 06:55:00+00,62.60,41.36,45.67,200.00,12.00,0.00,29.89,30.00,M,None,None,None,None,M,M,M,M,None,
EDW,2009-05-25 07:55:00+00,61.34,39.02,43.60,210.00,12.00,0.00,29.88,30.00,M,None,None,None,None,M,M,M,M,None,
EDW,2009-05-25 08:55:00+00,61.34,40.10,45.48,210.00,15.00,0.00,29.87,30.00,21.00,None,None,None,None,M,M,M,M,None,
EDW,2009-05-25 09:55:00+00,60.08,38.66,44.96,200.00,15.00,0.00,29.86,30.00,M,None,None,None,None,M,M,M,M,None,
EDW,2009-05-25 10:55:00+00,58.82,38.12,46.04,200.00,11.00,0.00,29.86,30.00,M,None,None,None,None,M,M,M,M,None,
EDW,2009-05-25 11:55:00+00,56.66,38.84,51.19,190.00,12.00,0.00,29.85,30.00,M,None,None,None,None,M,M,M,M,None,
EDW,2009-05-25 12:55:00+00,56.48,39.02,51.88,200.00,12.00,0.00,29.86,40.00,M,None,None,None,None,M,M,M,M,None,
EDW,2009-05-25 13:55:00+00,58.46,39.02,48.31,200.00,8.00,0.00,29.86,50.00,M,None,None,None,None,M,M,M,M,None,
EDW,2009-05-25 14:55:00+00,66.20,38.84,36.51,220.00,11.00,0.00,29.86,60.00,M,None,None,None,None,M,M,M,M,None,
EDW,2009-05-25 15:55:00+00,71.96,38.48,29.55,210.00,10.00,0.00,29.87,70.00,M,None,None,None,None,M,M,M,M,None,
EDW,2009-05-25 16:55:00+00,77.00,34.88,21.66,M,5.00,0.00,29.86,60.00,M,None,None,None,None,M,M,M,M,None,
EDW,2009-05-25 17:55:00+00,81.50,34.70,18.55,220.00,6.00,0.00,29.84,60.00,M,None,None,None,None,M,M,M,M,None,
EDW,2009-05-25 18:55:00+00,83.66,31.82,15.41,230.00,3.00,0.00,29.83,60.00,M,None,None,None,None,M,M,M,M,None,
EDW,2009-05-25 20:55:00+00,89.24,32.90,13.47,220.00,15.00,0.00,29.79,75.00,20.00,None,None,None,None,M,M,M,M,None,
EDW,2009-05-25 21:55:00+00,89.06,36.32,15.52,220.00,13.00,0.00,29.78,75.00,23.00,None,None,None,None,M,M,M,M,None,
EDW,2009-05-25 22:55:00+00,88.52,35.06,15.02,210.00,16.00,0.00,29.77,60.00,22.00,None,None,None,None,M,M,M,M,None,
EDW,2009-05-25 23:55:00+00,86.36,35.78,16.55,230.00,23.00,0.00,29.76,55.00,29.00,None,None,None,None,M,M,M,M,None,
EDW,2009-05-26 00:55:00+00,82.94,39.92,21.74,230.00,25.00,0.00,29.76,50.00,30.00,None,None,None,None,M,M,M,M,None,
EDW,2009-05-26 01:55:00+00,80.24,36.14,20.46,260.00,18.00,0.00,29.77,60.00,22.00,None,None,None,None,M,M,M,M,None,
EDW,2009-05-26 02:55:00+00,74.12,38.30,27.29,220.00,13.00,0.00,29.79,60.00,M,None,None,None,None,M,M,M,M,None,
EDW,2009-05-26 03:55:00+00,69.08,40.28,34.97,220.00,14.00,0.00,29.81,30.00,M,None,None,None,None,M,M,M,M,None,
EDW,2009-05-26 04:55:00+00,66.38,41.54,40.30,210.00,12.00,0.00,29.84,30.00,M,None,None,None,None,M,M,M,M,None,
EDW,2009-05-26 05:55:00+00,64.58,41.18,42.31,190.00,11.00,0.00,29.85,30.00,M,None,None,None,None,M,M,M,M,None,
EDW,2009-05-26 06:55:00+00,61.34,42.26,49.44,200.00,11.00,0.00,29.85,30.00,M,None,None,None,None,M,M,M,M,None,
EDW,2009-05-26 07:55:00+00,60.08,41.54,50.28,200.00,10.00,0.00,29.85,30.00,M,None,None,None,None,M,M,M,M,None,
EDW,2009-05-26 08:55:00+00,59.54,40.10,48.48,190.00,11.00,0.00,29.85,30.00,M,None,None,None,None,M,M,M,M,None,
EDW,2009-05-26 09:55:00+00,58.46,40.64,51.46,190.00,10.00,0.00,29.84,30.00,M,None,None,None,None,M,M,M,M,None,
EDW,2009-05-26 10:55:00+00,55.22,41.36,59.48,210.00,7.00,0.00,29.85,30.00,M,None,None,None,None,M,M,M,M,None,
EDW,2009-05-26 11:55:00+00,54.50,41.36,61.06,210.00,6.00,0.00,29.85,30.00,M,None,None,None,None,M,M,M,M,None,
EDW,2009-05-26 12:55:00+00,53.06,40.64,62.59,230.00,6.00,0.00,29.87,75.00,M,None,None,None,None,M,M,M,M,None,
EDW,2009-05-26 13:55:00+00,56.84,39.92,53.04,210.00,5.00,0.00,29.88,50.00,M,None,None,None,None,M,M,M,M,None,
EDW,2009-05-26 14:55:00+00,64.04,38.12,38.28,240.00,5.00,0.00,29.89,50.00,M,None,None,None,None,M,M,M,M,None,
EDW,2009-05-26 15:55:00+00,68.00,39.02,34.55,10.00,3.00,0.00,29.90,50.00,M,None,None,None,None,M,M,M,M,None,
EDW,2009-05-26 16:55:00+00,74.66,38.12,26.61,240.00,3.00,0.00,29.90,50.00,M,None,None,None,None,M,M,M,M,None,
EDW,2009-05-26 17:55:00+00,79.70,39.20,23.49,340.00,5.00,0.00,29.89,50.00,M,None,None,None,None,M,M,M,M,None,
EDW,2009-05-26 18:55:00+00,81.86,38.12,20.98,M,3.00,0.00,29.88,50.00,M,None,None,None,None,M,M,M,M,None,
EDW,2009-05-26 19:55:00+00,88.70,36.14,15.59,M,6.00,0.00,29.85,50.00,M,None,None,None,None,M,M,M,M,None,
EDW,2009-05-26 19:55:00+00,88.70,36.14,15.59,M,6.00,0.00,29.85,50.00,M,None,None,None,None,M,M,M,M,None,
EDW,2009-05-26 19:55:00+00,88.70,36.14,15.59,M,6.00,0.00,29.85,50.00,M,None,None,None,None,M,M,M,M,None,
EDW,2009-05-26 19:55:00+00,88.70,36.14,15.59,M,6.00,0.00,29.85,50.00,M,None,None,None,None,M,M,M,M,None,
EDW,2009-05-26 20:55:00+00,90.32,26.78,10.15,M,3.00,0.00,29.84,50.00,M,None,None,None,None,M,M,M,M,None,
EDW,2009-05-26 21:55:00+00,92.84,23.90,8.32,M,5.00,0.00,29.81,50.00,M,None,None,None,None,M,M,M,M,None,
EDW,2009-05-26 22:55:00+00,92.48,20.48,7.28,0.00,0.00,0.00,29.79,50.00,M,None,None,None,None,M,M,M,M,None,
EDW,2009-05-26 23:55:00+00,92.66,20.66,7.30,M,3.00,0.00,29.79,50.00,M,None,None,None,None,M,M,M,M,None,
EDW,2009-05-27 00:55:00+00,91.94,20.12,7.29,300.00,3.00,0.00,29.78,50.00,M,None,None,None,None,M,M,M,M,None,
EDW,2009-05-27 01:55:00+00,83.84,43.88,24.60,230.00,24.00,0.00,29.80,50.00,30.00,None,None,None,None,M,M,M,M,None,
EDW,2009-05-27 02:55:00+00,80.06,43.70,27.62,230.00,15.00,0.00,29.82,50.00,21.00,None,None,None,None,M,M,M,M,None,
EDW,2009-05-27 03:55:00+00,75.56,46.40,35.51,220.00,13.00,0.00,29.85,40.00,M,None,None,None,None,M,M,M,M,None,
EDW,2009-05-27 04:55:00+00,72.86,41.00,31.62,220.00,12.00,0.00,29.86,40.00,M,None,None,None,None,M,M,M,M,None,
EDW,2009-05-27 05:55:00+00,70.70,37.40,29.57,210.00,9.00,0.00,29.88,40.00,M,None,None,None,None,M,M,M,M,None,
EDW,2009-05-27 06:55:00+00,69.26,42.26,37.52,210.00,9.00,0.00,29.88,40.00,M,None,None,None,None,M,M,M,M,None,
EDW,2009-05-27 07:55:00+00,67.46,40.28,36.97,190.00,9.00,0.00,29.88,40.00,M,None,None,None,None,M,M,M,M,None,
EDW,2009-05-27 08:55:00+00,64.58,40.64,41.44,210.00,8.00,0.00,29.87,40.00,M,None,None,None,None,M,M,M,M,None,
EDW,2009-05-27 09:55:00+00,62.24,42.08,47.56,200.00,7.00,0.00,29.87,40.00,M,None,None,None,None,M,M,M,M,None,
EDW,2009-05-27 10:55:00+00,62.06,44.42,52.35,220.00,6.00,0.00,29.87,40.00,M,None,None,None,None,M,M,M,M,None,
EDW,2009-05-27 11:55:00+00,59.90,43.52,54.61,210.00,4.00,0.00,29.88,30.00,M,None,None,None,None,M,M,M,M,None,
EDW,2009-05-27 12:57:00+00,59.00,42.80,54.86,230.00,2.00,0.00,29.90,50.00,M,None,None,None,None,M,M,M,M,None,
EDW,2009-05-27 13:55:00+00,62.60,41.72,46.31,0.00,0.00,0.00,29.91,50.00,M,None,None,None,None,M,M,M,M,None,
EDW,2009-05-27 14:55:00+00,68.18,42.62,39.48,160.00,2.00,0.00,29.91,50.00,M,None,None,None,None,M,M,M,M,None,
EDW,2009-05-27 15:55:00+00,72.68,42.44,33.63,360.00,2.00,0.00,29.92,50.00,M,None,None,None,None,M,M,M,M,None,
EDW,2009-05-27 16:55:00+00,79.70,44.42,28.73,0.00,0.00,0.00,29.91,50.00,M,None,None,None,None,M,M,M,M,None,
EDW,2009-05-27 17:55:00+00,83.48,42.98,24.04,M,3.00,0.00,29.91,50.00,M,None,None,None,None,M,M,M,M,None,
EDW,2009-05-27 18:55:00+00,87.98,41.36,19.56,M,4.00,0.00,29.89,50.00,M,None,None,None,None,M,M,M,M,None,
EDW,2009-05-27 19:55:00+00,91.04,37.94,15.55,0.00,0.00,0.00,29.87,50.00,M,None,None,None,None,M,M,M,M,None,
EDW,2009-05-27 20:55:00+00,92.84,35.78,13.50,140.00,4.00,0.00,29.85,50.00,M,None,None,None,None,M,M,M,M,None,
EDW,2009-05-27 21:55:00+00,93.56,30.38,10.63,50.00,8.00,0.00,29.83,50.00,M,None,None,None,None,M,M,M,M,None,
EDW,2009-05-27 22:39:00+00,93.20,30.20,10.67,0.00,0.00,0.00,29.81,50.00,M,None,None,None,None,M,M,M,M,None,
EDW,2009-05-27 22:55:00+00,92.66,29.12,10.38,210.00,4.00,0.00,29.81,50.00,M,None,None,None,None,M,M,M,M,None,
EDW,2009-05-27 23:55:00+00,92.12,40.46,16.58,230.00,22.00,0.00,29.82,50.00,28.00,None,None,None,None,M,M,M,M,None,
EDW,2009-05-28 00:55:00+00,85.64,43.34,22.74,230.00,22.00,0.00,29.84,50.00,28.00,None,None,None,None,M,M,M,M,None,
EDW,2009-05-28 01:55:00+00,85.28,39.20,19.60,230.00,17.00,0.00,29.85,60.00,M,None,None,None,None,M,M,M,M,None,
EDW,2009-05-28 02:55:00+00,81.50,30.38,15.59,230.00,17.00,0.00,29.86,60.00,M,None,None,None,None,M,M,M,M,None,
EDW,2009-05-28 03:55:00+00,77.18,36.68,23.12,220.00,11.00,0.00,29.87,30.00,M,None,None,None,None,M,M,M,M,None,
EDW,2009-05-28 04:55:00+00,75.56,35.78,23.54,210.00,9.00,0.00,29.89,30.00,M,None,None,None,None,M,M,M,M,None,
EDW,2009-05-28 05:55:00+00,72.14,33.80,24.41,210.00,9.00,0.00,29.89,30.00,M,None,None,None,None,M,M,M,M,None,
EDW,2009-05-28 06:55:00+00,69.80,33.26,25.87,210.00,7.00,0.00,29.90,30.00,M,None,None,None,None,M,M,M,M,None,
EDW,2009-05-28 07:55:00+00,66.92,32.36,27.54,210.00,7.00,0.00,29.90,10.00,M,None,None,None,None,M,M,M,M,None,
EDW,2009-05-28 07:55:00+00,66.92,32.36,27.54,210.00,7.00,0.00,29.89,30.00,M,None,None,None,None,M,M,M,M,None,
EDW,2009-05-28 07:55:00+00,66.92,32.36,27.54,210.00,7.00,0.00,29.89,30.00,M,None,None,None,None,M,M,M,M,None,
EDW,2009-05-28 08:55:00+00,67.64,35.60,30.58,180.00,8.00,0.00,29.89,30.00,M,None,None,None,None,M,M,M,M,None,
EDW,2009-05-28 09:55:00+00,62.78,35.60,36.22,210.00,3.00,0.00,29.89,30.00,M,None,None,None,None,M,M,M,M,None,
EDW,2009-05-28 10:55:00+00,64.04,36.68,36.17,180.00,6.00,0.00,29.89,30.00,M,None,None,None,None,M,M,M,M,None,
EDW,2009-05-28 11:55:00+00,61.70,34.88,36.57,210.00,7.00,0.00,29.90,40.00,M,None,None,None,None,M,M,M,M,None,
EDW,2009-05-28 12:55:00+00,59.36,35.06,40.02,210.00,5.00,0.00,29.91,60.00,M,None,None,None,None,M,M,M,M,None,
EDW,2009-05-28 13:55:00+00,63.68,29.30,27.24,0.00,0.00,0.00,29.93,60.00,M,None,None,None,None,M,M,M,M,None,
EDW,2009-05-28 14:55:00+00,68.18,30.74,24.70,0.00,0.00,0.00,29.94,50.00,M,None,None,None,None,M,M,M,M,None,
EDW,2009-05-28 15:55:00+00,73.76,30.92,20.58,0.00,0.00,0.00,29.94,50.00,M,None,None,None,None,M,M,M,M,None,
EDW,2009-05-28 16:55:00+00,80.78,40.82,24.15,0.00,0.00,0.00,29.94,50.00,M,None,None,None,None,M,M,M,M,None,
EDW,2009-05-28 17:55:00+00,85.46,42.08,21.79,M,3.00,0.00,29.93,50.00,M,None,None,None,None,M,M,M,M,None,
EDW,2009-05-28 18:55:00+00,89.78,38.48,16.52,40.00,5.00,0.00,29.91,50.00,M,None,None,None,None,M,M,M,M,None,
EDW,2009-05-28 19:55:00+00,93.20,30.92,10.99,200.00,7.00,0.00,29.89,80.00,M,None,None,None,None,M,M,M,M,None,
EDW,2009-05-28 20:55:00+00,95.72,23.00,7.33,130.00,9.00,0.00,29.88,85.00,M,None,None,None,None,M,M,M,M,None,
EDW,2009-05-28 21:55:00+00,94.28,32.72,11.42,220.00,11.00,0.00,29.87,80.00,23.00,None,None,None,None,M,M,M,M,None,
EDW,2009-05-28 22:55:00+00,94.82,28.22,9.36,200.00,11.00,0.00,29.86,80.00,20.00,None,None,None,None,M,M,M,M,None,
EDW,2009-05-28 23:55:00+00,93.74,27.32,9.33,230.00,14.00,0.00,29.85,80.00,26.00,None,None,None,None,M,M,M,M,None,
EDW,2009-05-29 00:55:00+00,91.94,30.92,11.42,230.00,22.00,0.00,29.85,70.00,26.00,None,None,None,None,M,M,M,M,None,
EDW,2009-05-29 01:55:00+00,88.70,31.64,13.02,240.00,20.00,0.00,29.86,70.00,25.00,None,None,None,None,M,M,M,M,None,
EDW,2009-05-29 02:55:00+00,84.56,30.92,14.43,220.00,11.00,0.00,29.88,60.00,M,None,None,None,None,M,M,M,M,None,
EDW,2009-05-29 03:55:00+00,78.62,35.06,20.67,220.00,8.00,0.00,29.89,30.00,M,None,None,None,None,M,M,M,M,None,
EDW,2009-05-29 04:55:00+00,74.30,36.32,25.09,210.00,9.00,0.00,29.91,30.00,M,None,None,None,None,M,M,M,M,None,
EDW,2009-05-29 05:55:00+00,72.14,43.52,35.70,210.00,9.00,0.00,29.92,30.00,M,None,None,None,None,M,M,M,M,None,
EDW,2009-05-29 06:55:00+00,70.16,45.14,40.62,200.00,8.00,0.00,29.93,30.00,M,None,None,None,None,M,M,M,M,None,
EDW,2009-05-29 07:55:00+00,68.00,48.02,48.77,200.00,10.00,0.00,29.94,30.00,M,None,None,None,None,M,M,M,M,None,
EDW,2009-05-29 08:55:00+00,65.84,46.58,49.78,210.00,8.00,0.00,29.93,30.00,M,None,None,None,None,M,M,M,M,None,
EDW,2009-05-29 09:55:00+00,63.68,45.50,51.53,210.00,5.00,0.00,29.93,30.00,M,None,None,None,None,M,M,M,M,None,
EDW,2009-05-29 10:55:00+00,64.58,42.08,43.81,10.00,3.00,0.00,29.94,30.00,M,None,None,None,None,M,M,M,M,None,
EDW,2009-05-29 11:55:00+00,62.42,39.56,42.86,200.00,3.00,0.00,29.94,30.00,M,None,None,None,None,M,M,M,M,None,
EDW,2009-05-29 12:55:00+00,63.68,37.58,37.95,0.00,0.00,0.00,29.95,85.00,M,None,None,None,None,M,M,M,M,None,
EDW,2009-05-29 13:55:00+00,62.78,37.40,38.89,0.00,0.00,0.00,29.97,50.00,M,None,None,None,None,M,M,M,M,None,
EDW,2009-05-29 14:55:00+00,69.44,36.86,30.22,350.00,3.00,0.00,29.98,50.00,M,None,None,None,None,M,M,M,M,None,
EDW,2009-05-29 15:55:00+00,76.64,40.46,27.29,340.00,8.00,0.00,29.97,50.00,M,None,None,None,None,M,M,M,M,None,
EDW,2009-05-29 16:55:00+00,84.20,43.16,23.65,350.00,7.00,0.00,29.97,50.00,M,None,None,None,None,M,M,M,M,None,
EDW,2009-05-29 17:55:00+00,87.44,42.08,20.46,50.00,4.00,0.00,29.97,50.00,M,None,None,None,None,M,M,M,M,None,
EDW,2009-05-29 18:55:00+00,90.50,35.78,14.52,30.00,7.00,0.00,29.95,50.00,M,None,None,None,None,M,M,M,M,None,
EDW,2009-05-29 19:20:00+00,91.40,33.80,13.05,70.00,7.00,0.00,29.94,50.00,M,None,None,None,None,M,M,M,M,None,
EDW,2009-05-29 19:55:00+00,91.04,32.36,12.45,80.00,11.00,0.00,29.94,50.00,M,None,None,None,None,M,M,M,M,None,
EDW,2009-05-29 20:15:00+00,87.80,32.00,13.59,130.00,23.00,0.00,29.96,50.00,32.00,None,None,None,None,M,M,M,M,None,
EDW,2009-05-29 20:28:00+00,87.80,33.80,14.61,180.00,25.00,0.00,29.97,50.00,32.00,None,None,None,None,M,M,M,M,None,
EDW,2009-05-29 20:30:00+00,86.00,35.60,16.63,200.00,19.00,0.00,29.97,50.00,32.00,None,None,None,None,M,M,M,M,None,
EDW,2009-05-29 20:55:00+00,84.56,36.86,18.30,200.00,23.00,0.00,29.97,50.00,30.00,None,None,None,None,M,M,M,M,None,
EDW,2009-05-29 21:23:00+00,86.00,35.60,16.63,220.00,16.00,0.00,29.99,50.00,25.00,None,None,None,None,M,M,M,M,None,
EDW,2009-05-29 21:34:00+00,86.00,37.40,17.85,240.00,15.00,0.00,30.00,50.00,22.00,None,None,None,None,M,M,M,M,None,
EDW,2009-05-29 21:55:00+00,83.30,40.28,21.79,270.00,10.00,0.00,30.01,50.00,M,None,None,None,None,M,M,M,M,None,
EDW,2009-05-29 22:55:00+00,84.20,37.22,18.78,M,4.00,0.00,30.00,50.00,M,None,None,None,None,M,M,M,M,None,
EDW,2009-05-29 23:55:00+00,83.12,37.40,19.58,30.00,5.00,0.00,29.98,50.00,M,None,None,None,None,M,M,M,M,None,
EDW,2009-05-30 00:55:00+00,82.94,39.02,20.99,320.00,7.00,0.00,29.99,50.00,M,None,None,None,None,M,M,M,M,None,
EDW,2009-05-30 01:55:00+00,82.40,38.12,20.62,20.00,9.00,0.00,29.97,85.00,M,None,None,None,None,M,M,M,M,None,
EDW,2009-05-30 02:55:00+00,80.24,37.58,21.66,60.00,6.00,0.00,29.96,85.00,M,None,None,None,None,M,M,M,M,None,
EDW,2009-05-30 03:55:00+00,78.44,37.76,23.14,300.00,6.00,0.00,29.96,30.00,M,None,None,None,None,M,M,M,M,None,
EDW,2009-05-30 04:55:00+00,74.84,39.20,27.59,240.00,6.00,0.00,29.98,30.00,M,None,None,None,None,M,M,M,M,None,
EDW,2009-05-30 05:55:00+00,73.04,39.38,29.52,250.00,6.00,0.00,29.97,30.00,M,None,None,None,None,M,M,M,M,None,
EDW,2009-05-30 06:55:00+00,65.84,35.42,32.31,160.00,4.00,0.00,29.97,30.00,M,None,None,None,None,M,M,M,M,None,
EDW,2009-05-30 07:55:00+00,65.66,46.76,50.43,220.00,5.00,0.00,29.96,30.00,M,None,None,None,None,M,M,M,M,None,
EDW,2009-05-30 08:55:00+00,63.14,48.02,57.75,210.00,4.00,0.00,29.97,30.00,M,None,None,None,None,M,M,M,M,None,
EDW,2009-05-30 09:55:00+00,60.80,46.58,59.42,210.00,6.00,0.00,29.97,30.00,M,None,None,None,None,M,M,M,M,None,
EDW,2009-05-30 10:55:00+00,59.18,44.78,58.79,220.00,5.00,0.00,29.96,30.00,M,None,None,None,None,M,M,M,M,None,
EDW,2009-05-30 11:55:00+00,57.02,45.14,64.41,210.00,6.00,0.00,29.96,30.00,M,None,None,None,None,M,M,M,M,None,
EDW,2009-05-30 12:55:00+00,57.74,46.22,65.38,240.00,4.00,0.00,29.97,85.00,M,None,None,None,None,M,M,M,M,None,
EDW,2009-05-30 13:55:00+00,59.72,41.72,51.29,220.00,5.00,0.00,29.97,85.00,M,None,None,None,None,M,M,M,M,None,
EDW,2009-05-30 14:55:00+00,61.70,43.16,50.53,160.00,3.00,0.00,29.98,85.00,M,None,None,None,None,M,M,M,M,None,
EDW,2009-05-30 15:55:00+00,67.82,43.16,40.81,0.00,0.00,0.00,29.98,85.00,M,None,None,None,None,M,M,M,M,None,
EDW,2009-05-30 17:55:00+00,80.60,41.18,24.63,M,5.00,0.00,29.97,80.00,M,None,None,None,None,M,M,M,M,None,
EDW,2009-05-30 18:55:00+00,85.28,40.64,20.73,70.00,6.00,0.00,29.95,80.00,M,None,None,None,None,M,M,M,M,None,
EDW,2009-05-30 19:55:00+00,87.08,39.56,18.77,90.00,6.00,0.00,29.93,70.00,M,None,None,None,None,M,M,M,M,None,
EDW,2009-05-30 20:55:00+00,88.34,37.22,16.45,0.00,0.00,0.00,29.90,60.00,M,None,None,None,None,M,M,M,M,None,
EDW,2009-05-30 21:55:00+00,89.60,36.86,15.59,330.00,6.00,0.00,29.88,40.00,M,None,None,None,None,M,M,M,M,None,
EDW,2009-05-30 22:55:00+00,89.24,36.50,15.54,0.00,0.00,0.00,29.87,50.00,M,None,None,None,None,M,M,M,M,None,
EDW,2009-05-30 23:55:00+00,88.52,37.58,16.59,10.00,6.00,0.00,29.88,40.00,M,None,None,None,None,M,M,M,M,None,
EDW,2010-05-01 00:55:00+00,62.42,27.32,26.25,270.00,20.00,0.00,29.83,90.00,M,FEW,   ,   ,None,3000.00,M,M,M,KEDW 010055Z 27020KT 90SM FEW030 17/M03 A2983 RMK AO2A PK WND 27026/0035 SLP098 T01691026,
EDW,2010-05-01 01:55:00+00,58.10,30.38,34.69,280.00,21.00,0.00,29.83,85.00,28.00,FEW,   ,   ,None,3000.00,M,M,M,KEDW 010155Z 28021G28KT 85SM FEW030 15/M01 A2983 RMK AO2A PK WND 28029/0115 SLP102 T01451009,
EDW,2010-05-01 02:55:00+00,54.50,32.36,42.81,250.00,18.00,0.00,29.85,50.00,23.00,FEW,   ,   ,None,3000.00,M,M,M,KEDW 010255Z 25018G23KT 50SM FEW030 13/00 A2985 RMK AO2A PK WND 29029/0208 SLP107 T01250002 53003,
EDW,2010-05-01 03:55:00+00,53.42,31.64,43.26,260.00,16.00,0.00,29.87,45.00,M,CLR,   ,   ,None,M,M,M,M,KEDW 010355Z 26016KT 45SM CLR 12/M00 A2987 RMK AO2A SLP113 T01191002,
EDW,2010-05-01 04:55:00+00,51.62,31.10,45.23,220.00,9.00,0.00,29.88,40.00,M,CLR,   ,   ,None,M,M,M,M,KEDW 010455Z 22009KT 40SM CLR 11/M01 A2988 RMK AO2A SLP117 T01091005,
EDW,2010-05-01 05:55:00+00,50.54,31.46,47.76,220.00,12.00,0.00,29.89,10.00,M,CLR,   ,   ,None,M,M,M,M,KEDW 010555Z AUTO 22012KT 10SM CLR 10/M00 A2989 RMK AO2 SLP115 T01031003 10182 20103 51013,
EDW,2010-05-01 06:55:00+00,49.82,31.64,49.42,210.00,9.00,0.00,29.89,10.00,M,CLR,   ,   ,None,M,M,M,M,KEDW 010655Z AUTO 21009KT 10SM CLR 10/M00 A2989 RMK AO2 SLP114 T00991002,
EDW,2010-05-01 07:55:00+00,48.74,33.08,54.52,210.00,7.00,0.00,29.91,10.00,M,FEW,   ,   ,None,11000.00,M,M,M,KEDW 010755Z AUTO 21007KT 10SM FEW110 09/01 A2991 RMK AO2 SLP116 T00930006 401910047,
EDW,2010-05-01 08:55:00+00,47.30,34.16,60.09,200.00,6.00,0.00,29.91,10.00,M,CLR,   ,   ,None,M,M,M,M,KEDW 010855Z AUTO 20006KT 10SM CLR 09/01 A2991 RMK AO2 SLP116 T00850012 51006,
EDW,2010-05-01 09:55:00+00,44.06,32.36,63.21,190.00,7.00,0.00,29.91,10.00,M,CLR,   ,   ,None,M,M,M,M,KEDW 010955Z AUTO 19007KT 10SM CLR 07/00 A2991 RMK AO2 SLP123 T00670002,
EDW,2010-05-01 10:55:00+00,42.80,32.36,66.34,270.00,4.00,0.00,29.91,10.00,M,CLR,   ,   ,None,M,M,M,M,KEDW 011055Z AUTO 27004KT 10SM CLR 06/00 A2991 RMK AO2 SLP124 T00600002,
EDW,2010-05-01 11:55:00+00,43.34,33.62,68.35,210.00,7.00,0.00,29.92,10.00,M,CLR,   ,   ,None,M,M,M,M,KEDW 011155Z AUTO 21007KT 10SM CLR 06/01 A2992 RMK AO2 SLP126 T00630009 10105 20058 53005,
EDW,2010-05-01 12:55:00+00,41.54,33.26,72.20,180.00,8.00,0.00,29.93,10.00,M,CLR,   ,   ,None,M,M,M,M,KEDW 011255Z 18008KT 10SM CLR 05/01 A2993 RMK AO2A SLP133 T00530007,
EDW,2010-05-01 12:59:00+00,41.54,33.26,72.20,180.00,8.00,0.00,29.93,90.00,M,FEW,   ,   ,None,6000.00,M,M,M,KEDW 011259Z 18008KT 90SM FEW060 05/01 A2993 RMK AO2A SLP133 T00530007,
EDW,2010-05-01 13:55:00+00,46.04,34.88,64.85,220.00,7.00,0.00,29.95,90.00,M,FEW,   ,   ,None,6000.00,M,M,M,KEDW 011355Z 22007KT 90SM FEW060 08/02 A2995 RMK AO2A SLP140 T00780016,
EDW,2010-05-01 14:55:00+00,51.44,35.42,54.14,210.00,7.00,0.00,29.97,90.00,M,FEW,   ,   ,None,6000.00,M,M,M,KEDW 011455Z 21007KT 90SM FEW060 11/02 A2997 RMK AO2A SLP142 T01080019 53014,
EDW,2010-05-01 15:55:00+00,56.48,33.26,41.31,240.00,4.00,0.00,29.97,90.00,M,CLR,   ,   ,None,M,M,M,M,KEDW 011555Z 24004KT 90SM CLR 14/01 A2997 RMK AO2A SLP140 T01360007,
EDW,2010-05-01 16:55:00+00,59.72,31.46,34.20,240.00,5.00,0.00,29.97,90.00,M,CLR,   ,   ,None,M,M,M,M,KEDW 011655Z 24005KT 90SM CLR 15/M00 A2997 RMK AO2A SLP140 T01541003,
EDW,2010-05-01 17:55:00+00,63.32,26.60,24.69,M,3.00,0.00,29.95,90.00,M,FEW,FEW,   ,None,5000.00,25000.00,M,M,KEDW 011755Z VRB03KT 90SM FEW050 FEW250 17/M03 A2995 RMK AO2A SLP132 T01741030 10175 20049 58004,
EDW,2010-05-01 18:55:00+00,65.12,24.62,21.35,0.00,0.00,0.00,29.93,90.00,M,FEW,   ,   ,None,22000.00,M,M,M,KEDW 011855Z 00000KT 90SM FEW220 18/M04 A2993 RMK AO2A SLP124 T01841041,
EDW,2010-05-01 19:55:00+00,69.26,27.50,20.85,260.00,5.00,0.00,29.90,90.00,M,FEW,FEW,   ,None,5000.00,21000.00,M,M,KEDW 011955Z 26005KT 90SM FEW050 FEW210 21/M03 A2990 RMK AO2A SLP109 T02071025,
EDW,2010-05-01 21:28:00+00,71.60,30.20,21.50,280.00,18.00,0.00,29.83,90.00,26.00,FEW,SCT,   ,None,5000.00,21000.00,M,M,KEDW 012128Z 28018G26KT 90SM FEW050 SCT210 22/M01 A2983 RMK AO2A WSHFT 2113,
EDW,2010-05-01 21:55:00+00,71.06,31.28,22.88,270.00,20.00,0.00,29.82,90.00,24.00,FEW,FEW,   ,None,5000.00,21000.00,M,M,KEDW 012155Z 27020G24KT 90SM FEW050 FEW210 22/M00 A2982 RMK AO2A PK WND 27026/2132 WSHFT 2113 SLP086 T02171004,
EDW,2010-05-01 22:55:00+00,70.52,30.74,22.80,250.00,21.00,0.00,29.81,90.00,31.00,FEW,FEW,   ,None,5000.00,21000.00,M,M,KEDW 012255Z 25021G31KT 90SM FEW050 FEW210 21/M01 A2981 RMK AO2A SLP083 T02141007,
EDW,2010-05-01 23:55:00+00,69.80,31.64,24.23,270.00,25.00,0.00,29.79,90.00,34.00,FEW,SCT,   ,None,5000.00,21000.00,M,M,KEDW 012355Z 27025G34KT 90SM FEW050 SCT210 21/M00 A2979 RMK AO2A SLP075 T02101002 10226 20174 56022,
EDW,2010-05-02 00:55:00+00,67.64,32.00,26.48,260.00,22.00,0.00,29.78,90.00,32.00,FEW,FEW,   ,None,5000.00,21000.00,M,M,KEDW 020055Z 26022G32KT 90SM FEW050 FEW210 20/00 A2978 RMK AO2A SLP076 T01980000,
EDW,2010-05-02 01:55:00+00,65.48,32.72,29.38,250.00,22.00,0.00,29.77,80.00,33.00,BKN,   ,   ,None,35000.00,M,M,M,KEDW 020155Z 25022G33KT 80SM BKN350 19/00 A2977 RMK AO2A SLP072 T01860004,
EDW,2010-05-02 02:55:00+00,63.14,32.36,31.42,250.00,25.00,0.00,29.76,50.00,33.00,BKN,   ,   ,None,35000.00,M,M,M,KEDW 020255Z 25025G33KT 50SM BKN350 17/00 A2976 RMK AO2A PK WND 25034/0227 SLP064 T01730002 58009,
EDW,2010-05-02 03:55:00+00,62.60,33.98,34.18,250.00,21.00,0.00,29.78,30.00,M,BKN,   ,   ,None,35000.00,M,M,M,KEDW 020355Z 25021KT 30SM BKN350 17/01 A2978 RMK AO2A PK WND 26034/0258 SLP069 T01700011,
EDW,2010-05-02 04:55:00+00,60.98,34.16,36.45,220.00,10.00,0.00,29.78,30.00,M,BKN,   ,   ,None,35000.00,M,M,M,KEDW 020455Z 22010KT 30SM BKN350 16/01 A2978 RMK AO2A PK WND 25029/0407 SLP066 T01610012,
EDW,2010-05-02 05:55:00+00,60.62,33.08,35.36,240.00,16.00,0.00,29.78,10.00,26.00,CLR,   ,   ,None,M,M,M,M,KEDW 020555Z AUTO 24016G26KT 10SM CLR 16/01 A2978 RMK AO2 PK WND 25026/0551 SLP062 T01590006 10208 20154 50006,
EDW,2010-05-02 06:55:00+00,60.80,35.42,38.57,250.00,25.00,0.00,29.78,10.00,30.00,CLR,   ,   ,None,M,M,M,M,KEDW 020655Z AUTO 25025G30KT 10SM CLR 16/02 A2978 RMK AO2 PK WND 24032/0626 SLP062 T01600019,
EDW,2010-05-02 07:55:00+00,60.62,36.32,40.23,250.00,18.00,0.00,29.80,10.00,M,CLR,   ,   ,None,M,M,M,M,KEDW 020755Z AUTO 25018KT 10SM CLR 16/02 A2980 RMK AO2 PK WND 25030/0702 SLP067 T01590024 402260049,
EDW,2010-05-02 08:55:00+00,59.18,38.84,46.75,250.00,17.00,0.00,29.80,10.00,M,CLR,   ,   ,None,M,M,M,M,KEDW 020855Z AUTO 25017KT 10SM CLR 15/04 A2980 RMK AO2 PK WND 26028/0804 SLP064 T01510038 53007,
EDW,2010-05-02 09:55:00+00,58.10,39.20,49.29,260.00,16.00,0.00,29.79,10.00,M,CLR,   ,   ,None,M,M,M,M,KEDW 020955Z AUTO 26016KT 10SM CLR 15/04 A2979 RMK AO2 SLP064 T01450040,
EDW,2010-05-02 10:55:00+00,57.74,39.38,50.28,250.00,12.00,0.00,29.81,10.00,M,CLR,   ,   ,None,M,M,M,M,KEDW 021055Z AUTO 25012KT 10SM CLR 14/04 A2981 RMK AO2 SLP070 T01430041,
EDW,2010-05-02 11:55:00+00,55.22,39.74,55.86,200.00,6.00,0.00,29.83,10.00,M,CLR,   ,   ,None,M,M,M,M,KEDW 021155Z 20006KT 10SM CLR 13/04 A2983 RMK AO2A SLP081 T01290043 10162 20129 53010,
EDW,2010-05-02 12:55:00+00,54.86,40.10,57.39,270.00,4.00,0.00,29.85,50.00,M,FEW,SCT,   ,None,6000.00,27000.00,M,M,KEDW 021255Z 27004KT 50SM FEW060 SCT270 13/04 A2985 RMK AO2A SLP091 T01270045,
EDW,2010-05-02 13:55:00+00,57.38,40.82,53.87,280.00,7.00,0.00,29.88,60.00,M,FEW,SCT,   ,None,6000.00,27000.00,M,M,KEDW 021355Z 28007KT 60SM FEW060 SCT270 14/05 A2988 RMK AO2A SLP099 T01410049,
EDW,2010-05-02 14:55:00+00,61.88,40.82,45.88,310.00,6.00,0.00,29.91,70.00,M,FEW,FEW,   ,None,6000.00,27000.00,M,M,KEDW 021455Z 31006KT 70SM FEW060 FEW270 17/05 A2991 RMK AO2A SLP108 T01660049 53025,
EDW,2010-05-02 15:55:00+00,62.60,40.10,43.50,60.00,5.00,0.00,29.94,60.00,M,FEW,   ,   ,None,6000.00,M,M,M,KEDW 021555Z 06005KT 60SM FEW060 17/04 A2994 RMK AO2A SLP120 T01700045,
EDW,2010-05-02 17:55:00+00,71.60,18.68,13.29,50.00,7.00,0.00,29.95,60.00,M,CLR,   ,   ,None,M,M,M,M,KEDW 021755Z 05007KT 60SM CLR 22/M07 A2995 RMK AO2A SLP116 T02201074 10220 20117 50013,
EDW,2010-05-02 18:55:00+00,71.96,18.86,13.23,10.00,4.00,0.00,29.95,60.00,M,FEW,SCT,   ,None,6000.00,27000.00,M,M,KEDW 021855Z 01004KT 60SM FEW060 SCT270 22/M07 A2995 RMK AO2A SLP116 T02221073,
EDW,2010-05-02 19:55:00+00,75.02,15.26,10.22,20.00,12.00,0.00,29.95,60.00,15.00,FEW,SCT,   ,None,6000.00,27000.00,M,M,KEDW 021955Z 02012G15KT 60SM FEW060 SCT270 24/M09 A2995 RMK AO2A SLP112 T02391093,
EDW,2010-05-02 20:55:00+00,74.66,17.24,11.27,310.00,5.00,0.00,29.94,60.00,M,FEW,FEW,   ,None,6000.00,30000.00,M,M,KEDW 022055Z 31005KT 60SM FEW060 FEW300 24/M08 A2994 RMK AO2A SLP114 T02371082 58002,
EDW,2010-05-02 21:55:00+00,77.18,17.06,10.28,20.00,7.00,0.00,29.94,60.00,M,FEW,FEW,   ,None,6000.00,35000.00,M,M,KEDW 022155Z 02007KT 60SM FEW060 FEW350 25/M08 A2994 RMK AO2A SLP109 T02511083,
EDW,2010-05-02 22:55:00+00,77.18,16.52,10.04,0.00,0.00,0.00,29.93,60.00,M,FEW,   ,   ,None,35000.00,M,M,M,KEDW 022255Z 00000KT 60SM FEW350 25/M09 A2993 RMK AO2A SLP107 T02511086,
EDW,2010-05-02 23:55:00+00,77.90,16.52,9.81,M,3.00,0.00,29.93,60.00,M,FEW,FEW,   ,None,6000.00,35000.00,M,M,KEDW 022355Z VRB03KT 60SM FEW060 FEW350 25/M09 A2993 RMK AO2A SLP109 T02551086 10260 20216 56005,
EDW,2010-05-03 00:55:00+00,77.90,23.00,12.93,240.00,8.00,0.00,29.94,50.00,M,FEW,   ,   ,None,35000.00,M,M,M,KEDW 030055Z 24008KT 50SM FEW350 26/M05 A2994 RMK AO2A SLP111 T02551050,
EDW,2010-05-03 01:55:00+00,74.66,41.54,30.40,270.00,11.00,0.00,29.95,50.00,M,SCT,   ,   ,None,35000.00,M,M,M,KEDW 030155Z 27011KT 50SM SCT350 24/05 A2995 RMK AO2A SLP114 T02370053,
EDW,2010-05-03 02:55:00+00,69.08,38.84,33.06,270.00,12.00,0.00,29.97,50.00,M,SCT,   ,   ,None,35000.00,M,M,M,KEDW 030255Z 27012KT 50SM SCT350 21/04 A2997 RMK AO2A SLP124 T02060038 53014,
EDW,2010-05-03 03:55:00+00,65.66,34.16,30.93,220.00,6.00,0.00,30.01,30.00,M,SCT,   ,   ,None,35000.00,M,M,M,KEDW 030355Z 22006KT 30SM SCT350 19/01 A3001 RMK AO2A SLP140 T01870012,
EDW,2010-05-03 04:55:00+00,61.34,30.74,31.36,210.00,6.00,0.00,30.05,30.00,M,SCT,   ,   ,None,35000.00,M,M,M,KEDW 030455Z 21006KT 30SM SCT350 16/M01 A3005 RMK AO2A SLP154 T01631007,
EDW,2010-05-03 05:55:00+00,55.94,29.66,36.42,180.00,5.00,0.00,30.07,10.00,M,CLR,   ,   ,None,M,M,M,M,KEDW 030555Z AUTO 18005KT 10SM CLR 13/M01 A3007 RMK AO2 SLP161 T01331013 10258 20133 51032,
EDW,2010-05-03 06:55:00+00,55.40,29.48,36.87,210.00,4.00,0.00,30.09,10.00,M,CLR,   ,   ,None,M,M,M,M,KEDW 030655Z AUTO 21004KT 10SM CLR 13/M01 A3009 RMK AO2 SLP166 T01301014,
EDW,2010-05-03 07:55:00+00,51.62,29.48,42.35,180.00,3.00,0.00,30.10,10.00,M,CLR,   ,   ,None,M,M,M,M,KEDW 030755Z AUTO 18003KT 10SM CLR 11/M01 A3010 RMK AO2 SLP172 T01091014 402600104,
EDW,2010-05-03 08:55:00+00,48.38,29.12,47.07,160.00,4.00,0.00,30.11,10.00,M,CLR,   ,   ,None,M,M,M,M,KEDW 030855Z AUTO 16004KT 10SM CLR 09/M02 A3011 RMK AO2 SLP179 T00911016 51010,
EDW,2010-05-03 09:55:00+00,47.84,31.10,52.07,230.00,3.00,0.00,30.11,10.00,M,CLR,   ,   ,None,M,M,M,M,KEDW 030955Z AUTO 23003KT 10SM CLR 09/M00 A3011 RMK AO2 SLP176 T00881005,
EDW,2010-05-03 10:55:00+00,45.68,27.68,49.13,50.00,4.00,0.00,30.12,10.00,M,CLR,   ,   ,None,M,M,M,M,KEDW 031055Z 05004KT 10SM CLR 08/M02 A3012 RMK AO2A SLP181 T00761024,
EDW,2010-05-03 11:55:00+00,45.68,28.76,51.36,270.00,3.00,0.00,30.14,10.00,M,CLR,   ,   ,None,M,M,M,M,KEDW 031155Z 27003KT 10SM CLR 08/M02 A3014 RMK AO2A SLP186 T00761018 10135 20067 53010,
EDW,2010-05-03 12:55:00+00,44.78,28.40,52.36,50.00,4.00,0.00,30.16,50.00,M,CLR,   ,   ,None,M,M,M,M,KEDW 031255Z 05004KT 50SM CLR 07/M02 A3016 RMK AO2A SLP196 T00711020,
EDW,2010-05-03 13:55:00+00,45.14,27.68,50.15,0.00,0.00,0.00,30.18,85.00,M,CLR,   ,   ,None,M,M,M,M,KEDW 031355Z 00000KT 85SM CLR 07/M02 A3018 RMK AO2A SLP207 T00731024,
EDW,2010-05-03 14:55:00+00,51.80,30.74,44.28,0.00,0.00,0.00,30.21,85.00,M,CLR,   ,   ,None,M,M,M,M,KEDW 031455Z 00000KT 85SM CLR 11/M01 A3021 RMK AO2A SLP212 T01101007 52021,
EDW,2010-05-03 15:55:00+00,58.82,33.98,39.08,250.00,3.00,0.00,30.21,85.00,M,CLR,   ,   ,None,M,M,M,M,KEDW 031555Z 25003KT 85SM CLR 15/01 A3021 RMK AO2A SLP212 T01490011,
EDW,2010-05-03 16:55:00+00,64.58,33.08,30.75,0.00,0.00,0.00,30.21,85.00,M,CLR,   ,   ,None,M,M,M,M,KEDW 031655Z 00000KT 85SM CLR 18/01 A3021 RMK AO2A SLP211 T01810006,
EDW,2010-05-03 17:55:00+00,70.52,33.44,25.42,0.00,0.00,0.00,30.21,85.00,M,CLR,   ,   ,None,M,M,M,M,KEDW 031755Z 00000KT 85SM CLR 21/01 A3021 RMK AO2A SLP211 T02140008 10214 20058 51002,
EDW,2010-05-03 18:55:00+00,75.02,28.40,17.81,130.00,5.00,0.00,30.20,85.00,M,CLR,   ,   ,None,M,M,M,M,KEDW 031855Z 13005KT 85SM CLR 24/M02 A3020 RMK AO2A SLP205 T02391020,
EDW,2010-05-03 19:55:00+00,79.34,29.12,15.89,200.00,8.00,0.00,30.18,85.00,17.00,CLR,   ,   ,None,M,M,M,M,KEDW 031955Z 20008G17KT 160V230 85SM CLR 26/M02 A3018 RMK AO2A SLP197 T02631016,
EDW,2010-05-03 20:55:00+00,82.40,24.62,11.94,240.00,15.00,0.00,30.16,85.00,21.00,CLR,   ,   ,None,M,M,M,M,KEDW 032055Z 24015G21KT 85SM CLR 28/M04 A3016 RMK AO2A SLP192 T02801041 58015,
EDW,2010-05-03 21:58:00+00,82.40,32.18,16.28,220.00,20.00,0.00,30.14,75.00,26.00,CLR,   ,   ,None,M,M,M,M,KEDW 032158Z 22020G26KT 75SM CLR 28/00 A3014 RMK AO2A SLP185 T02800001,
EDW,2010-05-03 22:55:00+00,81.14,36.14,19.87,220.00,18.00,0.00,30.13,60.00,27.00,CLR,   ,   ,None,M,M,M,M,KEDW 032255Z 22018G27KT 60SM CLR 27/02 A3013 RMK AO2A SLP183 T02730023,
EDW,2010-05-03 23:55:00+00,79.70,40.46,24.67,220.00,20.00,0.00,30.11,50.00,27.00,CLR,   ,   ,None,M,M,M,M,KEDW 032355Z 22020G27KT 50SM CLR 27/05 A3011 RMK AO2A SLP177 T02650047 10281 20218 56015,
EDW,2010-05-04 00:55:00+00,78.26,39.38,24.80,220.00,17.00,0.00,30.11,50.00,27.00,CLR,   ,   ,None,M,M,M,M,KEDW 040055Z 22017G27KT 50SM CLR 26/04 A3011 RMK AO2A PK WND 21030/0029 SLP181 T02570041,
EDW,2010-05-04 01:55:00+00,75.20,37.58,25.58,220.00,20.00,0.00,30.12,50.00,27.00,CLR,   ,   ,None,M,M,M,M,KEDW 040155Z 22020G27KT 50SM CLR 24/03 A3012 RMK AO2A SLP181 T02400031,
EDW,2010-05-04 02:55:00+00,70.34,35.24,27.48,230.00,13.00,0.00,30.12,50.00,20.00,CLR,   ,   ,None,M,M,M,M,KEDW 040255Z 23013G20KT 50SM CLR 21/02 A3012 RMK AO2A PK WND 22026/0204 SLP183 T02130018 53001,
EDW,2010-05-04 03:55:00+00,67.28,34.34,29.45,220.00,12.00,0.00,30.14,30.00,M,CLR,   ,   ,None,M,M,M,M,KEDW 040355Z 22012KT 30SM CLR 20/01 A3014 RMK AO2A SLP186 T01960013,
EDW,2010-05-04 04:55:00+00,63.86,35.24,34.38,200.00,8.00,0.00,30.15,30.00,M,CLR,   ,   ,None,M,M,M,M,KEDW 040455Z 20008KT 30SM CLR 18/02 A3015 RMK AO2A SLP186 T01770018,
EDW,2010-05-04 05:55:00+00,60.98,36.86,40.57,210.00,12.00,0.00,30.13,10.00,M,CLR,   ,   ,None,M,M,M,M,KEDW 040555Z AUTO 21012KT 10SM CLR 16/03 A3013 RMK AO2 SLP179 T01610027 10265 20161 50004,
EDW,2010-05-04 06:55:00+00,59.90,37.04,42.46,220.00,11.00,0.00,30.13,10.00,M,CLR,   ,   ,None,M,M,M,M,KEDW 040655Z AUTO 22011KT 10SM CLR 15/03 A3013 RMK AO2 SLP174 T01550028,
EDW,2010-05-04 07:55:00+00,57.20,37.94,48.46,220.00,13.00,0.00,30.12,10.00,M,CLR,   ,   ,None,M,M,M,M,KEDW 040755Z AUTO 22013KT 10SM CLR 14/03 A3012 RMK AO2 SLP170 T01400033 402810058,
EDW,2010-05-04 08:55:00+00,59.00,38.66,46.73,220.00,9.00,0.00,30.10,10.00,M,CLR,   ,   ,None,M,M,M,M,KEDW 040855Z AUTO 22009KT 10SM CLR 15/04 A3010 RMK AO2 SLP160 T01500037 58010,
EDW,2010-05-04 09:55:00+00,59.00,39.20,47.72,180.00,9.00,0.00,30.08,10.00,M,CLR,   ,   ,None,M,M,M,M,KEDW 040955Z AUTO 18009KT 10SM CLR 15/04 A3008 RMK AO2 SLP153 T01500040,
EDW,2010-05-04 10:55:00+00,58.28,39.74,50.01,190.00,11.00,0.00,30.07,10.00,M,CLR,   ,   ,None,M,M,M,M,KEDW 041055Z AUTO 19011KT 10SM CLR 15/04 A3007 RMK AO2 SLP151 T01460043,
EDW,2010-05-04 11:55:00+00,58.28,40.10,50.72,210.00,11.00,0.00,30.06,10.00,M,CLR,   ,   ,None,M,M,M,M,KEDW 041155Z AUTO 21011KT 10SM CLR 15/04 A3006 RMK AO2 SLP148 T01460045 10161 20140 56014,
EDW,2010-05-04 12:55:00+00,57.38,40.10,52.38,210.00,12.00,0.00,30.05,90.00,M,FEW,   ,   ,None,25000.00,M,M,M,KEDW 041255Z 21012KT 90SM FEW250 14/05 A3005 RMK AO2A SLP147 T01410045,
EDW,2010-05-04 13:55:00+00,59.36,40.82,50.18,210.00,11.00,0.00,30.05,90.00,M,CLR,   ,   ,None,M,M,M,M,KEDW 041355Z 21011KT 90SM CLR 15/05 A3005 RMK AO2A SLP148 T01520049,
EDW,2010-05-04 14:55:00+00,64.94,41.72,42.67,210.00,11.00,0.00,30.06,90.00,M,CLR,   ,   ,None,M,M,M,M,KEDW 041455Z 21011KT 90SM CLR 18/05 A3006 RMK AO2A SLP152 T01830054 53001,
EDW,2010-05-04 15:55:00+00,73.04,41.36,31.87,230.00,17.00,0.00,30.04,90.00,M,CLR,   ,   ,None,M,M,M,M,KEDW 041555Z 23017KT 90SM CLR 23/05 A3004 RMK AO2A SLP140 T02280052,
EDW,2010-05-04 16:55:00+00,77.54,38.48,24.52,240.00,13.00,0.00,30.03,90.00,M,CLR,   ,   ,None,M,M,M,M,KEDW 041655Z 24013KT 90SM CLR 25/04 A3003 RMK AO2A SLP138 RADAT 20141 T02530036,
EDW,2010-05-04 17:55:00+00,79.34,38.12,22.78,270.00,13.00,0.00,30.02,90.00,18.00,CLR,   ,   ,None,M,M,M,M,KEDW 041755Z 27013G18KT 90SM CLR 26/03 A3002 RMK AO2A SLP135 T02630034 10263 20138 56013,
EDW,2010-05-04 18:55:00+00,82.04,39.02,21.61,250.00,16.00,0.00,30.00,90.00,20.00,CLR,   ,   ,None,M,M,M,M,KEDW 041855Z 25016G20KT 90SM CLR 28/04 A3000 RMK AO2A SLP126 T02780039,
EDW,2010-05-04 19:55:00+00,83.66,37.22,19.11,250.00,14.00,0.00,29.98,90.00,24.00,CLR,   ,   ,None,M,M,M,M,KEDW 041955Z 25014G24KT 90SM CLR 29/03 A2998 RMK AO2A SLP122 T02870029,
EDW,2010-05-04 20:55:00+00,82.58,39.56,21.69,270.00,16.00,0.00,29.97,90.00,M,CLR,   ,   ,None,M,M,M,M,KEDW 042055Z 27016KT 90SM CLR 28/04 A2997 RMK AO2A PK WND 27026/2034 SLP115 T02810042 56015,
EDW,2010-05-04 21:55:00+00,82.58,36.32,19.10,280.00,18.00,0.00,29.95,90.00,25.00,CLR,   ,   ,None,M,M,M,M,KEDW 042155Z 28018G25KT 90SM CLR 28/02 A2995 RMK AO2A SLP108 T02810024,
EDW,2010-05-04 22:55:00+00,82.40,35.42,18.53,270.00,23.00,0.00,29.92,85.00,M,FEW,   ,   ,None,25000.00,M,M,M,KEDW 042255Z COR 27023KT 85SM FEW250 28/02 A2992 RMK AO2A PK WND 28026/2253 SLP102 T02800019,
EDW,2010-05-04 22:55:00+00,82.40,35.42,18.53,270.00,23.00,0.00,29.92,10.00,M,CLR,   ,   ,None,M,M,M,M,KEDW 042255Z 27023KT 10SM CLR 28/02 A2992 RMK AO2A PK WND 28026/2253 SLP102 T02800019,
EDW,2010-05-04 22:55:00+00,82.40,35.42,18.53,270.00,23.00,0.00,29.92,85.00,M,FEW,   ,   ,None,25000.00,M,M,M,KEDW 042255Z COR 27023KT 85SM FEW250 28/02 A2992 RMK AO2A PK WND 28026/2253 SLP102 T02800019,
EDW,2010-05-04 22:55:00+00,82.40,35.42,18.53,270.00,23.00,0.00,29.92,85.00,M,FEW,   ,   ,None,25000.00,M,M,M,KEDW 042255Z COR 27023KT 85SM FEW250 28/02 A2992 RMK AO2A PK WND 28026/2253 SLP102 T02800019,
EDW,2010-05-04 23:55:00+00,80.42,39.02,22.78,270.00,22.00,0.00,29.92,70.00,28.00,FEW,   ,   ,None,25000.00,M,M,M,KEDW 042355Z 27022G28KT 70SM FEW250 27/04 A2992 RMK AO2A SLP101 T02690039 10291 20263 56016,
EDW,2010-05-05 00:55:00+00,77.18,39.20,25.52,270.00,20.00,0.00,29.91,70.00,M,FEW,   ,   ,None,25000.00,M,M,M,KEDW 050055Z 27020KT 70SM FEW250 25/04 A2991 RMK AO2A PK WND 27031/0037 SLP101 T02510040,
EDW,2010-05-05 01:55:00+00,73.76,42.62,32.66,270.00,23.00,0.00,29.90,70.00,29.00,FEW,   ,   ,None,25000.00,M,M,M,KEDW 050155Z 27023G29KT 70SM FEW250 23/06 A2990 RMK AO2A SLP099 T02320059,
EDW,2010-05-05 02:55:00+00,69.98,43.34,38.16,270.00,19.00,0.00,29.90,45.00,M,FEW,   ,   ,None,25000.00,M,M,M,KEDW 050255Z 27019KT 45SM FEW250 21/06 A2990 RMK AO2A PK WND 26030/0207 SLP096 T02110063 56007,
EDW,2010-05-05 03:55:00+00,67.64,43.34,41.35,230.00,17.00,0.00,29.92,30.00,M,CLR,   ,   ,None,M,M,M,M,KEDW 050355Z 23017KT 30SM CLR 20/06 A2992 RMK AO2A PK WND 25026/0315 SLP098 T01980063,
EDW,2010-05-05 04:55:00+00,66.02,44.96,46.52,240.00,17.00,0.00,29.93,30.00,21.00,CLR,   ,   ,None,M,M,M,M,KEDW 050455Z 24017G21KT 30SM CLR 19/07 A2993 RMK AO2A PK WND 25026/0427 SLP101 T01890072,
EDW,2010-05-05 05:55:00+00,65.30,43.16,44.53,260.00,19.00,0.00,29.93,10.00,25.00,CLR,   ,   ,None,M,M,M,M,KEDW 050555Z AUTO 26019G25KT 10SM CLR 19/06 A2993 RMK AO2 SLP100 T01850062 10267 20185 50009,
EDW,2010-05-05 06:55:00+00,63.32,41.36,44.53,210.00,10.00,0.00,29.95,10.00,18.00,CLR,   ,   ,None,M,M,M,M,KEDW 050655Z AUTO 21010G18KT 10SM CLR 17/05 A2995 RMK AO2 PK WND 24034/0618 SLP104 T01740052,
EDW,2010-05-05 07:55:00+00,64.40,38.84,38.88,230.00,18.00,0.00,29.93,10.00,30.00,CLR,   ,   ,None,M,M,M,M,KEDW 050755Z AUTO 23018G30KT 10SM CLR 18/04 A2993 RMK AO2 PK WND 25030/0749 SLP099 T01800038 402910138,
EDW,2010-05-05 08:55:00+00,61.70,38.84,42.75,220.00,17.00,0.00,29.92,10.00,28.00,CLR,   ,   ,None,M,M,M,M,KEDW 050855Z AUTO 22017G28KT 10SM CLR 16/04 A2992 RMK AO2 PK WND 24028/0849 SLP097 T01650038 58003,
EDW,2010-05-05 09:55:00+00,59.00,34.88,40.25,210.00,12.00,0.00,29.91,10.00,M,CLR,   ,   ,None,M,M,M,M,KEDW 050955Z AUTO 21012KT 10SM CLR 15/02 A2991 RMK AO2 PK WND 24028/0857 SLP094 T01500016,
EDW,2010-05-05 10:55:00+00,56.48,30.56,37.05,210.00,9.00,0.00,29.91,10.00,17.00,CLR,   ,   ,None,M,M,M,M,KEDW 051055Z AUTO 21009G17KT 10SM CLR 14/M01 A2991 RMK AO2 SLP096 T01361008,
EDW,2010-05-05 11:55:00+00,56.30,26.78,31.94,210.00,12.00,0.00,29.89,10.00,M,CLR,   ,   ,None,M,M,M,M,KEDW 051155Z AUTO 21012KT 10SM CLR 14/M03 A2989 RMK AO2 SLP093 T01351029 10188 20130 58009,
EDW,2010-05-05 12:55:00+00,55.40,24.98,30.63,200.00,11.00,0.00,29.90,90.00,M,FEW,   ,   ,None,30000.00,M,M,M,KEDW 051255Z 20011KT 90SM FEW300 13/M04 A2990 RMK AO2A SLP097 T01301039,
EDW,2010-05-05 13:55:00+00,57.74,21.74,24.57,220.00,15.00,0.00,29.90,90.00,M,FEW,   ,   ,None,30000.00,M,M,M,KEDW 051355Z 22015KT 90SM FEW300 14/M06 A2990 RMK AO2A SLP099 RADAT 20138 T01431057,
EDW,2010-05-05 14:55:00+00,64.40,22.64,20.15,220.00,13.00,0.00,29.92,90.00,M,SCT,   ,   ,None,30000.00,M,M,M,KEDW 051455Z 22013KT 90SM SCT300 18/M05 A2992 RMK AO2A SLP102 T01801052 53009,
EDW,2010-05-05 15:55:00+00,68.00,21.74,17.12,230.00,13.00,0.00,29.91,90.00,19.00,FEW,   ,   ,None,30000.00,M,M,M,KEDW 051555Z 23013G19KT 90SM FEW300 20/M06 A2991 RMK AO2A SLP099 T02001057,
EDW,2010-05-05 16:55:00+00,71.96,19.22,13.44,250.00,21.00,0.00,29.91,90.00,26.00,FEW,SCT,   ,None,27000.00,30000.00,M,M,KEDW 051655Z 25021G26KT 90SM FEW270 SCT300 22/M07 A2991 RMK AO2A SLP097 RADAT 20133 T02221071,
EDW,2010-05-05 17:55:00+00,75.02,17.96,11.49,270.00,15.00,0.00,29.90,90.00,21.00,FEW,SCT,   ,None,27000.00,30000.00,M,M,KEDW 051755Z 27015G21KT 90SM FEW270 SCT300 24/M08 A2990 RMK AO2A PK WND 24027/1703 SLP094 T02391078 10239 20122 56005,
EDW,2010-05-05 18:55:00+00,77.72,24.26,13.71,260.00,22.00,0.00,29.89,90.00,28.00,FEW,FEW,   ,None,27000.00,30000.00,M,M,KEDW 051855Z 26022G28KT 90SM FEW270 FEW300 25/M04 A2989 RMK AO2A SLP090 T02541043,
EDW,2010-05-05 19:55:00+00,77.54,22.64,12.89,280.00,22.00,0.00,29.88,90.00,31.00,FEW,   ,   ,None,27000.00,M,M,M,KEDW 051955Z 28022G31KT 90SM FEW270 25/M05 A2988 RMK AO2A PK WND 27034/1936 SLP084 T02531052,
EDW,2010-05-05 20:55:00+00,78.98,25.70,13.97,290.00,20.00,0.00,29.88,80.00,30.00,FEW,   ,   ,None,27000.00,M,M,M,KEDW 052055Z 29020G30KT 80SM FEW270 26/M04 A2988 RMK AO2A PK WND 28032/2031 SLP085 T02611035 56009,
EDW,2010-05-05 21:55:00+00,80.06,26.96,14.20,290.00,24.00,0.00,29.86,80.00,29.00,FEW,   ,   ,None,27000.00,M,M,M,KEDW 052155Z 29024G29KT 80SM FEW270 27/M03 A2986 RMK AO2A SLP080 T02671028,
EDW,2010-05-05 22:55:00+00,76.28,30.38,18.51,290.00,22.00,0.00,29.86,80.00,31.00,FEW,   ,   ,None,27000.00,M,M,M,KEDW 052255Z 29022G31KT 80SM FEW270 25/M01 A2986 RMK AO2A PK WND 29034/2203 SLP086 T02461009,
EDW,2010-05-05 23:55:00+00,74.48,30.20,19.51,280.00,19.00,0.00,29.87,80.00,29.00,FEW,   ,   ,None,27000.00,M,M,M,KEDW 052355Z 28019G29KT 80SM FEW270 24/M01 A2987 RMK AO2A PK WND 28030/2320 SLP087 T02361010 10268 20236 55003,
EDW,2010-05-06 00:55:00+00,72.50,29.66,20.40,280.00,18.00,0.00,29.87,70.00,30.00,FEW,   ,   ,None,25000.00,M,M,M,KEDW 060055Z 28018G30KT 70SM FEW250 22/M01 A2987 RMK AO2A SLP090 T02251013,
EDW,2010-05-06 01:55:00+00,69.80,32.00,24.59,270.00,19.00,0.00,29.87,70.00,M,CLR,   ,   ,None,M,M,M,M,KEDW 060155Z 27019KT 70SM CLR 21/M00 A2987 RMK AO2A PK WND 28027/0057 SLP090 T02101000,
EDW,2010-05-06 02:55:00+00,66.38,31.82,27.46,260.00,16.00,0.00,29.88,50.00,25.00,CLR,   ,   ,None,M,M,M,M,KEDW 060255Z 26016G25KT 50SM CLR 19/M00 A2988 RMK AO2A PK WND 26029/0237 SLP092 T01911001 53005,
EDW,2010-05-06 03:55:00+00,65.12,32.54,29.53,240.00,24.00,0.00,29.87,30.00,M,CLR,   ,   ,None,M,M,M,M,KEDW 060355Z 24024KT 30SM CLR 18/00 A2987 RMK AO2A PK WND 25027/0354 PRESFR SLP090 T01840003,
EDW,2010-05-06 04:55:00+00,63.68,33.08,31.74,M,6.00,0.00,29.92,30.00,M,CLR,   ,   ,None,M,M,M,M,KEDW 060455Z VRB06KT 30SM CLR 18/01 A2992 RMK AO2A PK WND 23032/0421 SLP103 T01760006,
EDW,2010-05-06 05:38:00+00,62.60,33.80,33.93,200.00,9.00,0.00,29.91,10.00,19.00,CLR,   ,   ,None,M,M,M,M,KEDW 060538Z AUTO 20009G19KT 10SM CLR 17/01 A2991 RMK AO2 WSHFT 0523 SLP099,
EDW,2010-05-06 05:55:00+00,62.24,35.06,36.13,190.00,11.00,0.00,29.91,10.00,24.00,CLR,   ,   ,None,M,M,M,M,KEDW 060555Z AUTO 19011G24KT 10SM CLR 17/02 A2991 RMK AO2 WSHFT 0523 SLP099 T01680017 10239 20161 50008,
EDW,2010-05-06 06:37:00+00,60.80,35.60,38.85,220.00,13.00,0.00,29.92,10.00,19.00,CLR,   ,   ,None,M,M,M,M,KEDW 060637Z AUTO 22013G19KT 10SM CLR 16/02 A2992 RMK AO2 WSHFT 0622 SLP102,
EDW,2010-05-06 06:55:00+00,60.44,34.16,37.16,230.00,17.00,0.00,29.92,10.00,22.00,CLR,   ,   ,None,M,M,M,M,KEDW 060655Z AUTO 23017G22KT 10SM CLR 16/01 A2992 RMK AO2 PK WND 23026/0642 WSHFT 0622 SLP099 T01580012,
EDW,2010-05-06 07:55:00+00,59.72,30.20,32.50,250.00,20.00,0.00,29.90,10.00,30.00,CLR,   ,   ,None,M,M,M,M,KEDW 060755Z AUTO 25020G30KT 10SM CLR 15/M01 A2990 RMK AO2 PK WND 25030/0752 SLP097 T01541010 402680122,
EDW,2010-05-06 08:55:00+00,55.76,29.30,36.13,220.00,13.00,0.00,29.92,10.00,19.00,CLR,   ,   ,None,M,M,M,M,KEDW 060855Z AUTO 22013G19KT 10SM CLR 13/M02 A2992 RMK AO2 PK WND 26028/0758 SLP103 T01321015 53005,
EDW,2010-05-06 09:55:00+00,56.48,24.44,28.80,250.00,22.00,0.00,29.91,10.00,30.00,CLR,   ,   ,None,M,M,M,M,KEDW 060955Z AUTO 25022G30KT 10SM CLR 14/M04 A2991 RMK AO2 PK WND 28030/0945 SLP099 T01361042,
EDW,2010-05-06 10:55:00+00,55.58,21.38,26.16,240.00,17.00,0.00,29.91,10.00,22.00,CLR,   ,   ,None,M,M,M,M,KEDW 061055Z AUTO 24017G22KT 10SM CLR 13/M06 A2991 RMK AO2 PK WND 24030/1008 SLP101 T01311059,
EDW,2010-05-06 11:55:00+00,54.32,20.84,26.77,220.00,15.00,0.00,29.90,10.00,M,CLR,   ,   ,None,M,M,M,M,KEDW 061155Z AUTO 22015KT 10SM CLR 12/M06 A2990 RMK AO2 PK WND 24026/1143 SLP103 T01241062 10162 20124 56006,
EDW,2010-05-06 12:55:00+00,53.42,19.94,26.63,230.00,15.00,0.00,29.91,85.00,M,FEW,FEW,   ,None,18000.00,28000.00,M,M,KEDW 061255Z 23015KT 85SM FEW180 FEW280 12/M06 A2991 RMK AO2A A02A SLP108 T01191067,
EDW,2010-05-06 13:55:00+00,55.04,16.16,21.33,240.00,15.00,0.00,29.92,90.00,M,FEW,FEW,   ,None,18000.00,28000.00,M,M,KEDW 061355Z 24015KT 90SM FEW180 FEW280 13/M09 A2992 RMK AO2A SLP110 T01281088,
EDW,2010-05-06 14:55:00+00,59.72,16.34,18.16,230.00,14.00,0.00,29.93,90.00,M,FEW,   ,   ,None,28000.00,M,M,M,KEDW 061455Z 23014KT 90SM FEW280 15/M09 A2993 RMK AO2A SLP116 T01541087 53009,
EDW,2010-05-06 15:55:00+00,64.22,15.98,15.25,250.00,16.00,0.00,29.94,90.00,M,FEW,   ,   ,None,28000.00,M,M,M,KEDW 061555Z 25016KT 90SM FEW280 18/M09 A2994 RMK AO2A SLP115 RADAT 23137 T01791089,
EDW,2010-05-06 16:55:00+00,67.64,11.48,11.12,260.00,8.00,0.00,29.94,85.00,16.00,FEW,   ,   ,None,28000.00,M,M,M,KEDW 061655Z 26008G16KT 85SM FEW280 20/M11 A2994 RMK AO2A SLP114 T01981114,
EDW,2010-05-06 17:55:00+00,68.72,13.28,11.60,270.00,8.00,0.00,29.95,85.00,M,FEW,   ,   ,None,28000.00,M,M,M,KEDW 061755Z 27008KT 85SM FEW280 20/M10 A2995 RMK AO2A SLP117 T02041104 10206 20115 52007,
EDW,2010-05-06 18:55:00+00,71.96,14.18,10.80,M,4.00,0.00,29.95,90.00,M,FEW,   ,   ,None,28000.00,M,M,M,KEDW 061855Z VRB04KT 90SM FEW280 22/M10 A2995 RMK AO2A SLP116 CONTRAILS T02221099,
EDW,2010-05-06 19:55:00+00,73.58,11.84,9.23,190.00,6.00,0.00,29.93,90.00,M,FEW,   ,   ,None,28000.00,M,M,M,KEDW 061955Z 19006KT 90SM FEW280 23/M11 A2993 RMK AO2A SLP110 CONTRAILS T02311112,
EDW,2010-05-06 20:55:00+00,76.46,12.92,8.79,230.00,8.00,0.00,29.93,90.00,M,BKN,   ,   ,None,28000.00,M,M,M,KEDW 062055Z 23008KT 90SM BKN280 25/M11 A2993 RMK AO2A SLP109 CONTRAILS T02471106 56008,
EDW,2010-05-06 21:55:00+00,78.26,15.80,9.39,240.00,11.00,0.00,29.91,85.00,17.00,BKN,   ,   ,None,28000.00,M,M,M,KEDW 062155Z 24011G17KT 85SM BKN280 26/M09 A2991 RMK AO2A SLP098 T02571090,
EDW,2010-05-06 22:55:00+00,78.44,13.82,8.56,260.00,13.00,0.00,29.89,80.00,M,BKN,   ,   ,None,28000.00,M,M,M,KEDW 062255Z 26013KT 80SM BKN280 26/M10 A2989 RMK AO2A SLP094 CONTRAILS T02581101,
EDW,2010-05-06 23:55:00+00,76.46,20.66,12.29,270.00,16.00,0.00,29.88,80.00,M,SCT,   ,   ,None,28000.00,M,M,M,KEDW 062355Z 27016KT 80SM SCT280 25/M06 A2988 RMK AO2A SLP092 CONTRAILS RADAT 23147 T02471063 10262 20210 56015,
EDW,2010-05-07 00:55:00+00,72.86,22.10,14.73,260.00,17.00,0.00,29.89,85.00,M,BKN,   ,   ,None,28000.00,M,M,M,KEDW 070055Z 26017KT 85SM BKN280 23/M05 A2989 RMK AO2A SLP100 T02271055,
EDW,2010-05-07 01:55:00+00,69.08,22.82,17.27,260.00,19.00,0.00,29.90,80.00,M,SCT,   ,   ,None,28000.00,M,M,M,KEDW 070155Z 26019KT 80SM SCT280 21/M05 A2990 RMK AO2A SLP103 T02061051,
EDW,2010-05-07 02:55:00+00,64.40,23.90,21.25,270.00,15.00,0.00,29.92,70.00,M,SCT,   ,   ,None,28000.00,M,M,M,KEDW 070255Z 27015KT 70SM SCT280 18/M04 A2992 RMK AO2A SLP110 T01801045 53011,
EDW,2010-05-07 03:55:00+00,62.06,25.16,24.31,270.00,11.00,0.00,29.94,30.00,M,FEW,   ,   ,None,28000.00,M,M,M,KEDW 070355Z 27011KT 30SM FEW280 17/M04 A2994 RMK AO2A SLP118 T01671038,
EDW,2010-05-07 04:55:00+00,60.80,25.88,26.19,260.00,6.00,0.00,29.97,30.00,M,FEW,   ,   ,None,28000.00,M,M,M,KEDW 070455Z 26006KT 30SM FEW280 16/M03 A2997 RMK AO2A SLP125 T01601034,
EDW,2010-05-07 05:55:00+00,56.84,26.06,30.41,220.00,7.00,0.00,29.98,30.00,M,FEW,   ,   ,None,28000.00,M,M,M,KEDW 070555Z 22007KT 30SM FEW280 14/M03 A2998 RMK AO2A SLP132 T01381033 10244 20138 51020,
EDW,2010-05-07 06:55:00+00,53.24,24.62,32.65,220.00,7.00,0.00,29.99,10.00,M,CLR,   ,   ,None,M,M,M,M,KEDW 070655Z AUTO 22007KT 10SM CLR 12/M04 A2999 RMK AO2 SLP137 T01181041,
EDW,2010-05-07 07:55:00+00,49.82,23.54,35.41,210.00,5.00,0.00,30.00,10.00,M,CLR,   ,   ,None,M,M,M,M,KEDW 070755Z AUTO 21005KT 10SM CLR 10/M05 A3000 RMK AO2 SLP137 T00991047 402620099,
EDW,2010-05-07 08:55:00+00,48.56,24.08,37.97,0.00,0.00,0.00,29.99,10.00,M,CLR,   ,   ,None,M,M,M,M,KEDW 070855Z AUTO 00000KT 10SM CLR 09/M04 A2999 RMK AO2 SLP137 T00921044 51005,
EDW,2010-05-07 09:55:00+00,46.58,24.80,42.15,0.00,0.00,0.00,29.99,10.00,M,CLR,   ,   ,None,M,M,M,M,KEDW 070955Z AUTO 00000KT 10SM CLR 08/M04 A2999 RMK AO2 SLP136 T00811040,
EDW,2010-05-07 10:55:00+00,44.06,21.56,40.48,0.00,0.00,0.00,30.00,10.00,M,CLR,   ,   ,None,M,M,M,M,KEDW 071055Z AUTO 00000KT 10SM CLR 07/M06 A3000 RMK AO2 SLP140 T00671058,
EDW,2010-05-07 11:55:00+00,42.44,21.56,43.07,0.00,0.00,0.00,30.00,10.00,M,CLR,   ,   ,None,M,M,M,M,KEDW 071155Z AUTO 00000KT 10SM CLR 06/M06 A3000 RMK AO2 SLP145 T00581058 10138 20056 53002,
EDW,2010-05-07 12:55:00+00,42.80,20.84,41.21,0.00,0.00,0.00,30.02,80.00,M,CLR,   ,   ,None,M,M,M,M,KEDW 071255Z 00000KT 80SM CLR 06/M06 A3002 RMK AO2A SLP153 T00601062,
EDW,2010-05-07 13:55:00+00,46.40,23.36,39.96,0.00,0.00,0.00,30.04,80.00,M,CLR,   ,   ,None,M,M,M,M,KEDW 071355Z 00000KT 80SM CLR 08/M05 A3004 RMK AO2A SLP160 RADAT 31130 T00801048,
EDW,2010-05-07 14:55:00+00,49.64,24.62,37.30,0.00,0.00,0.00,30.06,80.00,M,CLR,   ,   ,None,M,M,M,M,KEDW 071455Z 00000KT 80SM CLR 10/M04 A3006 RMK AO2A SLP167 T00981041 53017,
EDW,2010-05-07 15:55:00+00,57.56,26.06,29.63,0.00,0.00,0.00,30.06,80.00,M,CLR,   ,   ,None,M,M,M,M,KEDW 071555Z 00000KT 80SM CLR 14/M03 A3006 RMK AO2A SLP165 T01421033,
EDW,2010-05-07 16:55:00+00,62.96,23.18,21.68,350.00,4.00,0.00,30.06,85.00,M,CLR,   ,   ,None,M,M,M,M,KEDW 071655Z 35004KT 85SM CLR 17/M05 A3006 RMK AO2A SLP159 T01721049,
EDW,2010-05-07 17:55:00+00,68.90,16.52,13.28,M,5.00,0.00,30.05,85.00,M,CLR,   ,   ,None,M,M,M,M,KEDW 071755Z VRB05KT 85SM CLR 20/M09 A3005 RMK AO2A SLP155 T02051086 10205 20057 58003,
EDW,2010-05-07 18:55:00+00,73.58,8.96,8.12,90.00,7.00,0.00,30.03,85.00,M,CLR,   ,   ,None,M,M,M,M,KEDW 071855Z 09007KT 85SM CLR 23/M13 A3003 RMK AO2A SLP143 T02311128,
EDW,2010-05-07 19:55:00+00,74.84,10.04,8.16,M,6.00,0.00,30.01,85.00,M,CLR,   ,   ,None,M,M,M,M,KEDW 071955Z VRB06KT 85SM CLR 24/M12 A3001 RMK AO2A SLP141 T02381122,
EDW,2010-05-07 20:55:00+00,77.54,12.20,8.22,10.00,4.00,0.00,29.99,90.00,M,CLR,   ,   ,None,M,M,M,M,KEDW 072055Z 01004KT 90SM CLR 25/M11 A2999 RMK AO2A SLPNO T02531110 56020,
EDW,2010-05-07 21:55:00+00,77.72,15.08,9.27,M,3.00,0.00,29.97,85.00,M,CLR,   ,   ,None,M,M,M,M,KEDW 072155Z VRB03KT 85SM CLR 25/M09 A2997 RMK AO2A SLP135 T02541094,
EDW,2010-05-07 22:55:00+00,79.52,16.34,9.23,0.00,0.00,0.00,29.94,80.00,M,CLR,   ,   ,None,M,M,M,M,KEDW 072255Z 00000KT 80SM CLR 26/M09 A2994 RMK AO2A SLP120 T02641087,
EDW,2010-05-07 23:55:00+00,80.06,17.42,9.50,310.00,5.00,0.00,29.92,80.00,M,CLR,   ,   ,None,M,M,M,M,KEDW 072355Z 31005KT 80SM CLR 27/M08 A2992 RMK AO2A SLP113 T02671081 1//// 2//// 56024,
EDW,2010-05-08 01:55:00+00,78.98,18.32,10.23,250.00,6.00,0.00,29.91,70.00,M,FEW,   ,   ,None,25000.00,M,M,M,KEDW 080155Z COR 25006KT 70SM FEW250 26/M08 A2991 RMK AO2A SLP110 T02611076,
EDW,2010-05-08 01:55:00+00,78.98,18.32,10.23,250.00,6.00,0.00,29.91,70.00,M,FEW,   ,   ,None,25000.00,M,M,M,KEDW 080155Z 25006KT 70SM FEW250 26/M08 A2991 RMK AO2A SLPNO T02611076,
EDW,2010-05-08 01:55:00+00,78.98,18.32,10.23,250.00,6.00,0.00,29.91,70.00,M,FEW,   ,   ,None,25000.00,M,M,M,KEDW 080155Z COR 25006KT 70SM FEW250 26/M08 A2991 RMK AO2A SLP110 T02611076,
EDW,2010-05-08 01:55:00+00,78.98,18.32,10.23,250.00,6.00,0.00,29.91,70.00,M,FEW,   ,   ,None,25000.00,M,M,M,KEDW 080155Z COR 25006KT 70SM FEW250 26/M08 A2991 RMK AO2A SLP110 T02611076,
EDW,2010-05-08 02:55:00+00,71.78,36.50,27.51,270.00,16.00,0.00,29.91,40.00,M,FEW,   ,   ,None,25000.00,M,M,M,KEDW 080255Z COR 27016KT 40SM FEW250 22/02 A2991 RMK AO2A SLP113 T02210025 55001,
EDW,2010-05-08 02:55:00+00,71.78,36.50,27.51,270.00,16.00,0.00,29.91,40.00,M,FEW,   ,   ,None,25000.00,M,M,M,KEDW 080255Z COR 27016KT 40SM FEW250 22/02 A2991 RMK AO2A SLP113 T02210025 55001,
EDW,2010-05-08 02:55:00+00,71.78,36.50,27.51,270.00,16.00,0.00,29.91,40.00,M,FEW,   ,   ,None,25000.00,M,M,M,KEDW 080255Z COR 27016KT 40SM FEW250 22/02 A2991 RMK AO2A SLP113 T02210025 55001,
EDW,2010-05-08 02:55:00+00,71.78,36.50,27.51,270.00,16.00,0.00,29.91,40.00,M,FEW,   ,   ,None,25000.00,M,M,M,KEDW 080255Z 27016KT 40SM FEW250 22/02 A2991 RMK AO2A SLPNO T02210025 55001,
EDW,2010-05-08 03:55:00+00,67.64,35.60,30.58,270.00,14.00,0.00,29.94,30.00,M,FEW,   ,   ,None,25000.00,M,M,M,KEDW 080355Z 27014KT 30SM FEW250 20/02 A2994 RMK AO2A SLPNO SLP119 T01980020,
EDW,2010-05-08 04:55:00+00,65.66,35.24,32.29,260.00,13.00,0.00,29.96,30.00,M,SCT,   ,   ,None,25000.00,M,M,M,KEDW 080455Z 26013KT 30SM SCT250 19/02 A2996 RMK AO2A SLP124 T01870018,
EDW,2010-05-08 05:55:00+00,64.22,34.88,33.47,260.00,10.00,0.00,29.96,10.00,M,CLR,   ,   ,None,M,M,M,M,KEDW 080555Z AUTO 26010KT 10SM CLR 18/02 A2996 RMK AO2 SLPNO T01790016 10272 20179 51015,
EDW,2010-05-08 06:55:00+00,60.80,34.52,37.21,210.00,7.00,0.00,29.96,10.00,M,CLR,   ,   ,None,M,M,M,M,KEDW 080655Z AUTO 21007KT 10SM CLR 16/01 A2996 RMK AO2 SLP117 T01600014,
EDW,2010-05-08 07:55:00+00,60.26,33.80,36.86,200.00,8.00,0.00,29.96,10.00,M,CLR,   ,   ,None,M,M,M,M,KEDW 080755Z AUTO 20008KT 10SM CLR 16/01 A2996 RMK AO2 SLP116 T01570010 402720056,
EDW,2010-05-08 08:55:00+00,57.02,32.54,39.36,190.00,5.00,0.00,29.94,10.00,M,CLR,   ,   ,None,M,M,M,M,KEDW 080855Z AUTO 19005KT 10SM CLR 14/00 A2994 RMK AO2 SLP111 T01390003 58005,
EDW,2010-05-08 09:55:00+00,57.38,32.90,39.42,190.00,6.00,0.00,29.93,10.00,M,CLR,   ,   ,None,M,M,M,M,KEDW 080955Z AUTO 19006KT 10SM CLR 14/00 A2993 RMK AO2 SLP105 T01410005,
EDW,2010-05-08 10:55:00+00,60.62,32.72,34.85,250.00,9.00,0.00,29.93,10.00,M,CLR,   ,   ,None,M,M,M,M,KEDW 081055Z AUTO 25009KT 10SM CLR 16/00 A2993 RMK AO2 SLP102 T01590004,
EDW,2010-05-08 11:55:00+00,59.54,32.18,35.44,240.00,12.00,0.00,29.93,10.00,M,CLR,   ,   ,None,M,M,M,M,KEDW 081155Z AUTO 24012KT 10SM CLR 15/00 A2993 RMK AO2 SLP102 7//// T01530001 10178 20133 56006,
EDW,2010-05-08 12:55:00+00,54.86,31.28,40.45,210.00,11.00,0.00,29.93,85.00,M,FEW,   ,   ,None,25000.00,M,M,M,KEDW 081255Z 21011KT 85SM FEW250 13/M00 A2993 RMK AO2A SLP106 T01271004,
EDW,2010-05-08 13:55:00+00,57.74,29.84,34.38,210.00,14.00,0.00,29.94,85.00,M,FEW,   ,   ,None,25000.00,M,M,M,KEDW 081355Z 21014KT 85SM FEW250 14/M01 A2994 RMK AO2A SLP109 T01431012,
EDW,2010-05-08 14:37:00+00,62.60,28.40,27.27,270.00,14.00,0.00,29.94,85.00,22.00,FEW,   ,   ,None,25000.00,M,M,M,KEDW 081437Z 27014G22KT 85SM FEW250 17/M02 A2994 RMK AO2A WSHFT 1422 SLP111,
EDW,2010-05-08 14:55:00+00,63.68,28.22,26.06,270.00,18.00,0.00,29.95,85.00,22.00,FEW,FEW,   ,None,12000.00,25000.00,M,M,KEDW 081455Z 27018G22KT 85SM FEW120 FEW250 18/M02 A2995 RMK AO2A WSHFT 1422 SLP112 T01761021 53007,
EDW,2010-05-08 15:31:00+00,64.40,30.20,27.55,220.00,13.00,0.00,29.96,85.00,27.00,FEW,FEW,   ,None,12000.00,25000.00,M,M,KEDW 081531Z 22013G27KT 85SM FEW120 FEW250 18/M01 A2996 RMK AO2A PK WND 27027/1520 WSHFT 1516 SLP119,
EDW,2010-05-08 15:55:00+00,65.30,29.84,26.31,230.00,14.00,0.00,29.96,85.00,M,FEW,   ,   ,None,25000.00,M,M,M,KEDW 081555Z 23014KT 85SM FEW250 18/M01 A2996 RMK AO2A PK WND 27027/1520 WSHFT 1516 SLP119 T01851012,
EDW,2010-05-08 16:55:00+00,69.62,29.66,22.50,270.00,16.00,0.00,29.95,85.00,M,FEW,   ,   ,None,25000.00,M,M,M,KEDW 081655Z 27016KT 85SM FEW250 21/M01 A2995 RMK AO2A SLP113 T02091013,
EDW,2010-05-08 17:55:00+00,72.86,30.74,21.06,240.00,14.00,0.00,29.94,85.00,M,FEW,   ,   ,None,25000.00,M,M,M,KEDW 081755Z 24014KT 85SM FEW250 23/M01 A2994 RMK AO2A SLP111 T02271007 10227 20126 58001,
EDW,2010-05-08 18:55:00+00,73.76,30.74,20.43,270.00,12.00,0.00,29.94,85.00,18.00,CLR,   ,   ,None,M,M,M,M,KEDW 081855Z 27012G18KT 85SM CLR 23/M01 A2994 RMK AO2A SLP108 T02321007,
EDW,2010-05-08 19:55:00+00,77.00,30.02,17.81,240.00,13.00,0.00,29.91,60.00,18.00,FEW,   ,   ,None,25000.00,M,M,M,KEDW 081955Z 24013G18KT 60SM FEW250 25/M01 A2991 RMK AO2A SLP101 T02501011,
EDW,2010-05-08 20:55:00+00,78.44,30.74,17.49,270.00,18.00,0.00,29.89,60.00,22.00,FEW,   ,   ,None,25000.00,M,M,M,KEDW 082055Z 27018G22KT 60SM FEW250 26/M01 A2989 RMK AO2A SLP092 T02581007 58018,
EDW,2010-05-08 21:55:00+00,79.34,26.60,14.33,270.00,18.00,0.00,29.88,60.00,24.00,CLR,   ,   ,None,M,M,M,M,KEDW 082155Z 27018G24KT 60SM CLR 26/M03 A2988 RMK AO2A SLP090 T02631030,
EDW,2010-05-08 22:55:00+00,78.62,26.06,14.35,280.00,18.00,0.00,29.87,60.00,24.00,CLR,   ,   ,None,M,M,M,M,KEDW 082255Z 28018G24KT 60SM CLR 26/M03 A2987 RMK AO2A PK WND 29026/2233 SLP083 T02591033,
EDW,2010-05-08 23:55:00+00,76.64,29.12,17.37,290.00,18.00,0.00,29.86,50.00,26.00,CLR,   ,   ,None,M,M,M,M,KEDW 082355Z 29018G26KT 50SM CLR 25/M02 A2986 RMK AO2A PK WND 29027/2338 SLP083 T02481016 10264 20225 58008,
EDW,2010-05-09 00:55:00+00,74.30,29.84,19.35,290.00,18.00,0.00,29.87,50.00,M,CLR,   ,   ,None,M,M,M,M,KEDW 090055Z 29018KT 50SM CLR 23/M01 A2987 RMK AO2A PK WND 28026/0029 SLP091 T02351012,
EDW,2010-05-09 01:55:00+00,70.70,31.64,23.50,280.00,18.00,0.00,29.88,50.00,23.00,CLR,   ,   ,None,M,M,M,M,KEDW 090155Z 28018G23KT 50SM CLR 22/M00 A2988 RMK AO2A SLP095 T02151002,
EDW,2010-05-09 02:55:00+00,66.74,32.18,27.52,280.00,11.00,0.00,29.89,50.00,M,CLR,   ,   ,None,M,M,M,M,KEDW 090255Z 28011KT 50SM CLR 19/00 A2989 RMK AO2A SLP097 T01930001 53010,
EDW,2010-05-09 03:55:00+00,64.40,33.08,30.95,260.00,12.00,0.00,29.91,30.00,M,CLR,   ,   ,None,M,M,M,M,KEDW 090355Z 26012KT 30SM CLR 18/01 A2991 RMK AO2A SLP106 T01800006,
EDW,2010-05-09 04:55:00+00,62.42,35.42,36.42,250.00,13.00,0.00,29.92,30.00,M,CLR,   ,   ,None,M,M,M,M,KEDW 090455Z 25013KT 30SM CLR 17/02 A2992 RMK AO2A SLP104 T01690019,
EDW,2010-05-09 05:55:00+00,56.84,34.16,42.27,210.00,8.00,0.00,29.92,10.00,M,CLR,   ,   ,None,M,M,M,M,KEDW 090555Z AUTO 21008KT 10SM CLR 14/01 A2992 RMK AO2 SLP109 T01380012 10249 20138 51009,
EDW,2010-05-09 06:55:00+00,55.04,35.42,47.44,210.00,7.00,0.00,29.92,10.00,M,CLR,   ,   ,None,M,M,M,M,KEDW 090655Z AUTO 21007KT 10SM CLR 13/02 A2992 RMK AO2 SLP109 T01280019,
EDW,2010-05-09 07:55:00+00,54.14,36.14,50.44,220.00,8.00,0.00,29.91,10.00,M,CLR,   ,   ,None,M,M,M,M,KEDW 090755Z AUTO 22008KT 10SM CLR 12/02 A2991 RMK AO2 SLP104 T01230023 402640121,
EDW,2010-05-09 08:55:00+00,53.06,35.96,52.11,210.00,9.00,0.00,29.90,10.00,M,CLR,   ,   ,None,M,M,M,M,KEDW 090855Z AUTO 21009KT 10SM CLR 12/02 A2990 RMK AO2 SLP100 T01170022 58006,
EDW,2010-05-09 09:55:00+00,51.98,36.86,56.18,220.00,9.00,0.00,29.89,10.00,M,CLR,   ,   ,None,M,M,M,M,KEDW 090955Z AUTO 22009KT 10SM CLR 11/03 A2989 RMK AO2 SLP097 T01110027,
EDW,2010-05-09 10:55:00+00,50.54,37.04,59.68,210.00,8.00,0.00,29.89,10.00,M,CLR,   ,   ,None,M,M,M,M,KEDW 091055Z AUTO 21008KT 10SM CLR 10/03 A2989 RMK AO2 SLP097 T01030028,
EDW,2010-05-09 11:55:00+00,50.72,38.66,63.17,210.00,10.00,0.00,29.89,10.00,M,CLR,   ,   ,None,M,M,M,M,KEDW 091155Z AUTO 21010KT 10SM CLR 10/04 A2989 RMK AO2 SLP097 T01040037 10138 20103 56006,
EDW,2010-05-09 12:55:00+00,50.72,42.08,72.14,210.00,11.00,0.00,29.89,30.00,M,FEW,   ,   ,None,25000.00,M,M,M,KEDW 091255Z 21011KT 30SM FEW250 10/06 A2989 RMK AO2A SLP101 T01040056,
EDW,2010-05-09 13:55:00+00,53.24,43.34,69.00,220.00,15.00,0.00,29.89,50.00,22.00,FEW,FEW,   ,None,5000.00,25000.00,M,M,KEDW 091355Z 22015G22KT 50SM FEW050 FEW250 12/06 A2989 RMK AO2A SLP101 T01180063,
EDW,2010-05-09 14:55:00+00,57.02,43.16,59.72,220.00,17.00,0.00,29.90,60.00,M,FEW,FEW,   ,None,5000.00,25000.00,M,M,KEDW 091455Z 22017KT 60SM FEW050 FEW250 14/06 A2990 RMK AO2A SLP104 T01390062 52004,
EDW,2010-05-09 15:55:00+00,61.70,42.44,49.15,220.00,17.00,0.00,29.91,60.00,23.00,FEW,FEW,   ,None,5000.00,25000.00,M,M,KEDW 091555Z 22017G23KT 60SM FEW050 FEW250 17/06 A2991 RMK AO2A SLP107 T01650058,
EDW,2010-05-09 16:55:00+00,64.22,41.36,43.15,210.00,18.00,0.00,29.90,60.00,26.00,FEW,FEW,   ,None,5000.00,25000.00,M,M,KEDW 091655Z 21018G26KT 60SM FEW050 FEW250 18/05 A2990 RMK AO2A SLP105 T01790052,
EDW,2010-05-09 17:55:00+00,67.82,38.84,34.53,220.00,21.00,0.00,29.89,60.00,27.00,FEW,FEW,   ,None,5000.00,25000.00,M,M,KEDW 091755Z 22021G27KT 60SM FEW050 FEW250 20/04 A2989 RMK AO2A SLP101 T01990038 10199 20104 58002,
EDW,2010-05-09 18:55:00+00,69.08,39.56,34.01,230.00,21.00,0.00,29.89,60.00,30.00,FEW,FEW,   ,None,5000.00,25000.00,M,M,KEDW 091855Z 23021G30KT 60SM FEW050 FEW250 21/04 A2989 RMK AO2A SLP100 T02060042,
EDW,2010-05-09 20:55:00+00,67.64,43.70,41.92,230.00,25.00,0.00,29.89,45.00,33.00,FEW,   ,   ,None,5000.00,M,M,M,KEDW 092055Z 23025G33KT 45SM FEW050 20/07 A2989 RMK AO2A SLP104 T01980065 55000,
EDW,2010-05-09 21:55:00+00,65.30,43.52,45.15,230.00,24.00,0.00,29.90,40.00,31.00,SCT,   ,   ,None,5000.00,M,M,M,KEDW 092155Z 23024G31KT 40SM SCT050 19/06 A2990 RMK AO2A PK WND 24034/2116 SLP109 T01850064,
EDW,2010-05-09 22:55:00+00,66.02,40.10,38.59,240.00,24.00,0.00,29.89,30.00,31.00,FEW,BKN,   ,None,4300.00,5000.00,M,M,KEDW 092255Z 24024G31KT 30SM FEW043 BKN050 19/05 A2989 RMK AO2A PK WND 22032/2202 SLP106 T01890045,
EDW,2010-05-09 23:55:00+00,62.60,40.64,44.42,220.00,20.00,0.00,29.89,30.00,30.00,BKN,   ,   ,None,5000.00,M,M,M,KEDW 092355Z 22020G30KT 30SM BKN050 17/05 A2989 RMK AO2A PK WND 22035/2301 SLP111 T01700048 10209 20170 53001,
EDW,2010-05-10 00:55:00+00,63.86,32.54,30.86,250.00,18.00,0.00,29.89,40.00,32.00,SCT,   ,   ,None,5000.00,M,M,M,KEDW 100055Z 25018G32KT 40SM SCT050 18/00 A2989 RMK AO2A SLP110 T01770003,
EDW,2010-05-10 01:55:00+00,60.08,35.60,39.85,250.00,17.00,0.00,29.90,30.00,M,FEW,   ,   ,None,5000.00,M,M,M,KEDW 100155Z 25017KT 30SM FEW050 16/02 A2990 RMK AO2A PK WND 25032/0125 SLP113 T01560020,
EDW,2010-05-10 02:39:00+00,59.00,35.60,41.42,270.00,26.00,0.00,29.92,30.00,32.00,BKN,BKN,   ,None,5000.00,8000.00,M,M,KEDW 100239Z 27026G32KT 30SM BKN050 BKN080 15/02 A2992 RMK AO2A,
EDW,2010-05-10 02:55:00+00,54.68,37.40,51.98,290.00,18.00,0.00,29.94,40.00,28.00,BKN,BKN,   ,None,5000.00,7000.00,M,M,KEDW 100255Z 29018G28KT 40SM BKN050 BKN070 13/03 A2994 RMK AO2A PK WND 26033/0225 SLP130 T01260030 53014,
EDW,2010-05-10 02:58:00+00,53.60,37.40,54.07,280.00,22.00,0.00,29.94,10.00,27.00,SCT,SCT,   ,None,5500.00,7000.00,M,M,KEDW 100258Z 28022G27KT 10SM SCT055 SCT070 12/03 A2994 RMK AO2A PK WND 28027/0257 SLP128,
EDW,2010-05-10 03:55:00+00,52.88,39.56,60.42,240.00,25.00,0.00,29.94,30.00,31.00,SCT,   ,   ,None,5000.00,M,M,M,KEDW 100355Z 24025G31KT 30SM SCT050 12/04 A2994 RMK AO2A SLP126 T01160042,
EDW,2010-05-10 04:55:00+00,51.98,37.76,58.21,240.00,20.00,0.00,29.98,30.00,26.00,SCT,   ,   ,None,5000.00,M,M,M,KEDW 100455Z 24020G26KT 30SM SCT050 11/03 A2998 RMK AO2A PK WND 24032/0416 SLP141 T01110032,
EDW,2010-05-10 05:53:00+00,51.80,41.00,66.48,210.00,16.00,0.00,30.01,10.00,21.00,SCT,BKN,   ,None,3800.00,4600.00,M,M,KEDW 100553Z AUTO 21016G21KT 10SM SCT038 BKN046 11/05 A3001 RMK AO2 PK WND 25029/0458 SLP148,
EDW,2010-05-10 05:55:00+00,51.08,41.00,68.28,220.00,17.00,0.00,30.01,10.00,21.00,BKN,BKN,   ,None,4100.00,4900.00,M,M,KEDW 100555Z AUTO 22017G21KT 10SM BKN041 BKN049 11/05 A3001 RMK AO2 PK WND 25029/0458 SLP148 T01060050 10177 20106 53022,
EDW,2010-05-10 06:14:00+00,51.80,39.20,61.99,230.00,19.00,0.00,29.99,10.00,22.00,SCT,   ,   ,None,4100.00,M,M,M,KEDW 100614Z AUTO 23019G22KT 10SM SCT041 11/04 A2999 RMK AO2 SLP142,
EDW,2010-05-10 06:55:00+00,51.62,36.14,55.34,260.00,20.00,0.00,29.99,10.00,28.00,CLR,   ,   ,None,M,M,M,M,KEDW 100655Z AUTO 26020G28KT 10SM CLR 11/02 A2999 RMK AO2 PK WND 23034/0623 SLP139 T01090023,
EDW,2010-05-10 07:55:00+00,51.08,34.70,53.32,240.00,15.00,0.00,30.02,10.00,23.00,CLR,   ,   ,None,M,M,M,M,KEDW 100755Z AUTO 24015G23KT 10SM CLR 11/02 A3002 RMK AO2 PK WND 24029/0724 SLP152 T01060015 402090103,
EDW,2010-05-10 08:55:00+00,50.18,35.24,56.32,250.00,19.00,0.00,29.99,10.00,M,CLR,   ,   ,None,M,M,M,M,KEDW 100855Z AUTO 25019KT 10SM CLR 10/02 A2999 RMK AO2 PK WND 25028/0817 SLP142 T01010018 58005,
EDW,2010-05-10 09:55:00+00,49.28,34.88,57.41,220.00,14.00,0.00,30.00,10.00,20.00,CLR,   ,   ,None,M,M,M,M,KEDW 100955Z AUTO 22014G20KT 10SM CLR 10/02 A3000 RMK AO2 SLP146 T00960016,
EDW,2010-05-10 10:55:00+00,47.84,35.24,61.47,230.00,13.00,0.00,29.99,10.00,M,CLR,   ,   ,None,M,M,M,M,KEDW 101055Z AUTO 23013KT 10SM CLR 09/02 A2999 RMK AO2 SLP146 T00880018,
EDW,2010-05-10 11:55:00+00,46.22,36.86,69.66,220.00,11.00,0.00,30.00,10.00,M,CLR,   ,   ,None,M,M,M,M,KEDW 101155Z AUTO 22011KT 10SM CLR 08/03 A3000 RMK AO2 SLP155 T00790027 10113 20077 53004,
EDW,2010-05-10 12:55:00+00,46.94,34.34,61.35,200.00,10.00,0.00,30.00,90.00,M,FEW,   ,   ,None,25000.00,M,M,M,KEDW 101255Z 20010KT 90SM FEW250 08/01 A3000 RMK AO2A SLP151 T00830013,
EDW,2010-05-10 13:55:00+00,48.74,34.52,57.75,200.00,9.00,0.00,30.02,90.00,M,FEW,FEW,   ,None,4000.00,25000.00,M,M,KEDW 101355Z 20009KT 90SM FEW040 FEW250 09/01 A3002 RMK AO2A SLP159 T00930014,
EDW,2010-05-10 14:55:00+00,52.88,34.34,49.18,220.00,11.00,0.00,30.02,90.00,M,FEW,SCT,   ,None,4000.00,25000.00,M,M,KEDW 101455Z 22011KT 90SM FEW040 SCT250 12/01 A3002 RMK AO2A SLP161 CONTRAILS T01160013 53006,
EDW,2010-05-10 15:55:00+00,56.84,33.44,41.07,240.00,14.00,0.00,30.02,90.00,M,FEW,SCT,   ,None,4000.00,25000.00,M,M,KEDW 101555Z 24014KT 90SM FEW040 SCT250 14/01 A3002 RMK AO2A SLP156 CONTRAILS T01380008,
EDW,2010-05-10 16:55:00+00,60.80,32.54,34.38,210.00,13.00,0.00,30.01,90.00,M,FEW,SCT,   ,None,4000.00,25000.00,M,M,KEDW 101655Z 21013KT 90SM FEW040 SCT250 16/00 A3001 RMK AO2A SLP155 CONTRAILS T01600003,
EDW,2010-05-10 17:55:00+00,63.68,30.20,28.25,230.00,13.00,0.00,30.00,90.00,M,FEW,SCT,   ,None,3000.00,25000.00,M,M,KEDW 101755Z 23013KT 90SM FEW030 SCT250 18/M01 A3000 RMK AO2A SLP149 CONTRAILS T01761010 10176 20080 57006,
EDW,2010-05-10 18:55:00+00,67.46,34.52,29.48,230.00,18.00,0.00,29.99,90.00,27.00,FEW,BKN,   ,None,4000.00,25000.00,M,M,KEDW 101855Z 23018G27KT 90SM FEW040 BKN250 20/01 A2999 RMK AO2A SLP141 CONTRAILS T01970014,
EDW,2010-05-10 19:55:00+00,68.00,37.04,31.97,220.00,22.00,0.00,29.97,90.00,31.00,FEW,BKN,   ,None,4000.00,25000.00,M,M,KEDW 101955Z 22022G31KT 90SM FEW040 BKN250 20/03 A2997 RMK AO2A SLP134 CONTRAILS T02000028,
EDW,2010-05-10 20:55:00+00,68.18,38.48,33.62,220.00,26.00,0.00,29.95,50.00,34.00,FEW,SCT,   ,None,4000.00,25000.00,M,M,KEDW 102055Z 22026G34KT 50SM FEW040 SCT250 20/04 A2995 RMK AO2A PK WND 23035/2006 SLP127 CONTRAILS T02010036 58018,
EDW,2010-05-10 21:55:00+00,68.36,40.46,36.10,210.00,21.00,0.00,29.94,60.00,28.00,FEW,FEW,SCT,None,4000.00,20000.00,25000.00,M,KEDW 102155Z 21021G28KT 60SM FEW040 FEW200 SCT250 20/05 A2994 RMK AO2A PK WND 23033/2055 SLP123 CONTRAILS T02020047,
EDW,2010-05-10 22:55:00+00,66.20,42.08,41.41,220.00,27.00,0.00,29.92,50.00,36.00,FEW,FEW,SCT,None,4000.00,15000.00,25000.00,M,KEDW 102255Z 22027G36KT 50SM FEW040 FEW150 SCT250 19/06 A2992 RMK AO2A PK WND 23037/2242 ACSL DSNT N SLP121 BLDU DSNT NE T01900056,
EDW,2010-05-10 23:55:00+00,63.50,42.62,46.45,230.00,29.00,0.00,29.92,45.00,34.00,FEW,   ,   ,None,4000.00,M,M,M,KEDW 102355Z 23029G34KT 45SM FEW040 17/06 A2992 RMK AO2A PK WND 23037/2337 SLP123 T01750059 10203 20175 56008,
EDW,2010-05-11 00:55:00+00,59.90,41.90,51.32,220.00,28.00,0.00,29.92,45.00,36.00,SCT,   ,   ,None,4000.00,M,M,M,KEDW 110055Z 22028G36KT 45SM SCT040 15/06 A2992 RMK AO2A SLP127 T01550055,
EDW,2010-05-11 01:27:00+00,57.20,41.00,54.60,210.00,24.00,0.00,29.93,45.00,32.00,BKN,   ,   ,None,5000.00,M,M,M,KEDW 110127Z 21024G32KT 45SM BKN050 14/05 A2993 RMK AO2A,
EDW,2010-05-11 01:55:00+00,56.84,41.18,55.70,200.00,23.00,0.00,29.93,60.00,31.00,BKN,   ,   ,None,6500.00,M,M,M,KEDW 110155Z 20023G31KT 60SM BKN065 14/05 A2993 RMK AO2A PK WND 23034/0055 SLP128 T01380051,
EDW,2010-05-11 02:55:00+00,55.58,41.72,59.53,220.00,19.00,0.00,29.94,50.00,28.00,BKN,   ,   ,None,6500.00,M,M,M,KEDW 110255Z 22019G28KT 50SM BKN065 13/05 A2994 RMK AO2A PK WND 22030/0207 SLP132 T01310054 53004,
EDW,2010-05-11 03:21:00+00,55.40,39.20,54.34,230.00,20.00,0.00,29.94,10.00,26.00,SCT,   ,   ,None,6500.00,M,M,M,KEDW 110321Z 23020G26KT 10SM SCT065 13/04 A2994 RMK AO2A PK WND 24026/0319 SLP129,
EDW,2010-05-11 03:55:00+00,53.96,31.64,42.42,250.00,22.00,0.00,29.92,30.00,27.00,SCT,   ,   ,None,6500.00,M,M,M,KEDW 110355Z 25022G27KT 30SM SCT065 12/M00 A2992 RMK AO2A PK WND 25028/0339 SLP125 T01221002,
EDW,2010-05-11 04:55:00+00,51.98,34.52,51.20,240.00,19.00,0.00,29.93,30.00,26.00,SCT,   ,   ,None,6500.00,M,M,M,KEDW 110455Z 24019G26KT 30SM SCT065 11/01 A2993 RMK AO2A PK WND 25030/0359 SLP127 T01110014,
EDW,2010-05-11 05:23:00+00,51.80,33.80,50.08,250.00,20.00,0.00,29.95,10.00,27.00,BKN,   ,   ,None,5500.00,M,M,M,KEDW 110523Z AUTO 25020G27KT 10SM BKN055 11/01 A2995 RMK AO2 PK WND 26027/0515 SLP131,
EDW,2010-05-11 05:55:00+00,51.26,35.42,54.50,240.00,16.00,0.00,29.95,10.00,M,BKN,   ,   ,None,5000.00,M,M,M,KEDW 110555Z AUTO 24016KT 10SM BKN050 11/02 A2995 RMK AO2 PK WND 26027/0515 SLP129 T01070019 10172 20107 53004,
EDW,2010-05-11 06:02:00+00,51.80,35.60,53.81,250.00,17.00,0.00,29.95,10.00,23.00,BKN,   ,   ,None,4900.00,M,M,M,KEDW 110602Z AUTO 25017G23KT 10SM -DZ BKN049 11/02 A2995 RMK AO2 DZB0602 SLP130,
EDW,2010-05-11 06:15:00+00,50.00,41.00,71.07,280.00,18.00,0.00,29.95,10.00,23.00,BKN,BKN,   ,None,3700.00,4900.00,M,M,KEDW 110615Z AUTO 28018G23KT 10SM BKN037 BKN049 10/05 A2995 RMK AO2 RAB0612E0615DZB0602E0612 SLP129,
EDW,2010-05-11 06:55:00+00,48.92,39.38,69.48,290.00,17.00,0.00,29.97,10.00,M,BKN,BKN,   ,None,3300.00,4300.00,M,M,KEDW 110655Z AUTO 29017KT 10SM BKN033 BKN043 09/04 A2997 RMK AO2 RAB0612E0615DZB0602E0612 SLP133 P0000 T00940041,
EDW,2010-05-11 07:55:00+00,47.30,34.70,61.40,270.00,15.00,0.00,29.97,10.00,19.00,OVC,   ,   ,None,3400.00,M,M,M,KEDW 110755Z AUTO 27015G19KT 10SM OVC034 08/01 A2997 RMK AO2 SLP138 T00850015 402030077,
EDW,2010-05-11 08:51:00+00,46.40,30.20,53.00,270.00,18.00,0.00,29.95,10.00,26.00,SCT,   ,   ,None,3300.00,M,M,M,KEDW 110851Z AUTO 27018G26KT 10SM SCT033 08/M01 A2995 RMK AO2 PK WND 28026/0850 SLP131,
EDW,2010-05-11 08:55:00+00,45.68,29.66,53.28,280.00,21.00,0.00,29.95,10.00,28.00,SCT,   ,   ,None,3300.00,M,M,M,KEDW 110855Z AUTO 28021G28KT 10SM SCT033 08/M01 A2995 RMK AO2 PK WND 28028/0854 SLP130 60000 T00761013 50001,
EDW,2010-05-11 09:55:00+00,45.14,29.48,53.98,310.00,19.00,0.00,29.96,10.00,26.00,CLR,   ,   ,None,M,M,M,M,KEDW 110955Z AUTO 31019G26KT 10SM CLR 07/M01 A2996 RMK AO2 PK WND 29032/0914 SLP134 T00731014,
EDW,2010-05-11 10:55:00+00,44.78,30.74,57.60,270.00,11.00,0.00,29.99,10.00,20.00,BKN,OVC,   ,None,3600.00,4800.00,M,M,KEDW 111055Z AUTO 27011G20KT 10SM BKN036 OVC048 07/M01 A2999 RMK AO2 SLP146 T00711007,
EDW,2010-05-11 11:07:00+00,44.60,30.20,56.74,260.00,17.00,0.00,29.98,10.00,23.00,FEW,SCT,   ,None,3700.00,4900.00,M,M,KEDW 111107Z AUTO 26017G23KT 10SM FEW037 SCT049 07/M01 A2998 RMK AO2 SLP143,
EDW,2010-05-11 11:55:00+00,44.60,30.74,58.00,260.00,21.00,0.00,29.96,10.00,M,CLR,   ,   ,None,M,M,M,M,KEDW 111155Z AUTO 26021KT 10SM CLR 07/M01 A2996 RMK AO2 PK WND 26027/1112 SLP138 60000 T00701007 10109 20068 50002,
EDW,2010-05-11 12:55:00+00,44.42,30.02,56.72,250.00,11.00,0.00,29.98,85.00,24.00,SCT,   ,   ,None,5000.00,M,M,M,KEDW 111255Z 25011G24KT 85SM SCT050 07/M01 A2998 RMK AO2A SLP150 T00691011,
EDW,2010-05-11 13:55:00+00,44.24,30.20,57.53,220.00,12.00,0.00,30.00,90.00,19.00,FEW,   ,   ,None,4000.00,M,M,M,KEDW 111355Z 22012G19KT 90SM FEW040 07/M01 A3000 RMK AO2A SLP160 T00681010,
EDW,2010-05-11 14:55:00+00,47.12,28.76,48.64,220.00,13.00,0.00,30.00,90.00,26.00,FEW,   ,   ,None,4000.00,M,M,M,KEDW 111455Z 22013G26KT 90SM FEW040 08/M02 A3000 RMK AO2A PK WND 26028/1435 SLP157 T00841018 51015,
EDW,2010-05-11 15:55:00+00,49.46,26.42,40.46,250.00,18.00,0.00,30.00,90.00,25.00,FEW,   ,   ,None,4000.00,M,M,M,KEDW 111555Z 25018G25KT 90SM FEW040 10/M03 A3000 RMK AO2A SLP157 T00971031,
EDW,2010-05-11 16:55:00+00,52.52,25.88,35.33,280.00,23.00,0.00,29.97,90.00,28.00,FEW,   ,   ,None,4000.00,M,M,M,KEDW 111655Z 28023G28KT 90SM FEW040 11/M03 A2997 RMK AO2A PK WND 25033/1604 WSHFT 1640 PRESFR SLP147 T01141034,
EDW,2010-05-11 17:55:00+00,54.50,27.86,35.65,280.00,18.00,0.00,29.99,90.00,23.00,FEW,   ,   ,None,4000.00,M,M,M,KEDW 111755Z 28018G23KT 90SM FEW040 13/M02 A2999 RMK AO2A PK WND 27028/1732 SLP149 T01251023 10126 20051 55005,
EDW,2010-05-11 18:55:00+00,57.56,29.30,33.85,230.00,14.00,0.00,30.00,90.00,M,FEW,FEW,   ,None,4000.00,6000.00,M,M,KEDW 111855Z 23014KT 90SM FEW040 FEW060 14/M02 A3000 RMK AO2A SLP152 T01421015,
EDW,2010-05-11 19:34:00+00,59.00,26.60,28.77,270.00,16.00,0.00,29.98,90.00,23.00,FEW,FEW,   ,None,4000.00,6000.00,M,M,KEDW 111934Z 27016G23KT 90SM FEW040 FEW060 15/M03 A2998 RMK AO2A,
EDW,2010-05-11 19:55:00+00,59.00,27.50,29.86,270.00,17.00,0.00,29.97,90.00,22.00,FEW,FEW,   ,None,4000.00,6000.00,M,M,KEDW 111955Z 27017G22KT 90SM FEW040 FEW060 15/M02 A2997 RMK AO2A SLP144 T01501025,
EDW,2010-05-11 20:55:00+00,61.52,28.04,27.91,280.00,20.00,0.00,29.96,85.00,26.00,FEW,   ,   ,None,5000.00,M,M,M,KEDW 112055Z 28020G26KT 85SM FEW050 16/M02 A2996 RMK AO2A SLP139 T01641022 58009,
EDW,2010-05-11 21:55:00+00,60.80,29.12,29.93,270.00,21.00,0.00,29.95,85.00,26.00,FEW,   ,   ,None,5000.00,M,M,M,KEDW 112155Z 27021G26KT 85SM FEW050 16/M02 A2995 RMK AO2A PK WND 27030/2110 SLP136 T01601016,
EDW,2010-05-11 22:55:00+00,60.80,29.30,30.15,260.00,22.00,0.00,29.93,85.00,31.00,FEW,FEW,   ,None,3000.00,5000.00,M,M,KEDW 112255Z 26022G31KT 85SM FEW030 FEW050 16/M01 A2993 RMK AO2A SLP129 T01601015,
EDW,2010-05-11 23:55:00+00,59.90,29.66,31.59,270.00,22.00,0.00,29.92,85.00,M,FEW,FEW,FEW,None,3000.00,5000.00,25000.00,M,KEDW 112355Z 27022KT 85SM FEW030 FEW050 FEW250 15/M01 A2992 RMK AO2A PK WND 27035/2316 SLP129 T01551013 10166 20125 57013,
EDW,2010-05-12 00:55:00+00,59.90,30.20,32.29,270.00,16.00,0.00,29.92,80.00,M,FEW,FEW,FEW,None,3000.00,5000.00,25000.00,M,KEDW 120055Z 27016KT 80SM FEW030 FEW050 FEW250 15/M01 A2992 RMK AO2A PK WND 26032/2358 SLP130 T01551010,
EDW,2010-05-12 01:55:00+00,58.10,30.74,35.20,280.00,18.00,0.00,29.94,80.00,M,FEW,FEW,   ,None,3000.00,5000.00,M,M,KEDW 120155Z 28018KT 80SM FEW030 FEW050 15/M01 A2994 RMK AO2A SLP135 T01451007,
EDW,2010-05-12 02:55:00+00,54.32,30.74,40.37,280.00,18.00,0.00,29.95,50.00,M,FEW,FEW,   ,None,3000.00,5000.00,M,M,KEDW 120255Z 28018KT 50SM FEW030 FEW050 12/M01 A2995 RMK AO2A SLP143 T01241007 53010,
EDW,2010-05-12 03:55:00+00,52.70,30.38,42.21,280.00,13.00,0.00,29.97,30.00,M,CLR,   ,   ,None,M,M,M,M,KEDW 120355Z 28013KT 30SM CLR 11/M01 A2997 RMK AO2A SLP145 T01151009,
EDW,2010-05-12 04:55:00+00,51.26,30.74,45.17,M,6.00,0.00,29.99,30.00,M,CLR,   ,   ,None,M,M,M,M,KEDW 120455Z VRB06KT 30SM CLR 11/M01 A2999 RMK AO2A SLP152 T01071007,
EDW,2010-05-12 05:55:00+00,50.36,31.82,48.79,230.00,4.00,0.00,30.00,10.00,M,CLR,   ,   ,None,M,M,M,M,KEDW 120555Z AUTO 23004KT 10SM CLR 10/M00 A3000 RMK AO2 SLP157 T01021001 10157 20102 51016,
EDW,2010-05-12 06:55:00+00,48.02,31.46,52.47,220.00,5.00,0.00,30.01,10.00,M,CLR,   ,   ,None,M,M,M,M,KEDW 120655Z AUTO 22005KT 10SM CLR 09/M00 A3001 RMK AO2 SLP155 T00891003,
EDW,2010-05-12 07:55:00+00,45.68,31.46,57.31,180.00,8.00,0.00,30.00,10.00,M,CLR,   ,   ,None,M,M,M,M,KEDW 120755Z AUTO 18008KT 10SM CLR 08/M00 A3000 RMK AO2 SLP155 T00761003 401660051,
EDW,2010-05-12 08:55:00+00,43.88,32.18,63.19,210.00,8.00,0.00,29.99,10.00,M,CLR,   ,   ,None,M,M,M,M,KEDW 120855Z AUTO 21008KT 10SM CLR 07/00 A2999 RMK AO2 SLP152 T00660001 58002,
EDW,2010-05-12 09:55:00+00,42.62,31.46,64.42,210.00,7.00,0.00,29.98,10.00,M,CLR,   ,   ,None,M,M,M,M,KEDW 120955Z AUTO 21007KT 10SM CLR 06/M00 A2998 RMK AO2 SLP151 T00591003,
EDW,2010-05-12 10:55:00+00,43.52,32.00,63.60,220.00,11.00,0.00,29.99,10.00,M,CLR,   ,   ,None,M,M,M,M,KEDW 121055Z AUTO 22011KT 10SM CLR 06/M00 A2999 RMK AO2 SLP152 T00641000,
EDW,2010-05-12 11:55:00+00,41.18,31.82,69.09,170.00,7.00,0.00,29.99,10.00,M,CLR,   ,   ,None,M,M,M,M,KEDW 121155Z AUTO 17007KT 10SM CLR 05/M00 A2999 RMK AO2 SLP155 T00511001 10105 20050 56003,
EDW,2010-05-12 12:55:00+00,41.18,32.90,72.16,190.00,7.00,0.00,30.00,90.00,M,CLR,   ,   ,None,M,M,M,M,KEDW 121255Z 19007KT 90SM CLR 05/01 A3000 RMK AO2A SLP160 T00510005,
EDW,2010-05-12 13:55:00+00,44.24,33.62,66.04,190.00,6.00,0.00,30.01,90.00,M,CLR,   ,   ,None,M,M,M,M,KEDW 121355Z 19006KT 90SM CLR 07/01 A3001 RMK AO2A SLP161 RADAT 36094 T00680009,
EDW,2010-05-12 14:55:00+00,51.44,35.24,53.75,230.00,6.00,0.00,30.02,90.00,M,FEW,   ,   ,None,25000.00,M,M,M,KEDW 121455Z 23006KT 90SM FEW250 11/02 A3002 RMK AO2A SLP162 T01080018 51012,
EDW,2010-05-12 15:55:00+00,55.40,34.52,45.18,260.00,4.00,0.00,30.03,90.00,M,FEW,   ,   ,None,25000.00,M,M,M,KEDW 121555Z 26004KT 90SM FEW250 13/01 A3003 RMK AO2A SLP164 T01300014,
EDW,2010-05-12 16:55:00+00,60.44,34.16,37.16,M,3.00,0.00,30.02,90.00,M,FEW,   ,   ,None,25000.00,M,M,M,KEDW 121655Z VRB03KT 90SM FEW250 16/01 A3002 RMK AO2A SLP158 T01580012,
EDW,2010-05-12 17:55:00+00,65.30,31.46,28.10,340.00,4.00,0.00,30.02,90.00,M,FEW,FEW,   ,None,5000.00,25000.00,M,M,KEDW 121755Z 34004KT 90SM FEW050 FEW250 18/M00 A3002 RMK AO2A SLP154 CONTRAILS T01851003 10185 20044 58001,
EDW,2010-05-12 18:55:00+00,68.54,29.12,22.84,M,5.00,0.00,30.01,90.00,M,FEW,FEW,   ,None,5000.00,25000.00,M,M,KEDW 121855Z VRB05KT 90SM FEW050 FEW250 20/M02 A3001 RMK AO2A SLP151 T02031016,
EDW,2010-05-12 19:55:00+00,70.16,27.68,20.37,M,5.00,0.00,29.98,90.00,M,FEW,FEW,   ,None,5000.00,25000.00,M,M,KEDW 121955Z VRB05KT 90SM FEW050 FEW250 21/M02 A2998 RMK AO2A SLP142 T02121024,
EDW,2010-05-12 20:55:00+00,71.60,29.30,20.73,0.00,0.00,0.00,29.96,90.00,M,FEW,FEW,   ,None,5000.00,25000.00,M,M,KEDW 122055Z 00000KT 90SM FEW050 FEW250 22/M02 A2996 RMK AO2A SLP134 T02201015 58019,
EDW,2010-05-12 21:55:00+00,73.94,28.40,18.46,220.00,7.00,0.00,29.94,90.00,16.00,FEW,FEW,   ,None,5000.00,25000.00,M,M,KEDW 122155Z 22007G16KT 190V260 90SM FEW050 FEW250 23/M02 A2994 RMK AO2A SLP126 T02331020,
EDW,2010-05-12 22:55:00+00,76.10,27.32,16.43,220.00,12.00,0.00,29.91,90.00,18.00,FEW,FEW,   ,None,5000.00,25000.00,M,M,KEDW 122255Z 22012G18KT 90SM FEW050 FEW250 24/M03 A2991 RMK AO2A SLP112 T02451026,
EDW,2010-05-12 23:55:00+00,76.10,24.08,14.36,240.00,13.00,0.00,29.88,90.00,17.00,FEW,BKN,   ,None,5000.00,25000.00,M,M,KEDW 122355Z 24013G17KT 90SM FEW050 BKN250 25/M04 A2988 RMK AO2A SLP105 T02451044 10246 20185 56024,
EDW,2010-05-13 00:08:00+00,75.20,32.00,20.49,280.00,18.00,0.00,29.88,90.00,22.00,FEW,BKN,   ,None,5000.00,25000.00,M,M,KEDW 130008Z 28018G22KT 90SM FEW050 BKN250 24/00 A2988 RMK AO2A WSHFT 2353 SLP104,
EDW,2010-05-13 00:55:00+00,71.60,31.28,22.46,270.00,18.00,0.00,29.88,85.00,M,FEW,FEW,BKN,None,5000.00,15000.00,25000.00,M,KEDW 130055Z 27018KT 85SM FEW050 FEW150 BKN250 22/M00 A2988 RMK AO2A WSHFT 2353 ACSL SW SLP106 T02201004,
EDW,2010-05-13 01:55:00+00,68.18,31.46,25.43,270.00,20.00,0.00,29.89,85.00,25.00,FEW,FEW,BKN,None,5000.00,15000.00,25000.00,M,KEDW 130155Z 27020G25KT 85SM FEW050 FEW150 BKN250 20/M00 A2989 RMK AO2A PK WND 27027/0136 ACSL S-SW SLP112 T02011003,
EDW,2010-05-13 02:55:00+00,65.48,33.62,30.46,250.00,14.00,0.00,29.91,50.00,M,FEW,BKN,   ,None,15000.00,25000.00,M,M,KEDW 130255Z 25014KT 50SM FEW150 BKN250 19/01 A2991 RMK AO2A PK WND 28026/0202 SLP115 T01860009 53009,
EDW,2010-05-13 03:55:00+00,62.96,33.80,33.50,230.00,12.00,0.00,29.93,30.00,M,BKN,   ,   ,None,25000.00,M,M,M,KEDW 130355Z 23012KT 30SM BKN250 17/01 A2993 RMK AO2A SLP121 T01720010,
EDW,2010-05-13 04:55:00+00,62.06,29.66,29.26,210.00,9.00,0.00,29.93,30.00,M,BKN,   ,   ,None,22000.00,M,M,M,KEDW 130455Z 21009KT 30SM BKN220 17/M01 A2993 RMK AO2A SLP119 T01671013,
EDW,2010-05-13 05:55:00+00,59.72,30.92,33.46,200.00,9.00,0.00,29.94,10.00,M,CLR,   ,   ,None,M,M,M,M,KEDW 130555Z AUTO 20009KT 10SM CLR 15/M01 A2994 RMK AO2 SLP117 T01541006 10243 20153 51007,
EDW,2010-05-13 06:55:00+00,59.00,33.08,37.46,210.00,8.00,0.00,29.93,10.00,M,FEW,   ,   ,None,19000.00,M,M,M,KEDW 130655Z AUTO 21008KT 10SM FEW190 15/01 A2993 RMK AO2 SLP112 T01500006,
EDW,2010-05-13 07:55:00+00,58.28,34.34,40.43,180.00,7.00,0.00,29.92,10.00,M,CLR,   ,   ,None,M,M,M,M,KEDW 130755Z AUTO 18007KT 10SM CLR 15/01 A2992 RMK AO2 SLP110 T01460013 402460044,
EDW,2010-05-13 08:55:00+00,56.30,34.34,43.42,180.00,7.00,0.00,29.91,10.00,M,CLR,   ,   ,None,M,M,M,M,KEDW 130855Z AUTO 18007KT 10SM CLR 14/01 A2991 RMK AO2 SLP106 T01350013 58007,
EDW,2010-05-13 09:55:00+00,54.68,33.44,44.42,190.00,6.00,0.00,29.90,10.00,M,CLR,   ,   ,None,M,M,M,M,KEDW 130955Z AUTO 19006KT 10SM CLR 13/01 A2990 RMK AO2 SLP103 T01260008,
EDW,2010-05-13 10:55:00+00,52.88,33.08,46.76,0.00,0.00,0.00,29.91,10.00,M,CLR,   ,   ,None,M,M,M,M,KEDW 131055Z AUTO 00000KT 10SM CLR 12/01 A2991 RMK AO2 SLP103 T01160006,
EDW,2010-05-13 11:55:00+00,52.52,33.08,47.39,M,2.00,0.00,29.90,50.00,M,BKN,   ,   ,None,25000.00,M,M,M,KEDW 131155Z COR VRB02KT 50SM BKN250 11/01 A2990 RMK AO2A SLP103 T01140006 56003,
EDW,2010-05-13 11:55:00+00,52.52,33.08,47.39,M,2.00,0.00,29.90,50.00,M,BKN,   ,   ,None,25000.00,M,M,M,KEDW 131155Z COR VRB02KT 50SM BKN250 11/01 A2990 RMK AO2A SLP103 T01140006 56003,
EDW,2010-05-13 12:55:00+00,52.52,33.08,47.39,320.00,7.00,0.00,29.91,60.00,M,FEW,SCT,BKN,None,16000.00,20000.00,24000.00,M,KEDW 131255Z 32007KT 60SM FEW160 SCT200 BKN240 11/01 A2991 RMK AO2A SLP108 T01140006,
EDW,2010-05-13 13:55:00+00,51.98,32.18,46.62,330.00,5.00,0.00,29.93,85.00,M,SCT,SCT,BKN,None,15000.00,20000.00,24000.00,M,KEDW 131355Z 33005KT 85SM SCT150 SCT200 BKN240 11/00 A2993 RMK AO2A SLP118 T01110001,
EDW,2010-05-13 14:55:00+00,54.86,32.18,41.95,30.00,4.00,0.00,29.94,85.00,M,FEW,SCT,BKN,None,15000.00,20000.00,24000.00,M,KEDW 131455Z 03004KT 85SM FEW150 SCT200 BKN240 13/00 A2994 RMK AO2A SLP122 T01270001 52013,
EDW,2010-05-13 15:55:00+00,58.64,32.18,36.60,0.00,0.00,0.00,29.95,85.00,M,FEW,FEW,SCT,None,16000.00,20000.00,24000.00,M,KEDW 131555Z 00000KT 85SM FEW160 FEW200 SCT240 15/00 A2995 RMK AO2A SLP124 T01480001,
EDW,2010-05-13 16:55:00+00,63.68,32.54,31.06,350.00,4.00,0.00,29.94,85.00,M,FEW,SCT,BKN,None,15000.00,20000.00,24000.00,M,KEDW 131655Z 35004KT 85SM FEW150 SCT200 BKN240 18/00 A2994 RMK AO2A SLP119 T01760003,
EDW,2010-05-13 17:55:00+00,71.96,28.58,19.88,50.00,13.00,0.00,29.92,85.00,M,FEW,FEW,FEW,None,15000.00,20000.00,24000.00,M,KEDW 131755Z 05013KT 85SM FEW150 FEW200 FEW240 22/M02 A2992 RMK AO2A SLP107 T02221019 10222 20108 58005,
EDW,2010-05-13 18:55:00+00,74.48,27.86,17.73,60.00,10.00,0.00,29.92,85.00,16.00,FEW,FEW,SCT,None,6000.00,15000.00,17000.00,M,KEDW 131855Z 06010G16KT 85SM FEW060 FEW150 SCT170 BKN240 24/M02 A2992 RMK AO2A SLP104 T02361023,
EDW,2010-05-13 19:55:00+00,76.10,27.86,16.80,100.00,8.00,0.00,29.89,80.00,M,FEW,SCT,BKN,None,6000.00,16000.00,24000.00,M,KEDW 131955Z 10008KT 070V140 80SM FEW060 SCT160 BKN240 25/M02 A2989 RMK AO2A SLP093 T02451023,
EDW,2010-05-13 20:55:00+00,77.36,28.22,16.35,M,4.00,0.00,29.88,80.00,M,FEW,SCT,BKN,None,6000.00,15000.00,25000.00,M,KEDW 132055Z VRB04KT 80SM FEW060 SCT150 BKN250 25/M02 A2988 RMK AO2A SLP093 T02521021 57014,
EDW,2010-05-13 21:55:00+00,78.26,28.22,15.87,M,4.00,0.00,29.86,70.00,M,FEW,SCT,BKN,None,6000.00,15000.00,25000.00,M,KEDW 132155Z VRB04KT 70SM FEW060 SCT150 BKN250 26/M02 A2986 RMK AO2A SLP087 T02571021,
EDW,2010-05-13 22:55:00+00,79.70,28.58,15.36,M,3.00,0.00,29.85,60.00,M,FEW,SCT,BKN,None,6000.00,14000.00,25000.00,M,KEDW 132255Z VRB03KT 60SM FEW060 SCT140 BKN250 27/M02 A2985 RMK AO2A SLP082 T02651019,
EDW,2010-05-13 23:55:00+00,79.16,28.22,15.41,0.00,0.00,0.00,29.84,7.00,M,BKN,   ,   ,None,13000.00,M,M,M,KEDW 132355Z 00000KT 7SM BKN130 26/M02 A2984 RMK AO2A SLP081 T02621021 10267 20224 56013,
EDW,2010-05-14 00:55:00+00,77.90,27.50,15.59,130.00,7.00,0.00,29.84,50.00,M,FEW,SCT,BKN,None,6000.00,11000.00,25000.00,M,KEDW 140055Z 13007KT 100V160 50SM FEW060 SCT110 BKN250 25/M03 A2984 RMK AO2A SLP082 VIRGA OHD-N-E T02551025,
EDW,2010-05-14 01:55:00+00,77.18,29.66,17.45,40.00,10.00,0.00,29.85,60.00,M,FEW,SCT,BKN,None,6000.00,10000.00,25000.00,M,KEDW 140155Z 04010KT 60SM FEW060 SCT100 BKN250 25/M01 A2985 RMK AO2A SLP085 VIRGA OHD-N-E T02511013,
EDW,2010-05-14 02:55:00+00,73.76,37.40,26.66,250.00,13.00,0.00,29.88,50.00,M,FEW,SCT,BKN,None,6000.00,11000.00,25000.00,M,KEDW 140255Z 25013KT 50SM FEW060 SCT110 BKN250 23/03 A2988 RMK AO2A SLP095 VIRGA N-E T02320030 53012,
EDW,2010-05-14 03:55:00+00,70.34,38.12,30.79,230.00,8.00,0.00,29.91,30.00,M,FEW,SCT,BKN,None,6000.00,12000.00,25000.00,M,KEDW 140355Z 23008KT 30SM FEW060 SCT120 BKN250 21/03 A2991 RMK AO2A SLP104 T02130034,
EDW,2010-05-14 04:55:00+00,68.00,41.18,37.58,270.00,11.00,0.00,29.91,30.00,M,SCT,SCT,   ,None,14000.00,25000.00,M,M,KEDW 140455Z 27011KT 30SM SCT140 SCT250 20/05 A2991 RMK AO2A SLP103 T02000051,
EDW,2010-05-14 05:33:00+00,66.20,41.00,39.72,270.00,10.00,0.00,29.92,10.00,M,SCT,   ,   ,None,13000.00,M,M,M,KEDW 140533Z AUTO 27010KT 10SM SCT130 19/05 A2992 RMK AO2 SLP104,
EDW,2010-05-14 05:55:00+00,65.66,41.00,40.47,300.00,7.00,0.00,29.93,10.00,M,CLR,   ,   ,None,M,M,M,M,KEDW 140555Z AUTO 30007KT 10SM CLR 19/05 A2993 RMK AO2 SLP106 T01870050 10261 20187 51016,
EDW,2010-05-14 06:55:00+00,60.80,40.64,47.34,230.00,6.00,0.00,29.93,10.00,M,CLR,   ,   ,None,M,M,M,M,KEDW 140655Z AUTO 23006KT 10SM CLR 16/05 A2993 RMK AO2 SLP106 T01600048,
EDW,2010-05-14 07:55:00+00,60.26,40.10,47.25,200.00,8.00,0.00,29.93,10.00,M,CLR,   ,   ,None,M,M,M,M,KEDW 140755Z AUTO 20008KT 10SM CLR 16/05 A2993 RMK AO2 SLP107 T01570045 402670104,
EDW,2010-05-14 08:55:00+00,54.50,39.56,56.94,200.00,5.00,0.00,29.92,10.00,M,CLR,   ,   ,None,M,M,M,M,KEDW 140855Z 20005KT 10SM CLR 13/04 A2992 RMK AO2A SLP107 T01250042 58001,
EDW,2010-05-14 09:55:00+00,53.06,40.46,62.16,210.00,5.00,0.00,29.92,30.00,M,CLR,   ,   ,None,M,M,M,M,KEDW 140955Z 21005KT 30SM CLR 12/05 A2992 RMK AO2A SLP107 RADAT 53104 T01170047,
EDW,2010-05-14 10:55:00+00,50.90,39.38,64.54,210.00,5.00,0.00,29.93,30.00,M,CLR,   ,   ,None,M,M,M,M,KEDW 141055Z 21005KT 30SM CLR 11/04 A2993 RMK AO2A SLP109 T01050041,
EDW,2010-05-14 11:55:00+00,49.82,38.66,65.32,240.00,4.00,0.00,29.94,30.00,M,FEW,   ,   ,None,25000.00,M,M,M,KEDW 141155Z 24004KT 30SM FEW250 10/04 A2994 RMK AO2A SLP114 T00990037 10186 20099 53003,
EDW,2010-05-14 12:55:00+00,47.30,37.04,67.36,210.00,6.00,0.00,29.95,85.00,M,FEW,   ,   ,None,25000.00,M,M,M,KEDW 141255Z 21006KT 85SM FEW250 09/03 A2995 RMK AO2A SLP121 T00850028,
EDW,2010-05-14 13:55:00+00,51.98,38.84,60.72,0.00,0.00,0.00,29.97,50.00,M,FEW,   ,   ,None,25000.00,M,M,M,KEDW 141355Z 00000KT 50SM FEW250 11/04 A2997 RMK AO2A SLP125 T01110038,
EDW,2010-05-14 14:55:00+00,58.46,39.02,48.31,200.00,4.00,0.00,29.98,50.00,M,FEW,   ,   ,None,25000.00,M,M,M,KEDW 141455Z 20004KT 50SM FEW250 15/04 A2998 RMK AO2A SLP126 T01470039 52014,
EDW,2010-05-14 15:55:00+00,64.58,38.66,38.36,0.00,0.00,0.00,29.99,50.00,M,FEW,FEW,   ,None,6000.00,25000.00,M,M,KEDW 141555Z 00000KT 50SM FEW060 FEW250 18/04 A2999 RMK AO2A SLP128 RADAT 48103 T01810037,
EDW,2010-05-14 16:55:00+00,68.72,35.78,29.68,0.00,0.00,0.00,29.99,50.00,M,FEW,FEW,   ,None,6000.00,25000.00,M,M,KEDW 141655Z 00000KT 50SM FEW060 FEW250 20/02 A2999 RMK AO2A SLP126 T02040021,
EDW,2010-05-14 17:55:00+00,72.50,30.02,20.70,M,3.00,0.00,29.99,85.00,M,FEW,FEW,   ,None,6000.00,25000.00,M,M,KEDW 141755Z VRB03KT 85SM FEW060 FEW250 23/M01 A2999 RMK AO2A SLP124 T02251011 10225 20083 51003,
EDW,2010-05-14 18:55:00+00,76.28,33.44,20.94,330.00,4.00,0.00,29.98,50.00,M,FEW,SCT,   ,None,6000.00,25000.00,M,M,KEDW 141855Z 33004KT 50SM FEW060 SCT250 25/01 A2998 RMK AO2A SLP123 T02460008,
EDW,2010-05-14 19:55:00+00,79.88,30.20,16.32,80.00,1.00,0.00,29.96,50.00,M,FEW,SCT,   ,None,6000.00,25000.00,M,M,KEDW 141955Z 08001KT 50SM FEW060 SCT250 27/M01 A2996 RMK AO2A SLP113 T02661010,
EDW,2010-05-14 20:55:00+00,81.32,30.02,15.45,280.00,1.00,0.00,29.95,50.00,M,FEW,BKN,   ,None,5000.00,25000.00,M,M,KEDW 142055Z 28001KT 50SM FEW050 BKN250 27/M01 A2995 RMK AO2A SLP112 T02741011 57013,
EDW,2010-05-14 21:55:00+00,79.88,28.76,15.39,M,4.00,0.00,29.93,50.00,M,SCT,BKN,   ,None,6000.00,25000.00,M,M,KEDW 142155Z VRB04KT 50SM SCT060 BKN250 27/M02 A2993 RMK AO2A SLP109 T02661018,
EDW,2010-05-14 22:55:00+00,81.32,29.48,15.12,M,3.00,0.00,29.91,50.00,M,SCT,BKN,   ,None,6000.00,25000.00,M,M,KEDW 142255Z VRB03KT 50SM SCT060 BKN250 27/M01 A2991 RMK AO2A SLP102 T02741014,
EDW,2010-05-14 23:55:00+00,81.32,29.84,15.34,M,4.00,0.00,29.90,50.00,M,SCT,BKN,   ,None,6000.00,25000.00,M,M,KEDW 142355Z VRB04KT 50SM SCT060 BKN250 27/M01 A2990 RMK AO2A SLP097 T02741012 10279 20226 56016,
EDW,2010-05-15 00:55:00+00,80.78,32.54,17.41,230.00,10.00,0.00,29.89,50.00,14.00,SCT,SCT,BKN,None,6000.00,12000.00,25000.00,M,KEDW 150055Z 23010G14KT 50SM SCT060 SCT120 BKN250 27/00 A2989 RMK AO2A SLP099 T02710003,
EDW,2010-05-15 01:55:00+00,78.26,38.12,23.61,220.00,12.00,0.00,29.90,50.00,M,FEW,SCT,BKN,None,6000.00,12000.00,25000.00,M,KEDW 150155Z 22012KT 50SM FEW060 SCT120 BKN250 26/03 A2990 RMK AO2A SLP102 T02570034,
EDW,2010-05-15 02:55:00+00,74.48,36.14,24.76,230.00,14.00,0.00,29.92,50.00,M,FEW,FEW,SCT,None,6000.00,12000.00,25000.00,M,KEDW 150255Z 23014KT 50SM FEW060 FEW120 SCT250 24/02 A2992 RMK AO2A SLP106 T02360023 53007,
EDW,2010-05-15 03:55:00+00,70.88,33.08,24.75,230.00,12.00,0.00,29.94,30.00,M,FEW,   ,   ,None,25000.00,M,M,M,KEDW 150355Z 23012KT 30SM FEW250 22/01 A2994 RMK AO2A SLP109 T02160006,
EDW,2010-05-15 04:55:00+00,66.38,33.80,29.73,210.00,8.00,0.00,29.96,30.00,M,FEW,   ,   ,None,15000.00,M,M,M,KEDW 150455Z 21008KT 30SM FEW150 19/01 A2996 RMK AO2A SLP115 T01910010,
EDW,2010-05-15 05:55:00+00,62.96,37.58,38.92,210.00,6.00,0.00,29.96,10.00,M,CLR,   ,   ,None,M,M,M,M,KEDW 150555Z AUTO 21006KT 10SM CLR 17/03 A2996 RMK AO2 SLP118 T01720031 10276 20172 51014,
EDW,2010-05-15 06:55:00+00,60.44,41.00,48.62,170.00,6.00,0.00,29.96,10.00,M,CLR,   ,   ,None,M,M,M,M,KEDW 150655Z AUTO 17006KT 10SM CLR 16/05 A2996 RMK AO2 SLP118 T01580050,
EDW,2010-05-15 07:55:00+00,60.26,37.22,42.22,210.00,8.00,0.00,29.96,10.00,M,CLR,   ,   ,None,M,M,M,M,KEDW 150755Z AUTO 21008KT 10SM CLR 16/03 A2996 RMK AO2 SLP114 T01570029 402790083,
EDW,2010-05-15 08:55:00+00,58.46,39.38,49.00,210.00,7.00,0.00,29.95,10.00,M,CLR,   ,   ,None,M,M,M,M,KEDW 150855Z AUTO 21007KT 10SM CLR 15/04 A2995 RMK AO2 SLP112 T01470041 58003,
EDW,2010-05-15 09:55:00+00,54.68,40.46,58.58,220.00,6.00,0.00,29.96,10.00,M,CLR,   ,   ,None,M,M,M,M,KEDW 150955Z AUTO 22006KT 10SM CLR 13/05 A2996 RMK AO2 SLP115 T01260047,
EDW,2010-05-15 10:55:00+00,53.78,39.02,57.24,190.00,3.00,0.00,29.96,10.00,M,CLR,   ,   ,None,M,M,M,M,KEDW 151055Z AUTO 19003KT 10SM CLR 12/04 A2996 RMK AO2 SLP118 T01210039,
EDW,2010-05-15 11:55:00+00,51.98,35.60,53.45,0.00,0.00,0.00,29.97,10.00,M,CLR,   ,   ,None,M,M,M,M,KEDW 151155Z AUTO 00000KT 10SM CLR 11/02 A2997 RMK AO2 SLP122 T01110020 10171 20111 53005,
EDW,2010-05-15 12:55:00+00,50.72,36.32,57.62,0.00,0.00,0.00,29.98,85.00,M,FEW,   ,   ,None,8000.00,M,M,M,KEDW 151255Z 00000KT 85SM FEW080 10/02 A2998 RMK AO2A SLP125 T01040024,
EDW,2010-05-15 13:55:00+00,53.24,37.40,54.79,0.00,0.00,0.00,29.99,50.00,M,FEW,FEW,   ,None,8000.00,25000.00,M,M,KEDW 151355Z 00000KT 50SM FEW080 FEW250 12/03 A2999 RMK AO2A SLP131 T01180030,
EDW,2010-05-15 14:55:00+00,61.70,39.38,43.66,200.00,4.00,0.00,30.00,50.00,M,FEW,FEW,   ,None,8000.00,25000.00,M,M,KEDW 151455Z 20004KT 50SM FEW080 FEW250 17/04 A3000 RMK AO2A SLP132 T01650041 53011,
EDW,2010-05-15 15:55:00+00,68.36,40.46,36.10,200.00,5.00,0.00,30.01,50.00,M,FEW,FEW,FEW,None,5000.00,12000.00,25000.00,M,KEDW 151555Z 20005KT 50SM FEW050 FEW120 FEW250 20/05 A3001 RMK AO2A SLP131 T02020047,
EDW,2010-05-15 16:55:00+00,72.86,39.74,30.11,180.00,3.00,0.00,30.00,50.00,M,FEW,FEW,   ,None,5000.00,25000.00,M,M,KEDW 151655Z 18003KT 50SM FEW050 FEW250 23/04 A3000 RMK AO2A SLP129 T02270043 $,
EDW,2010-05-15 17:55:00+00,77.54,38.84,24.87,40.00,4.00,0.00,30.00,50.00,M,FEW,FEW,   ,None,5000.00,25000.00,M,M,KEDW 151755Z 04004KT 50SM FEW050 FEW250 25/04 A3000 RMK AO2A SLP127 T02530038 10253 20099 58002 $,
EDW,2010-05-15 18:55:00+00,79.70,33.62,18.84,M,5.00,0.00,29.99,50.00,M,FEW,FEW,   ,None,5000.00,25000.00,M,M,KEDW 151855Z VRB05KT 50SM FEW050 FEW250 27/01 A2999 RMK AO2A SLP124 T02650009 $,
EDW,2010-05-15 19:55:00+00,81.68,31.82,16.43,M,4.00,0.00,29.97,70.00,M,FEW,SCT,   ,None,5000.00,25000.00,M,M,KEDW 151955Z VRB04KT 70SM FEW050 SCT250 28/M00 A2997 RMK AO2A SLP114 T02761001,
EDW,2010-05-15 20:55:00+00,84.92,32.90,15.45,0.00,0.00,0.00,29.96,70.00,M,FEW,SCT,   ,None,5000.00,25000.00,M,M,KEDW 152055Z 00000KT 70SM FEW050 SCT250 29/00 A2996 RMK AO2A SLP110 T02940005 58013,
EDW,2010-05-15 21:55:00+00,85.28,31.64,14.52,M,6.00,0.00,29.94,70.00,M,FEW,SCT,   ,None,5000.00,25000.00,M,M,KEDW 152155Z VRB06KT 70SM FEW050 SCT250 30/M00 A2994 RMK AO2A SLP107 T02961002,
EDW,2010-05-15 22:55:00+00,85.10,31.46,14.50,30.00,5.00,0.00,29.92,70.00,M,FEW,SCT,   ,None,5000.00,25000.00,M,M,KEDW 152255Z 03005KT 70SM FEW050 SCT250 30/M00 A2992 RMK AO2A SLP099 T02951003,
EDW,2010-05-15 23:55:00+00,83.66,31.82,15.41,0.00,0.00,0.00,29.90,70.00,M,FEW,FEW,SCT,None,5000.00,12000.00,25000.00,M,KEDW 152355Z 00000KT 70SM FEW050 FEW120 SCT250 29/M00 A2990 RMK AO2A SLP096 T02871001 10302 20253 56018,
EDW,2010-05-16 00:55:00+00,84.74,37.22,18.45,240.00,12.00,0.00,29.89,70.00,19.00,FEW,FEW,SCT,None,6000.00,12000.00,25000.00,M,KEDW 160055Z 24012G19KT 70SM FEW060 FEW120 SCT250 29/03 A2989 RMK AO2A SLP093 T02930029,
EDW,2010-05-16 01:55:00+00,81.50,33.26,17.51,220.00,17.00,0.00,29.89,60.00,M,FEW,   ,   ,None,5000.00,M,M,M,KEDW 160155Z 22017KT 60SM FEW050 27/01 A2989 RMK AO2A SLP094 T02750007,
EDW,2010-05-16 02:55:00+00,77.00,32.18,19.44,230.00,13.00,0.00,29.91,60.00,M,FEW,   ,   ,None,5000.00,M,M,M,KEDW 160255Z 23013KT 60SM FEW050 25/00 A2991 RMK AO2A SLP097 T02500001 53003,
EDW,2010-05-16 03:55:00+00,73.40,32.72,22.40,230.00,11.00,0.00,29.93,30.00,M,FEW,   ,   ,None,25000.00,M,M,M,KEDW 160355Z 23011KT 30SM FEW250 23/00 A2993 RMK AO2A SLP101 T02300004,
EDW,2010-05-16 04:55:00+00,69.08,31.28,24.48,220.00,6.00,0.00,29.95,30.00,M,FEW,   ,   ,None,25000.00,M,M,M,KEDW 160455Z 22006KT 30SM FEW250 21/M00 A2995 RMK AO2A SLP106 T02061004,
EDW,2010-05-16 05:55:00+00,66.56,33.98,29.76,210.00,8.00,0.00,29.96,10.00,M,CLR,   ,   ,None,M,M,M,M,KEDW 160555Z AUTO 21008KT 10SM CLR 19/01 A2996 RMK AO2 SLP109 T01920011 10296 20189 51014 $,
EDW,2010-05-16 06:55:00+00,64.58,39.92,40.29,200.00,8.00,0.00,29.96,10.00,M,CLR,   ,   ,None,M,M,M,M,KEDW 160655Z AUTO 20008KT 10SM CLR 18/04 A2996 RMK AO2 SLP111 T01810044 $,
EDW,2010-05-16 07:55:00+00,62.24,36.50,38.26,190.00,8.00,0.00,29.96,10.00,M,CLR,   ,   ,None,M,M,M,M,KEDW 160755Z AUTO 19008KT 10SM CLR 17/03 A2996 RMK AO2 SLP110 T01680025 403020099 $,
EDW,2010-05-16 08:55:00+00,62.24,36.50,38.26,200.00,7.00,0.00,29.94,10.00,M,CLR,   ,   ,None,M,M,M,M,KEDW 160855Z AUTO 20007KT 10SM CLR 17/02 A2994 RMK AO2 SLP102 T01680025 58004 $,
EDW,2010-05-16 09:55:00+00,56.84,37.04,47.39,220.00,7.00,0.00,29.94,10.00,M,CLR,   ,   ,None,M,M,M,M,KEDW 160955Z AUTO 22007KT 10SM CLR 14/03 A2994 RMK AO2 SLP103 T01380028 $,
EDW,2010-05-16 10:55:00+00,56.84,38.12,49.44,220.00,6.00,0.00,29.93,10.00,M,CLR,   ,   ,None,M,M,M,M,KEDW 161055Z AUTO 22006KT 10SM CLR 14/03 A2993 RMK AO2 SLP100 T01380034 $,
EDW,2010-05-16 11:55:00+00,54.14,37.58,53.39,190.00,3.00,0.00,29.93,10.00,M,CLR,   ,   ,None,M,M,M,M,KEDW 161155Z AUTO 19003KT 10SM CLR 12/03 A2993 RMK AO2 SLP107 T01230031 10190 20120 55003 $,
EDW,2010-05-16 12:55:00+00,51.44,35.60,54.53,0.00,0.00,0.00,29.93,50.00,M,CLR,   ,   ,None,M,M,M,M,KEDW 161255Z 00000KT 50SM CLR 11/02 A2993 RMK AO2A SLP106 T01080020,
EDW,2010-05-16 13:55:00+00,56.12,37.94,50.39,0.00,0.00,0.00,29.94,50.00,M,CLR,   ,   ,None,M,M,M,M,KEDW 161355Z 00000KT 50SM CLR 13/03 A2994 RMK AO2A SLP109 T01340033,
EDW,2010-05-16 14:55:00+00,61.52,37.94,41.53,0.00,0.00,0.00,29.94,50.00,M,CLR,   ,   ,None,M,M,M,M,KEDW 161455Z 00000KT 50SM CLR 16/03 A2994 RMK AO2A SLP107 T01640033 52002,
EDW,2010-05-16 15:55:00+00,69.62,38.30,31.78,270.00,3.00,0.00,29.94,50.00,M,CLR,   ,   ,None,M,M,M,M,KEDW 161555Z 27003KT 50SM CLR 21/03 A2994 RMK AO2A SLP104 T02090035,
EDW,2010-05-16 16:55:00+00,74.12,38.48,27.48,0.00,0.00,0.00,29.93,50.00,M,FEW,   ,   ,None,4200.00,M,M,M,KEDW 161655Z 00000KT 50SM FEW042 23/04 A2993 RMK AO2A SLP099 T02340036,
EDW,2010-05-16 17:55:00+00,77.36,39.38,25.55,20.00,4.00,0.00,29.91,50.00,M,FEW,   ,   ,None,4200.00,M,M,M,KEDW 161755Z 02004KT 50SM FEW042 25/04 A2991 RMK AO2A SLP095 T02520041 10254 20107 58008,
EDW,2010-05-16 18:55:00+00,81.50,30.38,15.59,340.00,5.00,0.00,29.89,50.00,M,FEW,   ,   ,None,4200.00,M,M,M,KEDW 161855Z 34005KT 50SM FEW042 27/M01 A2989 RMK AO2A SLP085 T02751009,
EDW,2010-05-16 19:55:00+00,84.74,34.34,16.46,240.00,10.00,0.00,29.86,70.00,M,FEW,FEW,   ,None,5000.00,25000.00,M,M,KEDW 161955Z 24010KT 70SM FEW050 FEW250 29/01 A2986 RMK AO2A SLP075 T02930013,
EDW,2010-05-16 20:55:00+00,87.26,32.36,14.03,170.00,11.00,0.00,29.84,70.00,15.00,FEW,FEW,   ,None,5000.00,25000.00,M,M,KEDW 162055Z 17011G15KT 70SM FEW050 FEW250 31/00 A2984 RMK AO2A SLP065 CONTRAILS T03070002 56022,
EDW,2010-05-16 21:30:00+00,87.80,32.00,13.59,230.00,19.00,0.00,29.83,70.00,24.00,FEW,FEW,   ,None,5000.00,25000.00,M,M,KEDW 162130Z 23019G24KT 70SM FEW050 FEW250 31/M00 A2983 RMK AO2A WSHFT 2115,
EDW,2010-05-16 21:55:00+00,87.98,33.80,14.53,250.00,12.00,0.00,29.83,70.00,23.00,FEW,SCT,   ,None,5000.00,30000.00,M,M,KEDW 162155Z 25012G23KT 70SM FEW050 SCT300 31/01 A2983 RMK AO2A WSHFT 2115 SLP065 T03110010,
EDW,2010-05-16 22:55:00+00,87.98,31.46,13.23,220.00,14.00,0.00,29.82,70.00,23.00,FEW,SCT,   ,None,5000.00,30000.00,M,M,KEDW 162255Z 22014G23KT 70SM FEW050 SCT300 31/M00 A2982 RMK AO2A SLP062 T03111003,
EDW,2010-05-16 23:55:00+00,84.56,37.22,18.56,240.00,24.00,0.00,29.81,70.00,29.00,FEW,BKN,   ,None,5000.00,35000.00,M,M,KEDW 162355Z 24024G29KT 70SM FEW050 BKN350 29/03 A2981 RMK AO2A SLP063 T02920029 10318 20255 56010,
EDW,2010-05-17 00:55:00+00,83.12,33.62,16.85,240.00,22.00,0.00,29.81,70.00,27.00,FEW,BKN,   ,None,30000.00,35000.00,M,M,KEDW 170055Z 24022G27KT 70SM FEW300 BKN350 28/01 A2981 RMK AO2A PK WND 23030/0037 SLP065 T02840009,
EDW,2010-05-17 01:55:00+00,79.88,27.50,14.61,230.00,19.00,0.00,29.81,70.00,23.00,FEW,BKN,   ,None,30000.00,35000.00,M,M,KEDW 170155Z 23019G23KT 70SM FEW300 BKN350 27/M03 A2981 RMK AO2A PK WND 23029/0116 SLP066 T02661025,
EDW,2010-05-17 02:55:00+00,75.56,33.44,21.45,230.00,12.00,0.00,29.82,60.00,M,FEW,BKN,   ,None,25000.00,30000.00,M,M,KEDW 170255Z 23012KT 60SM FEW250 BKN300 24/01 A2982 RMK AO2A SLP069 T02420008 53003,
EDW,2010-05-17 03:55:00+00,70.34,38.84,31.67,220.00,9.00,0.00,29.84,30.00,M,BKN,   ,   ,None,30000.00,M,M,M,KEDW 170355Z 22009KT 30SM BKN300 21/04 A2984 RMK AO2A SLP073 T02130038,
EDW,2010-05-17 04:55:00+00,66.38,35.96,32.40,210.00,7.00,0.00,29.87,30.00,M,FEW,BKN,   ,None,15000.00,25000.00,M,M,KEDW 170455Z 21007KT 30SM FEW150 BKN250 19/02 A2987 RMK AO2A SLP082 T01910022,
EDW,2010-05-17 05:55:00+00,65.84,36.32,33.49,200.00,9.00,0.00,29.87,10.00,M,CLR,   ,   ,None,M,M,M,M,KEDW 170555Z AUTO 20009KT 10SM CLR 19/02 A2987 RMK AO2 SLP081 T01880024 10292 20185 51016 $,
EDW,2010-05-17 06:55:00+00,64.40,39.20,39.43,210.00,10.00,0.00,29.86,10.00,M,CLR,   ,   ,None,M,M,M,M,KEDW 170655Z AUTO 21010KT 10SM CLR 18/04 A2986 RMK AO2 SLP074 T01800040 $,
EDW,2010-05-17 07:55:00+00,61.70,37.58,40.69,220.00,7.00,0.00,29.85,10.00,M,CLR,   ,   ,None,M,M,M,M,KEDW 170755Z AUTO 22007KT 10SM CLR 16/03 A2985 RMK AO2 SLP071 T01650031 403180107 $,
EDW,2010-05-17 08:55:00+00,63.14,34.52,34.26,230.00,6.00,0.00,29.84,10.00,M,CLR,   ,   ,None,M,M,M,M,KEDW 170855Z AUTO 23006KT 10SM CLR 17/01 A2984 RMK AO2 SLP066 T01730014 56009 $,
EDW,2010-05-17 09:55:00+00,63.14,34.88,34.76,230.00,11.00,0.00,29.83,10.00,M,CLR,   ,   ,None,M,M,M,M,KEDW 170955Z AUTO 23011KT 10SM CLR 17/02 A2983 RMK AO2 SLP063 T01730016 $,
EDW,2010-05-17 10:55:00+00,61.16,41.72,48.73,210.00,11.00,0.00,29.84,10.00,M,CLR,   ,   ,None,M,M,M,M,KEDW 171055Z AUTO 21011KT 10SM CLR 16/05 A2984 RMK AO2 SLP065 T01620054 $,
EDW,2010-05-17 11:50:00+00,59.00,42.80,54.86,230.00,12.00,0.00,29.85,10.00,M,BKN,   ,   ,None,16000.00,M,M,M,KEDW 171150Z AUTO 23012KT 10SM BKN160 15/06 A2985 RMK AO2 SLP073 $,
EDW,2010-05-17 11:52:00+00,59.00,42.80,54.86,230.00,13.00,0.00,29.85,10.00,M,SCT,   ,   ,None,16000.00,M,M,M,KEDW 171152Z AUTO 23013KT 10SM SCT160 15/06 A2985 RMK AO2 SLP073 $,
EDW,2010-05-17 11:55:00+00,59.18,43.34,55.65,230.00,14.00,0.00,29.85,10.00,M,SCT,   ,   ,None,16000.00,M,M,M,KEDW 171155Z AUTO 23014KT 10SM SCT160 15/06 A2985 RMK AO2 SLP073 T01510063 10187 20151 53002 $,
EDW,2010-05-17 11:58:00+00,59.00,42.80,54.86,220.00,12.00,0.00,29.85,10.00,M,BKN,   ,   ,None,16000.00,M,M,M,KEDW 171158Z AUTO 22012KT 10SM BKN160 15/06 A2985 RMK AO2 SLP073 $,
EDW,2010-05-17 12:55:00+00,57.02,45.68,65.74,220.00,14.00,0.00,29.85,50.00,18.00,FEW,SCT,OVC,None,5000.00,10000.00,18000.00,M,KEDW 171255Z 22014G18KT 50SM FEW050 SCT100 OVC180 14/08 A2985 RMK AO2A SLP075 RADAT 24120 T01390076,
EDW,2010-05-17 13:55:00+00,58.10,44.60,60.69,220.00,12.00,0.00,29.86,85.00,17.00,FEW,SCT,OVC,None,5000.00,10000.00,18000.00,M,KEDW 171355Z 22012G17KT 85SM FEW050 SCT100 OVC180 15/07 A2986 RMK AO2A SLP080 T01450070,
EDW,2010-05-17 14:55:00+00,62.78,38.66,40.86,200.00,12.00,0.00,29.87,50.00,16.00,FEW,SCT,BKN,None,3000.00,10000.00,15000.00,M,KEDW 171455Z 20012G16KT 50SM FEW030 SCT100 BKN150 OVC180 17/04 A2987 RMK AO2A SLP081 T01710037 53005,
EDW,2010-05-17 15:55:00+00,65.48,37.40,35.38,210.00,12.00,0.00,29.86,80.00,M,FEW,SCT,BKN,None,3000.00,10000.00,13000.00,M,KEDW 171555Z 21012KT 80SM FEW030 SCT100 BKN130 OVC180 19/03 A2986 RMK AO2A SLP083 T01860030,
EDW,2010-05-17 16:55:00+00,65.84,40.82,39.94,250.00,17.00,0.00,29.88,85.00,M,FEW,FEW,SCT,None,3000.00,5000.00,9000.00,M,KEDW 171655Z 25017KT 85SM FEW030 FEW050 SCT090 BKN120 OVC180 19/05 A2988 RMK AO2A SLP092 T01880049,
EDW,2010-05-17 17:55:00+00,63.86,42.80,46.19,230.00,19.00,0.00,29.88,85.00,M,FEW,FEW,SCT,None,3000.00,5000.00,9000.00,M,KEDW 171755Z 23019KT 85SM FEW030 FEW050 SCT090 BKN120 OVC180 18/06 A2988 RMK AO2A PK WND 23029/1723 SLP096 T01770060 10198 20138 53006,
EDW,2010-05-17 18:55:00+00,66.74,34.52,30.22,220.00,15.00,0.00,29.89,85.00,M,FEW,FEW,SCT,None,3000.00,5000.00,9000.00,M,KEDW 171855Z 22015KT 85SM FEW030 FEW050 SCT090 BKN120 OVC180 19/01 A2989 RMK AO2A SLP094 T01930014,
EDW,2010-05-17 19:55:00+00,70.34,38.12,30.79,230.00,20.00,0.00,29.87,80.00,26.00,FEW,BKN,BKN,None,3000.00,14000.00,18000.00,M,KEDW 171955Z 23020G26KT 80SM FEW030 BKN140 BKN180 21/03 A2987 RMK AO2A SLP090 T02130034,
EDW,2010-05-17 20:55:00+00,67.64,43.16,41.06,230.00,24.00,0.00,29.88,80.00,31.00,FEW,SCT,OVC,None,3000.00,12000.00,14000.00,M,KEDW 172055Z 23024G31KT 80SM FEW030 SCT120 OVC140 20/06 A2988 RMK AO2A ACSL W SLP092 T01980062 55001,
EDW,2010-05-17 21:55:00+00,64.94,44.78,47.97,230.00,19.00,0.00,29.91,80.00,25.00,FEW,BKN,OVC,None,3000.00,13000.00,18000.00,M,KEDW 172155Z 23019G25KT 80SM FEW030 BKN130 OVC180 18/07 A2991 RMK AO2A PK WND 23033/2115 SLP104 T01830071,
EDW,2010-05-17 22:55:00+00,61.88,45.32,54.52,230.00,21.00,0.00,29.91,80.00,26.00,FEW,BKN,OVC,None,3000.00,11000.00,15000.00,M,KEDW 172255Z 23021G26KT 80SM VCSH FEW030 BKN110 OVC150 17/07 A2991 RMK AO2A PK WND 23029/2228 SLP110 T01660074,
EDW,2010-05-17 23:55:00+00,61.52,45.50,55.60,220.00,18.00,0.00,29.90,10.00,26.00,FEW,BKN,OVC,None,3000.00,9000.00,15000.00,M,KEDW 172355Z 22018G26KT 10SM VCSH FEW030 BKN090 OVC150 16/08 A2990 RMK AO2A PK WND 23027/2337 VIS LWR S-SW IN SHRA SLP109 T01640075 10218 20162 50007,
EDW,2010-05-18 00:08:00+00,60.80,44.60,55.12,210.00,15.00,0.00,29.90,75.00,M,FEW,BKN,OVC,None,3000.00,9000.00,14000.00,M,KEDW 180008Z 21015KT 75SM -SHRA FEW030 BKN090 OVC140 16/07 A2990 RMK AO2A VIS LWR S-W SLP107,
EDW,2010-05-18 00:44:00+00,59.00,48.20,67.33,220.00,19.00,0.00,29.90,50.00,28.00,FEW,FEW,BKN,None,3000.00,6000.00,10000.00,M,KEDW 180044Z 22019G28KT 50SM VCSH FEW030 FEW060 BKN100 BKN150 15/09 A2990 RMK AO2A SLP111,
EDW,2010-05-18 00:55:00+00,58.64,47.30,65.94,220.00,13.00,0.00,29.90,50.00,18.00,FEW,FEW,SCT,None,3000.00,5000.00,8000.00,M,KEDW 180055Z 22013G18KT 50SM FEW030 FEW050 SCT080 BKN110 15/09 A2990 RMK AO2A PK WND 21028/0034 SLP114 P0000 T01480085,
EDW,2010-05-18 01:55:00+00,57.56,46.58,66.71,220.00,18.00,0.00,29.91,50.00,M,FEW,FEW,BKN,None,3000.00,6500.00,10000.00,M,KEDW 180155Z 22018KT 50SM FEW030 FEW065 BKN100 14/08 A2991 RMK AO2A ACSL ALQDS SLP115 T01420081,
EDW,2010-05-18 02:55:00+00,55.58,46.22,70.69,220.00,19.00,0.00,29.92,30.00,28.00,FEW,BKN,   ,None,3000.00,10000.00,M,M,KEDW 180255Z 22019G28KT 30SM FEW030 BKN100 13/08 A2992 RMK AO2A PK WND 23031/0230 SLP118 60000 T01310079 53006,
EDW,2010-05-18 03:55:00+00,53.78,46.22,75.49,220.00,17.00,0.00,29.94,30.00,24.00,SCT,   ,   ,None,12000.00,M,M,M,KEDW 180355Z 22017G24KT 30SM SCT120 12/08 A2994 RMK AO2A PK WND 21027/0307 SLP123 T01210079,
EDW,2010-05-18 04:55:00+00,52.88,46.58,79.09,220.00,16.00,0.00,29.94,30.00,20.00,SCT,   ,   ,None,12000.00,M,M,M,KEDW 180455Z 22016G20KT 30SM SCT120 12/08 A2994 RMK AO2A SLP125 T01160081,
EDW,2010-05-18 05:55:00+00,51.80,46.94,83.42,220.00,17.00,0.00,29.94,10.00,24.00,CLR,   ,   ,None,M,M,M,M,KEDW 180555Z AUTO 22017G24KT 10SM CLR 11/08 A2994 RMK AO2 SLP125 60000 T01100083 10164 20110 50004,
EDW,2010-05-18 06:55:00+00,51.62,46.76,83.41,220.00,16.00,0.00,29.94,10.00,23.00,CLR,   ,   ,None,M,M,M,M,KEDW 180655Z AUTO 22016G23KT 10SM CLR 11/08 A2994 RMK AO2 SLP123 T01090082,
EDW,2010-05-18 07:55:00+00,50.36,47.30,89.19,220.00,15.00,0.00,29.93,10.00,21.00,CLR,   ,   ,None,M,M,M,M,KEDW 180755Z AUTO 22015G21KT 10SM CLR 10/08 A2993 RMK AO2 SLP118 T01020085 402180102,
EDW,2010-05-18 08:55:00+00,49.82,46.22,87.36,220.00,12.00,0.00,29.94,10.00,M,CLR,   ,   ,None,M,M,M,M,KEDW 180855Z AUTO 22012KT 10SM CLR 10/08 A2994 RMK AO2 SLP123 T00990079 54000,
EDW,2010-05-18 09:55:00+00,49.28,47.66,94.11,220.00,13.00,0.00,29.94,10.00,M,CLR,   ,   ,None,M,M,M,M,KEDW 180955Z AUTO 22013KT 10SM CLR 10/09 A2994 RMK AO2 SLP126 T00960087,
EDW,2010-05-18 10:55:00+00,49.64,48.02,94.12,230.00,15.00,0.00,29.94,10.00,M,CLR,   ,   ,None,M,M,M,M,KEDW 181055Z AUTO 23015KT 10SM CLR 10/09 A2994 RMK AO2 SLP129 T00980089,
EDW,2010-05-18 11:55:00+00,49.10,48.02,96.04,230.00,14.00,0.00,29.95,10.00,M,CLR,   ,   ,None,M,M,M,M,KEDW 181155Z AUTO 23014KT 10SM CLR 10/09 A2995 RMK AO2 SLP133 T00950089 10111 20095 53004,
EDW,2010-05-18 12:22:00+00,48.20,48.20,100.00,220.00,13.00,0.00,29.95,50.00,M,FEW,SCT,   ,None,5000.00,25000.00,M,M,KEDW 181222Z 22013KT 50SM FEW050 SCT250 09/09 A2995 RMK AO2A,
EDW,2010-05-18 12:55:00+00,48.38,48.20,99.33,220.00,9.00,0.00,29.96,50.00,M,FEW,FEW,SCT,None,3000.00,15000.00,25000.00,M,KEDW 181255Z 22009KT 50SM FEW030 FEW150 SCT250 09/09 A2996 RMK AO2A SLP141 RADAT 23098 T00910090,
EDW,2010-05-18 13:55:00+00,50.54,48.92,94.15,220.00,11.00,0.00,29.98,85.00,M,FEW,FEW,FEW,None,3000.00,5000.00,15000.00,M,KEDW 181355Z 22011KT 85SM FEW030 FEW050 FEW150 SCT250 10/09 A2998 RMK AO2A SLP145 CONTRAILS T01030094,
EDW,2010-05-18 14:55:00+00,55.22,47.66,75.62,220.00,15.00,0.00,29.99,50.00,M,FEW,FEW,FEW,None,3000.00,5000.00,15000.00,M,KEDW 181455Z 22015KT 50SM FEW030 FEW050 FEW150 SCT250 13/09 A2999 RMK AO2A SLP146 CONTRAILS T01290087 51012,
EDW,2010-05-18 15:55:00+00,59.54,47.12,63.42,220.00,14.00,0.00,30.00,50.00,M,FEW,FEW,FEW,None,3000.00,5000.00,15000.00,M,KEDW 181555Z 22014KT 50SM FEW030 FEW050 FEW150 SCT250 15/08 A3000 RMK AO2A SLP149 CONTRAILS T01530084,
EDW,2010-05-18 16:55:00+00,63.68,45.50,51.53,230.00,14.00,0.00,30.00,50.00,M,FEW,FEW,BKN,None,2000.00,5000.00,25000.00,M,KEDW 181655Z 23014KT 50SM FEW020 FEW050 BKN250 18/08 A3000 RMK AO2A SLP144 CONTRAILS T01760075,
EDW,2010-05-18 17:55:00+00,65.30,45.68,49.02,230.00,18.00,0.00,30.00,50.00,23.00,FEW,BKN,   ,None,3800.00,25000.00,M,M,KEDW 181755Z 23018G23KT 50SM FEW038 BKN250 19/08 A3000 RMK AO2A SLP144 CONTRAILS T01850076 10185 20091 51004,
EDW,2010-05-18 18:55:00+00,67.46,44.42,43.36,230.00,16.00,0.00,29.99,50.00,23.00,FEW,BKN,   ,None,3800.00,25000.00,M,M,KEDW 181855Z 23016G23KT 50SM FEW038 BKN250 20/07 A2999 RMK AO2A PK WND 23027/1831 SLP143 T01970069,
EDW,2010-05-18 19:55:00+00,68.54,43.52,40.36,220.00,18.00,0.00,29.99,50.00,25.00,FEW,BKN,   ,None,3800.00,25000.00,M,M,KEDW 181955Z 22018G25KT 50SM FEW038 BKN250 20/06 A2999 RMK AO2A PK WND 22026/1939 SLP140 CONTRAILS T02030064,
EDW,2010-05-18 20:55:00+00,69.98,43.52,38.42,220.00,22.00,0.00,29.97,50.00,28.00,FEW,BKN,   ,None,4000.00,25000.00,M,M,KEDW 182055Z 22022G28KT 50SM FEW040 BKN250 21/06 A2997 RMK AO2A SLP136 CONTRAILS T02110064 58008,
EDW,2010-05-18 21:55:00+00,69.08,45.86,43.32,210.00,22.00,0.00,29.97,85.00,32.00,FEW,BKN,   ,None,4000.00,25000.00,M,M,KEDW 182155Z 21022G32KT 85SM FEW040 BKN250 21/08 A2997 RMK AO2A SLP134 T02060077,
EDW,2010-05-18 22:55:00+00,69.44,46.04,43.08,230.00,18.00,0.00,29.96,85.00,31.00,FEW,BKN,   ,None,4000.00,25000.00,M,M,KEDW 182255Z 23018G31KT 85SM FEW040 BKN250 21/08 A2996 RMK AO2A PK WND 23032/2243 SLP131 T02080078,
EDW,2010-05-18 23:55:00+00,71.06,42.26,35.29,250.00,21.00,0.00,29.94,85.00,28.00,FEW,BKN,   ,None,4000.00,25000.00,M,M,KEDW 182355Z 25021G28KT 85SM FEW040 BKN250 22/06 A2994 RMK AO2A PK WND 24031/2306 SLP122 T02170057 10217 20186 58010,
EDW,2010-05-19 01:55:00+00,66.56,43.52,43.22,270.00,18.00,0.00,29.93,80.00,25.00,FEW,BKN,   ,None,4000.00,25000.00,M,M,KEDW 190155Z 27018G25KT 80SM FEW040 BKN250 19/06 A2993 RMK AO2A PK WND 27033/0117 SLP122 T01920064,
EDW,2010-05-19 02:55:00+00,64.22,42.62,45.29,250.00,16.00,0.00,29.95,50.00,M,FEW,BKN,   ,None,4000.00,25000.00,M,M,KEDW 190255Z 25016KT 50SM FEW040 BKN250 18/06 A2995 RMK AO2A PK WND 26029/0202 SLP126 T01790059 53002,
EDW,2010-05-19 03:55:00+00,62.42,42.08,47.26,250.00,16.00,0.00,29.97,30.00,M,FEW,   ,   ,None,25000.00,M,M,M,KEDW 190355Z 25016KT 30SM FEW250 17/06 A2997 RMK AO2A SLP130 T01690056,
EDW,2010-05-19 04:55:00+00,61.34,41.72,48.42,230.00,15.00,0.00,29.98,30.00,22.00,CLR,   ,   ,None,M,M,M,M,KEDW 190455Z 23015G22KT 30SM CLR 16/05 A2998 RMK AO2A SLP133 T01630054,
EDW,2010-05-19 05:55:00+00,60.26,41.72,50.31,250.00,13.00,0.00,29.98,10.00,M,CLR,   ,   ,None,M,M,M,M,KEDW 190555Z AUTO 25013KT 10SM CLR 16/05 A2998 RMK AO2 SLP131 T01570054 10218 20156 50009,
EDW,2010-05-19 06:55:00+00,59.72,42.98,53.84,240.00,10.00,0.00,29.98,10.00,M,CLR,   ,   ,None,M,M,M,M,KEDW 190655Z AUTO 24010KT 10SM CLR 15/06 A2998 RMK AO2 SLP129 T01540061,
EDW,2010-05-19 07:55:00+00,58.82,42.62,54.83,210.00,7.00,0.00,29.98,10.00,M,CLR,   ,   ,None,M,M,M,M,KEDW 190755Z AUTO 21007KT 10SM CLR 15/06 A2998 RMK AO2 SLP130 T01490059 402190091,
EDW,2010-05-19 08:55:00+00,55.76,42.44,60.80,170.00,7.00,0.00,29.99,10.00,M,CLR,   ,   ,None,M,M,M,M,KEDW 190855Z AUTO 17007KT 10SM CLR 13/06 A2999 RMK AO2 SLP135 T01320058 53004,
EDW,2010-05-19 09:55:00+00,56.66,45.68,66.60,220.00,6.00,0.00,29.99,10.00,M,CLR,   ,   ,None,M,M,M,M,KEDW 190955Z AUTO 22006KT 10SM CLR 14/08 A2999 RMK AO2 SLP136 T01370076,
EDW,2010-05-19 10:55:00+00,55.94,45.32,67.44,170.00,9.00,0.00,30.00,10.00,M,CLR,   ,   ,None,M,M,M,M,KEDW 191055Z AUTO 17009KT 10SM CLR 13/07 A3000 RMK AO2 SLP137 T01330074,
EDW,2010-05-19 11:55:00+00,54.68,44.96,69.64,190.00,10.00,0.00,29.99,10.00,M,CLR,   ,   ,None,M,M,M,M,KEDW 191155Z AUTO 19010KT 10SM CLR 13/07 A2999 RMK AO2 SLP134 T01260072 10158 20125 58001,
EDW,2010-05-19 12:32:00+00,55.40,44.60,66.91,190.00,7.00,0.00,30.00,50.00,M,CLR,   ,   ,None,M,M,M,M,KEDW 191232Z 19007KT 50SM CLR 13/07 A3000 RMK AO2A,
EDW,2010-05-19 12:55:00+00,52.88,44.96,74.38,210.00,7.00,0.00,30.00,80.00,M,CLR,   ,   ,None,M,M,M,M,KEDW 191255Z 21007KT 80SM CLR 12/07 A3000 RMK AO2A SLP140 RADAT 49130 T01160072,
EDW,2010-05-19 13:55:00+00,55.04,45.86,71.12,230.00,4.00,0.00,30.02,50.00,M,CLR,   ,   ,None,M,M,M,M,KEDW 191355Z 23004KT 50SM CLR 13/08 A3002 RMK AO2A SLP150 RADAT 55126 T01280077,
EDW,2010-05-19 14:55:00+00,57.20,44.60,62.69,360.00,4.00,0.00,30.03,50.00,M,CLR,   ,   ,None,M,M,M,M,KEDW 191455Z 36004KT 50SM CLR 14/07 A3003 RMK AO2A SLP153 T01400070 52015,
EDW,2010-05-19 15:55:00+00,63.50,44.78,50.45,0.00,0.00,0.00,30.05,50.00,M,CLR,   ,   ,None,M,M,M,M,KEDW 191555Z 00000KT 50SM CLR 18/07 A3005 RMK AO2A SLP154 T01750071,
EDW,2010-05-19 16:55:00+00,66.92,42.80,41.52,0.00,0.00,0.00,30.04,50.00,M,CLR,   ,   ,None,M,M,M,M,KEDW 191655Z 00000KT 50SM CLR 19/06 A3004 RMK AO2A SLP149 T01940060,
EDW,2010-05-19 17:55:00+00,72.68,40.82,31.60,100.00,5.00,0.00,30.04,50.00,M,FEW,   ,   ,None,6000.00,M,M,M,KEDW 191755Z 10005KT 50SM FEW060 23/05 A3004 RMK AO2A SLP146 T02260049 10226 20116 50001,
EDW,2010-05-19 18:55:00+00,76.64,43.34,30.49,110.00,6.00,0.00,30.01,85.00,M,FEW,   ,   ,None,6000.00,M,M,M,KEDW 191855Z 11006KT 85SM FEW060 25/06 A3001 RMK AO2A SLP134 T02480063,
EDW,2010-05-19 19:55:00+00,80.60,43.88,27.32,60.00,7.00,0.00,29.99,85.00,M,FEW,   ,   ,None,5000.00,M,M,M,KEDW 191955Z 06007KT 85SM FEW050 27/07 A2999 RMK AO2A SLP123 T02700066,
EDW,2010-05-19 20:55:00+00,83.66,42.80,23.74,260.00,13.00,0.00,29.97,85.00,20.00,FEW,   ,   ,None,6000.00,M,M,M,KEDW 192055Z 26013G20KT 85SM FEW060 29/06 A2997 RMK AO2A SLP116 T02870060 56022,
EDW,2010-05-19 21:55:00+00,84.02,42.98,23.63,270.00,14.00,0.00,29.94,90.00,21.00,FEW,   ,   ,None,5000.00,M,M,M,KEDW 192155Z 27014G21KT 90SM FEW050 29/06 A2994 RMK AO2A SLP108 T02890061,
EDW,2010-05-19 22:55:00+00,81.68,44.06,26.56,280.00,22.00,0.00,29.93,85.00,29.00,FEW,   ,   ,None,5000.00,M,M,M,KEDW 192255Z 28022G29KT 85SM FEW050 28/07 A2993 RMK AO2A PK WND 27031/2240 SLP102 T02760067,
EDW,2010-05-19 23:55:00+00,80.60,46.22,29.87,280.00,22.00,0.00,29.92,80.00,27.00,FEW,   ,   ,None,5000.00,M,M,M,KEDW 192355Z 28022G27KT 80SM FEW050 27/08 A2992 RMK AO2A PK WND 27032/2305 SLP102 T02700079 10292 20227 56015,
EDW,2010-05-20 00:55:00+00,78.44,45.86,31.63,280.00,23.00,0.00,29.92,80.00,30.00,FEW,   ,   ,None,4000.00,M,M,M,KEDW 200055Z 28023G30KT 80SM FEW040 26/08 A2992 RMK AO2A SLP104 T02580077,
EDW,2010-05-20 01:55:00+00,74.84,45.86,35.64,270.00,21.00,0.00,29.94,80.00,31.00,FEW,   ,   ,None,4000.00,M,M,M,KEDW 200155Z 27021G31KT 80SM FEW040 24/08 A2994 RMK AO2A SLP114 T02380077,
EDW,2010-05-20 02:55:00+00,70.88,45.68,40.46,270.00,18.00,0.00,29.96,50.00,25.00,CLR,   ,   ,None,M,M,M,M,KEDW 200255Z 27018G25KT 50SM CLR 22/08 A2996 RMK AO2A PK WND 27036/0220 SLP123 T02160076 53013,
EDW,2010-05-20 03:55:00+00,69.62,44.24,39.98,260.00,26.00,0.00,29.96,30.00,34.00,CLR,   ,   ,None,M,M,M,M,KEDW 200355Z 26026G34KT 30SM CLR 21/07 A2996 RMK AO2A SLP118 T02090068,
EDW,2010-05-20 04:55:00+00,68.90,42.62,38.52,250.00,21.00,0.00,29.99,30.00,30.00,CLR,   ,   ,None,M,M,M,M,KEDW 200455Z 25021G30KT 30SM CLR 20/06 A2999 RMK AO2A PK WND 26036/0414 SLP127 T02050059,
EDW,2010-05-20 05:55:00+00,68.36,44.42,42.04,260.00,25.00,0.00,29.98,10.00,32.00,CLR,   ,   ,None,M,M,M,M,KEDW 200555Z AUTO 26025G32KT 10SM CLR 20/07 A2998 RMK AO2 PK WND 27032/0548 SLP122 T02020069 10271 20202 50007,
EDW,2010-05-20 06:55:00+00,67.28,43.52,42.15,270.00,23.00,0.00,30.00,10.00,32.00,CLR,   ,   ,None,M,M,M,M,KEDW 200655Z AUTO 27023G32KT 10SM CLR 20/06 A3000 RMK AO2 PK WND 27036/0631 SLP124 T01960064,
EDW,2010-05-20 07:55:00+00,66.92,39.74,36.89,270.00,18.00,0.00,30.00,10.00,M,CLR,   ,   ,None,M,M,M,M,KEDW 200755Z AUTO 27018KT 10SM CLR 19/04 A3000 RMK AO2 PK WND 27034/0701 SLP124 T01940043 402920116,
EDW,2010-05-20 08:55:00+00,62.24,43.52,50.26,210.00,15.00,0.00,29.99,10.00,19.00,CLR,   ,   ,None,M,M,M,M,KEDW 200855Z AUTO 21015G19KT 10SM CLR 17/06 A2999 RMK AO2 SLP119 T01680064 50002,
EDW,2010-05-20 09:55:00+00,60.26,44.42,55.80,220.00,16.00,0.00,29.97,10.00,22.00,CLR,   ,   ,None,M,M,M,M,KEDW 200955Z AUTO 22016G22KT 10SM CLR 16/07 A2997 RMK AO2 SLP116 T01570069,
EDW,2010-05-20 10:55:00+00,59.90,45.14,58.09,240.00,14.00,0.00,29.96,10.00,19.00,CLR,   ,   ,None,M,M,M,M,KEDW 201055Z AUTO 24014G19KT 10SM CLR 15/07 A2996 RMK AO2 SLP112 T01550073,
EDW,2010-05-20 11:55:00+00,59.00,46.94,64.22,230.00,18.00,0.00,29.96,10.00,M,CLR,   ,   ,None,M,M,M,M,KEDW 201155Z AUTO 23018KT 10SM CLR 15/08 A2996 RMK AO2 PK WND 24026/1108 SLP115 T01500083 10201 20150 56008,
EDW,2010-05-20 12:55:00+00,59.90,47.48,63.46,210.00,12.00,0.00,29.97,85.00,21.00,FEW,   ,   ,None,5000.00,M,M,M,KEDW 201255Z 21012G21KT 85SM FEW050 15/09 A2997 RMK AO2A PK WND 23026/1223 SLP116 RADAT 20145 T01550086,
EDW,2010-05-20 13:55:00+00,60.62,48.20,63.55,210.00,15.00,0.00,29.98,85.00,M,FEW,   ,   ,None,5000.00,M,M,M,KEDW 201355Z 21015KT 85SM FEW050 16/09 A2998 RMK AO2A SLP122 T01590090,
EDW,2010-05-20 14:55:00+00,64.76,48.56,55.68,250.00,22.00,0.00,29.95,85.00,M,FEW,   ,   ,None,5000.00,M,M,M,KEDW 201455Z 25022KT 85SM FEW050 18/09 A2995 RMK AO2A SLP114 T01820092 58003,
EDW,2010-05-20 15:55:00+00,67.64,48.02,49.38,250.00,16.00,0.00,29.95,85.00,M,FEW,   ,   ,None,5000.00,M,M,M,KEDW 201555Z 25016KT 85SM FEW050 20/09 A2995 RMK AO2A PK WND 24030/1514 SLP113 T01980089,
EDW,2010-05-20 16:55:00+00,69.98,48.02,45.57,260.00,24.00,0.00,29.93,85.00,28.00,FEW,FEW,   ,None,5000.00,25000.00,M,M,KEDW 201655Z 26024G28KT 85SM FEW050 FEW250 21/09 A2993 RMK AO2A PK WND 26031/1631 SLP103 CONTRAILS T02110089,
EDW,2010-05-20 17:55:00+00,71.24,47.84,43.36,260.00,25.00,0.00,29.93,90.00,31.00,FEW,FEW,   ,None,5000.00,25000.00,M,M,KEDW 201755Z 26025G31KT 90SM FEW050 FEW250 22/09 A2993 RMK AO2A PK WND 26031/1754 SLP105 T02180088 10222 20142 55006,
EDW,2010-05-20 18:55:00+00,71.42,48.02,43.39,250.00,27.00,0.00,29.92,85.00,32.00,FEW,FEW,   ,None,5000.00,25000.00,M,M,KEDW 201855Z 25027G32KT 85SM FEW050 FEW250 22/09 A2992 RMK AO2A PK WND 26033/1813 SLP101 T02190089,
EDW,2010-05-20 19:55:00+00,73.58,47.12,38.99,260.00,22.00,0.00,29.90,90.00,25.00,FEW,   ,   ,None,25000.00,M,M,M,KEDW 201955Z 26022G25KT 90SM FEW250 23/08 A2990 RMK AO2A PK WND 25033/1859 SLP095 T02310084,
EDW,2010-05-20 20:55:00+00,75.20,44.96,34.03,270.00,29.00,0.00,29.87,90.00,33.00,FEW,   ,   ,None,25000.00,M,M,M,KEDW 202055Z 27029G33KT 90SM FEW250 24/07 A2987 RMK AO2A PK WND 26036/2039 SLP085 T02400072 58021,
EDW,2010-05-20 21:55:00+00,77.36,42.08,28.37,260.00,20.00,0.00,29.85,80.00,30.00,SCT,   ,   ,None,25000.00,M,M,M,KEDW 202155Z 26020G30KT 80SM SCT250 25/06 A2985 RMK AO2A PK WND 26036/2101 SLP079 T02520056,
EDW,2010-05-20 22:55:00+00,71.06,45.14,39.40,270.00,21.00,0.00,29.86,50.00,29.00,FEW,BKN,   ,None,5000.00,24000.00,M,M,KEDW 202255Z 27021G29KT 50SM FEW050 BKN240 22/07 A2986 RMK AO2A PK WND 27040/2220 SLP084 T02170073,
EDW,2010-05-20 23:55:00+00,69.98,45.50,41.43,260.00,23.00,0.00,29.84,50.00,34.00,FEW,BKN,   ,None,5000.00,24000.00,M,M,KEDW 202355Z 26023G34KT 50SM FEW050 BKN240 21/08 A2984 RMK AO2A SLP081 T02110075 10255 20207 57009,
EDW,2010-05-21 00:55:00+00,67.82,45.50,44.62,250.00,20.00,0.00,29.86,50.00,27.00,BKN,   ,   ,None,24000.00,M,M,M,KEDW 210055Z 25020G27KT 50SM BKN240 20/07 A2986 RMK AO2A PK WND 28036/0024 SLP089 T01990075,
EDW,2010-05-21 01:55:00+00,66.56,42.98,42.33,260.00,24.00,0.00,29.83,50.00,31.00,SCT,   ,   ,None,24000.00,M,M,M,KEDW 210155Z 26024G31KT 50SM SCT240 19/06 A2983 RMK AO2A PK WND 26037/0144 SLP079 T01920061,
EDW,2010-05-21 02:55:00+00,64.22,41.72,43.75,230.00,17.00,0.00,29.86,50.00,29.00,FEW,   ,   ,None,24000.00,M,M,M,KEDW 210255Z 23017G29KT 50SM FEW240 18/05 A2986 RMK AO2A PK WND 26033/0202 SLP087 T01790054 51005,
EDW,2010-05-21 03:55:00+00,62.24,41.18,45.94,230.00,14.00,0.00,29.86,30.00,25.00,FEW,   ,   ,None,24000.00,M,M,M,KEDW 210355Z 23014G25KT 30SM FEW240 17/05 A2986 RMK AO2A PK WND 23028/0339 SLP088 T01680051,
EDW,2010-05-21 04:55:00+00,61.34,40.64,46.44,220.00,17.00,0.00,29.87,30.00,26.00,CLR,   ,   ,None,M,M,M,M,KEDW 210455Z 22017G26KT 30SM CLR 16/05 A2987 RMK AO2A PK WND 23029/0429 SLP087 T01630048,
EDW,2010-05-21 05:55:00+00,60.44,40.46,47.61,230.00,17.00,0.00,29.86,10.00,21.00,CLR,   ,   ,None,M,M,M,M,KEDW 210555Z AUTO 23017G21KT 10SM CLR 16/05 A2986 RMK AO2 PK WND 22027/0536 SLP086 T01580047 10211 20158 50002,
EDW,2010-05-21 06:55:00+00,60.26,41.90,50.66,240.00,21.00,0.00,29.84,10.00,25.00,CLR,   ,   ,None,M,M,M,M,KEDW 210655Z AUTO 24021G25KT 10SM CLR 16/05 A2984 RMK AO2 PK WND 24031/0632 SLP078 T01570055,
EDW,2010-05-21 07:55:00+00,59.90,41.36,50.26,240.00,21.00,0.00,29.83,10.00,25.00,CLR,   ,   ,None,M,M,M,M,KEDW 210755Z AUTO 24021G25KT 10SM CLR 16/05 A2983 RMK AO2 PK WND 24036/0716 SLP073 T01550052 402550142,
EDW,2010-05-21 08:55:00+00,59.36,41.00,50.53,230.00,22.00,0.00,29.81,10.00,28.00,CLR,   ,   ,None,M,M,M,M,KEDW 210855Z AUTO 23022G28KT 10SM CLR 15/05 A2981 RMK AO2 PK WND 24035/0813 SLP066 T01520050 56015,
EDW,2010-05-21 09:55:00+00,58.64,39.38,48.68,250.00,17.00,0.00,29.83,10.00,25.00,CLR,   ,   ,None,M,M,M,M,KEDW 210955Z AUTO 25017G25KT 10SM CLR 15/04 A2983 RMK AO2 PK WND 26029/0918 SLP071 T01480041,
EDW,2010-05-21 10:55:00+00,58.46,35.60,42.23,250.00,17.00,0.00,29.83,10.00,23.00,CLR,   ,   ,None,M,M,M,M,KEDW 211055Z AUTO 25017G23KT 10SM CLR 15/02 A2983 RMK AO2 PK WND 25032/1020 SLP078 T01470020,
EDW,2010-05-21 11:55:00+00,55.76,32.72,41.49,220.00,15.00,0.00,29.82,10.00,23.00,CLR,   ,   ,None,M,M,M,M,KEDW 211155Z AUTO 22015G23KT 10SM CLR 13/00 A2982 RMK AO2 PK WND 26030/1101 SLP078 T01320004 10162 20131 50003,
EDW,2010-05-21 12:55:00+00,58.10,31.82,36.78,270.00,16.00,0.00,29.83,85.00,21.00,CLR,   ,   ,None,M,M,M,M,KEDW 211255Z 27016G21KT 85SM CLR 15/M00 A2983 RMK AO2A PK WND 23026/1158 SLP079 RADAT 20146 T01451001,
EDW,2010-05-21 13:55:00+00,56.66,31.46,38.17,230.00,13.00,0.00,29.85,85.00,18.00,CLR,   ,   ,None,M,M,M,M,KEDW 211355Z 23013G18KT 85SM CLR 14/M00 A2985 RMK AO2A PK WND 26031/1333 SLP091 T01371003,
EDW,2010-05-21 14:55:00+00,61.34,29.30,29.58,250.00,15.00,0.00,29.86,85.00,22.00,CLR,   ,   ,None,M,M,M,M,KEDW 211455Z 25015G22KT 85SM CLR 16/M01 A2986 RMK AO2A PK WND 25026/1406 SLP090 T01631015 53011,
EDW,2010-05-21 15:55:00+00,65.84,25.16,21.30,260.00,24.00,0.00,29.84,85.00,28.00,CLR,   ,   ,None,M,M,M,M,KEDW 211555Z 26024G28KT 85SM CLR 19/M04 A2984 RMK AO2A PK WND 26031/1501 SLP082 T01881038,
EDW,2010-05-21 16:55:00+00,68.72,26.24,20.16,260.00,13.00,0.00,29.85,85.00,M,CLR,   ,   ,None,M,M,M,M,KEDW 211655Z 26013KT 85SM CLR 20/M03 A2985 RMK AO2A PK WND 26034/1603 SLP083 T02041032,
EDW,2010-05-21 17:55:00+00,71.60,24.08,16.71,260.00,20.00,0.00,29.84,85.00,28.00,CLR,   ,   ,None,M,M,M,M,KEDW 211755Z 26020G28KT 85SM CLR 22/M04 A2984 RMK AO2A PK WND 27030/1729 SLP078 T02201044 10221 20136 56006,
EDW,2010-05-21 18:55:00+00,71.78,26.06,18.03,280.00,23.00,0.00,29.84,80.00,31.00,CLR,   ,   ,None,M,M,M,M,KEDW 211855Z 28023G31KT 80SM CLR 22/M03 A2984 RMK AO2A PK WND 26033/1828 SLP077 T02211033,
EDW,2010-05-21 19:55:00+00,74.84,26.78,16.76,280.00,21.00,0.00,29.82,80.00,26.00,CLR,   ,   ,None,M,M,M,M,KEDW 211955Z 28021G26KT 80SM CLR 24/M03 A2982 RMK AO2A PK WND 27030/1859 SLP067 T02381029,
EDW,2010-05-21 20:55:00+00,74.66,28.04,17.76,280.00,24.00,0.00,29.81,80.00,30.00,FEW,   ,   ,None,25000.00,M,M,M,KEDW 212055Z 28024G30KT 80SM FEW250 24/M02 A2981 RMK AO2A SLP066 T02371022 58011,
EDW,2010-05-21 21:55:00+00,73.58,30.20,20.11,270.00,28.00,0.00,29.81,50.00,33.00,FEW,   ,   ,None,25000.00,M,M,M,KEDW 212155Z 27028G33KT 50SM FEW250 23/M00 A2981 RMK AO2A SLP068 T02311010,
EDW,2010-05-21 22:55:00+00,72.68,25.88,17.36,270.00,24.00,0.00,29.80,50.00,32.00,FEW,   ,   ,None,25000.00,M,M,M,KEDW 212255Z 27024G32KT 50SM FEW250 23/M03 A2980 RMK AO2A PK WND 29032/2245 SLP066 T02261034,
EDW,2010-05-21 23:55:00+00,72.86,23.00,15.30,270.00,20.00,0.00,29.79,50.00,26.00,FEW,   ,   ,None,25000.00,M,M,M,KEDW 212355Z 27020G26KT 50SM FEW250 23/M05 A2979 RMK AO2A PK WND 27032/2259 SLP062 T02271050 10242 20217 58006,
EDW,2010-05-22 00:55:00+00,70.88,27.68,19.88,270.00,21.00,0.00,29.78,50.00,25.00,FEW,   ,   ,None,25000.00,M,M,M,KEDW 220055Z 27021G25KT 50SM FEW250 22/M02 A2978 RMK AO2A PK WND 29029/0040 SLP061 T02161024,
EDW,2010-05-22 01:55:00+00,67.64,24.26,19.27,280.00,21.00,0.00,29.79,50.00,28.00,FEW,   ,   ,None,25000.00,M,M,M,KEDW 220155Z 28021G28KT 50SM FEW250 20/M04 A2979 RMK AO2A PK WND 29029/0122 SLP066 T01981043,
EDW,2010-05-22 02:55:00+00,64.04,25.52,23.02,270.00,25.00,0.00,29.79,40.00,32.00,FEW,   ,   ,None,25000.00,M,M,M,KEDW 220255Z 27025G32KT 40SM FEW250 18/M04 A2979 RMK AO2A SLP068 T01781036 53002,
EDW,2010-05-22 03:55:00+00,61.70,23.90,23.36,260.00,17.00,0.00,29.81,30.00,M,FEW,   ,   ,None,25000.00,M,M,M,KEDW 220355Z 26017KT 30SM FEW250 16/M05 A2981 RMK AO2A PK WND 27032/0257 SLP072 T01651045,
EDW,2010-05-22 04:55:00+00,59.54,24.98,26.39,260.00,16.00,0.00,29.82,30.00,19.00,FEW,   ,   ,None,25000.00,M,M,M,KEDW 220455Z 26016G19KT 30SM FEW250 15/M04 A2982 RMK AO2A PK WND 26027/0410 SLP075 T01531039,
EDW,2010-05-22 05:55:00+00,57.20,30.56,36.10,260.00,18.00,0.00,29.84,10.00,24.00,CLR,   ,   ,None,M,M,M,M,KEDW 220555Z AUTO 26018G24KT 10SM CLR 14/M01 A2984 RMK AO2 PK WND 24027/0524 SLP081 T01401008 10224 20140 52015,
EDW,2010-05-22 06:55:00+00,55.22,34.34,45.15,270.00,19.00,0.00,29.85,10.00,26.00,CLR,   ,   ,None,M,M,M,M,KEDW 220655Z AUTO 27019G26KT 10SM CLR 13/01 A2985 RMK AO2 PK WND 26026/0647 SLP084 T01290013,
EDW,2010-05-22 07:55:00+00,53.60,34.52,48.24,260.00,17.00,0.00,29.85,10.00,23.00,CLR,   ,   ,None,M,M,M,M,KEDW 220755Z AUTO 26017G23KT 10SM CLR 12/01 A2985 RMK AO2 PK WND 24028/0725 SLP085 T01200014 402420120,
EDW,2010-05-22 08:55:00+00,51.80,34.88,52.29,270.00,18.00,0.00,29.85,10.00,27.00,CLR,   ,   ,None,M,M,M,M,KEDW 220855Z AUTO 27018G27KT 10SM CLR 11/02 A2985 RMK AO2 PK WND 26028/0821 SLP088 T01100016 51004,
EDW,2010-05-22 09:55:00+00,50.00,35.42,57.11,260.00,13.00,0.00,29.87,10.00,M,CLR,   ,   ,None,M,M,M,M,KEDW 220955Z AUTO 26013KT 10SM CLR 10/02 A2987 RMK AO2 PK WND 27026/0903 SLP095 T01000019,
EDW,2010-05-22 10:55:00+00,48.56,35.42,60.26,250.00,15.00,0.00,29.87,10.00,M,CLR,   ,   ,None,M,M,M,M,KEDW 221055Z AUTO 25015KT 10SM CLR 09/02 A2987 RMK AO2 PK WND 26027/1020 SLP097 T00920019,
EDW,2010-05-22 11:55:00+00,46.58,34.52,62.63,230.00,18.00,0.00,29.87,10.00,M,CLR,   ,   ,None,M,M,M,M,KEDW 221155Z AUTO 23018KT 10SM CLR 08/01 A2987 RMK AO2 SLP102 T00810014 10139 20081 51007,
EDW,2010-05-22 12:55:00+00,45.86,33.62,62.09,240.00,19.00,0.00,29.88,90.00,26.00,FEW,   ,   ,None,4000.00,M,M,M,KEDW 221255Z 24019G26KT 90SM FEW040 08/01 A2988 RMK AO2A SLP103 RADAT 20092 T00770009,
EDW,2010-05-22 13:55:00+00,45.86,35.06,65.76,210.00,10.00,0.00,29.89,80.00,M,FEW,   ,   ,None,4000.00,M,M,M,KEDW 221355Z 21010KT 80SM FEW040 08/02 A2989 RMK AO2A PK WND 24026/1335 SLP108 T00770017,
EDW,2010-05-22 14:55:00+00,50.00,32.36,50.53,250.00,20.00,0.00,29.90,80.00,M,FEW,   ,   ,None,4000.00,M,M,M,KEDW 221455Z 25020KT 80SM FEW040 10/00 A2990 RMK AO2A PK WND 26033/1427 SLP114 T01000002 53008,
EDW,2010-05-22 15:55:00+00,51.62,29.48,42.35,260.00,23.00,0.00,29.89,80.00,31.00,FEW,   ,   ,None,3000.00,M,M,M,KEDW 221555Z 26023G31KT 80SM FEW030 11/M01 A2989 RMK AO2A SLP110 T01091014,
EDW,2010-05-22 16:55:00+00,55.22,29.30,36.84,250.00,20.00,0.00,29.87,80.00,23.00,FEW,   ,   ,None,3000.00,M,M,M,KEDW 221655Z 25020G23KT 80SM FEW030 13/M02 A2987 RMK AO2A PK WND 27026/1556 SLP103 T01291015,
EDW,2010-05-22 17:55:00+00,57.56,27.86,31.91,240.00,19.00,0.00,29.86,80.00,24.00,FEW,   ,   ,None,4000.00,M,M,M,KEDW 221755Z 24019G24KT 80SM FEW040 14/M02 A2986 RMK AO2A PK WND 27030/1708 SLP100 T01421023 10142 20068 56012,
EDW,2010-05-22 18:55:00+00,59.90,27.68,29.13,260.00,16.00,0.00,29.85,80.00,26.00,FEW,   ,   ,None,4000.00,M,M,M,KEDW 221855Z 26016G26KT 80SM FEW040 16/M02 A2985 RMK AO2A SLP096 T01551024,
EDW,2010-05-22 19:55:00+00,60.62,27.68,28.39,260.00,20.00,0.00,29.83,80.00,25.00,FEW,   ,   ,None,4000.00,M,M,M,KEDW 221955Z 26020G25KT 80SM FEW040 16/M02 A2983 RMK AO2A SLP089 T01591024,
EDW,2010-05-22 20:55:00+00,62.24,26.24,25.27,270.00,22.00,0.00,29.81,80.00,M,FEW,   ,   ,None,4000.00,M,M,M,KEDW 222055Z 27022KT 80SM FEW040 17/M03 A2981 RMK AO2A PK WND 26028/2032 SLP082 T01681032 58017,
EDW,2010-05-22 21:55:00+00,62.96,24.80,23.20,270.00,20.00,0.00,29.80,80.00,27.00,FEW,   ,   ,None,4000.00,M,M,M,KEDW 222155Z 27020G27KT 80SM FEW040 17/M04 A2980 RMK AO2A PK WND 28028/2136 SLP077 T01721040,
EDW,2010-05-22 22:55:00+00,62.96,23.90,22.35,290.00,22.00,0.00,29.79,70.00,27.00,FEW,   ,   ,None,4000.00,M,M,M,KEDW 222255Z 29022G27KT 70SM FEW040 17/M05 A2979 RMK AO2A PK WND 28031/2210 SLP077 T01721045,
EDW,2010-05-22 23:55:00+00,62.60,20.84,19.89,280.00,20.00,0.00,29.78,70.00,25.00,FEW,   ,   ,None,4000.00,M,M,M,KEDW 222355Z 28020G25KT 70SM FEW040 17/M06 A2978 RMK AO2A PK WND 29030/2312 SLP073 T01701062 10176 20143 57011,
EDW,2010-05-23 00:55:00+00,59.90,22.28,23.27,280.00,19.00,0.00,29.77,70.00,27.00,FEW,   ,   ,None,4000.00,M,M,M,KEDW 230055Z 28019G27KT 70SM FEW040 15/M05 A2977 RMK AO2A PK WND 27028/0033 SLP074 T01551054,
EDW,2010-05-23 01:55:00+00,57.02,22.82,26.39,280.00,22.00,0.00,29.77,50.00,29.00,FEW,   ,   ,None,4000.00,M,M,M,KEDW 230155Z 28022G29KT 50SM FEW040 14/M05 A2977 RMK AO2A SLP077 T01391051,
EDW,2010-05-23 02:55:00+00,53.78,22.28,29.02,270.00,18.00,0.00,29.77,50.00,23.00,FEW,   ,   ,None,4000.00,M,M,M,KEDW 230255Z 27018G23KT 50SM FEW040 12/M05 A2977 RMK AO2A PK WND 27030/0231 SLP077 T01211054 56001,
EDW,2010-05-23 03:55:00+00,52.16,21.92,30.33,250.00,15.00,0.00,29.78,30.00,22.00,FEW,   ,   ,None,4000.00,M,M,M,KEDW 230355Z 25015G22KT 30SM FEW040 11/M06 A2978 RMK AO2A PK WND 27026/0335 SLP081 T01121056,
EDW,2010-05-23 04:55:00+00,51.26,19.76,28.61,240.00,15.00,0.00,29.79,30.00,M,SCT,   ,   ,None,7000.00,M,M,M,KEDW 230455Z 24015KT 30SM SCT070 11/M07 A2979 RMK AO2A SLP080 T01071068,
EDW,2010-05-23 05:55:00+00,49.28,20.84,32.24,230.00,10.00,0.00,29.78,10.00,M,CLR,   ,   ,None,M,M,M,M,KEDW 230555Z AUTO 23010KT 10SM CLR 10/M06 A2978 RMK AO2 SLP077 T00961062 10168 20095 50002,
EDW,2010-05-23 06:55:00+00,48.92,21.92,34.21,220.00,9.00,0.00,29.76,10.00,17.00,CLR,   ,   ,None,M,M,M,M,KEDW 230655Z AUTO 22009G17KT 10SM CLR 09/M06 A2976 RMK AO2 SLP071 T00941056,
EDW,2010-05-23 07:55:00+00,45.32,21.92,39.18,220.00,7.00,0.00,29.75,10.00,M,CLR,   ,   ,None,M,M,M,M,KEDW 230755Z AUTO 22007KT 10SM CLR 07/M06 A2975 RMK AO2 SLP068 T00741056 401760068,
EDW,2010-05-23 08:55:00+00,46.76,25.52,43.14,260.00,17.00,0.00,29.75,10.00,M,CLR,   ,   ,None,M,M,M,M,KEDW 230855Z AUTO 26017KT 10SM CLR 08/M04 A2975 RMK AO2 SLP065 T00821036 56009,
EDW,2010-05-23 09:54:00+00,46.40,30.20,53.00,270.00,13.00,0.00,29.75,10.00,M,BKN,   ,   ,None,7000.00,M,M,M,KEDW 230954Z AUTO 27013KT 10SM BKN070 08/M01 A2975 RMK AO2 SLP067,
EDW,2010-05-23 09:55:00+00,45.68,30.20,54.46,270.00,12.00,0.00,29.75,10.00,M,BKN,   ,   ,None,7000.00,M,M,M,KEDW 230955Z AUTO 27012KT 10SM BKN070 08/M01 A2975 RMK AO2 SLP067 T00761010,
EDW,2010-05-23 10:32:00+00,44.60,28.40,52.72,260.00,13.00,0.00,29.75,10.00,M,SCT,   ,   ,None,7000.00,M,M,M,KEDW 231032Z AUTO 26013KT 10SM SCT070 07/M02 A2975 RMK AO2 SLP068,
EDW,2010-05-23 10:55:00+00,44.60,29.66,55.51,270.00,14.00,0.00,29.75,10.00,20.00,CLR,   ,   ,None,M,M,M,M,KEDW 231055Z AUTO 27014G20KT 10SM CLR 07/M01 A2975 RMK AO2 SLP069 T00701013,
EDW,2010-05-23 11:07:00+00,44.60,30.20,56.74,250.00,12.00,0.00,29.76,10.00,M,BKN,   ,   ,None,8000.00,M,M,M,KEDW 231107Z AUTO 25012KT 10SM BKN080 07/M01 A2976 RMK AO2 SLP069,
EDW,2010-05-23 11:17:00+00,44.60,30.20,56.74,260.00,14.00,0.00,29.76,10.00,M,SCT,   ,   ,None,8500.00,M,M,M,KEDW 231117Z AUTO 26014KT 10SM SCT085 07/M01 A2976 RMK AO2 SLP070,
EDW,2010-05-23 11:55:00+00,42.98,31.28,63.07,230.00,13.00,0.00,29.76,10.00,M,CLR,   ,   ,None,M,M,M,M,KEDW 231155Z AUTO 23013KT 10SM CLR 06/M00 A2976 RMK A02 SLP069 T00611004 10097 20061 52002,
EDW,2010-05-23 11:55:00+00,42.98,31.28,63.07,230.00,13.00,0.00,29.76,10.00,M,CLR,   ,   ,None,M,M,M,M,KEDW 231155Z AUTO 23013KT 10SM CLR 06/M00 A2976 RMK A02 SLP069 T00611004 10097 20061 52002,
EDW,2010-05-23 11:55:00+00,42.98,31.28,63.07,230.00,13.00,0.00,29.76,10.00,M,CLR,   ,   ,None,M,M,M,M,KEDW 231155Z AUTO 23013KT 10SM CLR 06/M00 A2976 RMK A02 SLP069 T00611004 10097 20061 52002,
EDW,2010-05-23 12:45:00+00,42.80,30.20,60.79,240.00,14.00,0.00,29.76,10.00,M,BKN,   ,   ,None,8500.00,M,M,M,KEDW 231245Z AUTO 24014KT 10SM BKN085 06/M01 A2976 RMK AO2 SLP073,
EDW,2010-05-23 12:55:00+00,42.98,30.20,60.37,230.00,15.00,0.00,29.76,30.00,M,FEW,SCT,SCT,None,4000.00,8000.00,12000.00,M,KEDW 231255Z 23015KT 30SM FEW040 SCT080 SCT120 BKN210 06/M01 A2976 RMK AO2A SLP074 VIRGA SW-NW T00611010,
EDW,2010-05-23 13:55:00+00,43.70,28.94,55.79,240.00,19.00,0.00,29.78,45.00,23.00,FEW,BKN,OVC,None,3000.00,7500.00,9000.00,M,KEDW 231355Z 24019G23KT 45SM FEW030 BKN075 OVC090 07/M02 A2978 RMK AO2A PK WND 22027/1320 SLP085 SHRA DSNT SW VIRGA ALQDS RADAT 47057 T00651017,
EDW,2010-05-23 14:55:00+00,46.22,27.68,48.14,250.00,16.00,0.00,29.79,45.00,23.00,FEW,BKN,   ,None,3000.00,7000.00,M,M,KEDW 231455Z 25016G23KT 45SM FEW030 BKN070 08/M02 A2979 RMK AO2A SLP089 VIRGA ALQDS T00791024 53012,
EDW,2010-05-23 15:55:00+00,48.20,29.66,48.45,250.00,14.00,0.00,29.81,45.00,M,SCT,BKN,   ,None,3000.00,8500.00,M,M,KEDW 231555Z 25014KT 45SM SCT030 BKN085 09/M01 A2981 RMK AO2A SLP092 VIRGA ALQDS T00901013,
EDW,2010-05-23 16:41:00+00,50.00,30.20,46.31,230.00,10.00,0.00,29.81,50.00,M,SCT,SCT,BKN,None,4000.00,9500.00,21000.00,M,KEDW 231641Z 23010KT 50SM SCT040 SCT095 BKN210 10/M01 A2981 RMK AO2A,
EDW,2010-05-23 16:55:00+00,50.36,28.94,43.40,280.00,8.00,0.00,29.81,50.00,M,SCT,SCT,SCT,None,4000.00,9500.00,21000.00,M,KEDW 231655Z 28008KT 50SM SCT040 SCT095 SCT210 10/M02 A2981 RMK AO2A SLP093 T01021017,
EDW,2010-05-23 17:55:00+00,52.34,27.68,38.31,280.00,14.00,0.00,29.81,50.00,M,SCT,BKN,   ,None,4000.00,21000.00,M,M,KEDW 231755Z 28014KT 190V300 50SM SCT040 BKN210 11/M02 A2981 RMK AO2A SLP095 T01131024 10113 20059 51006,
EDW,2010-05-23 18:35:00+00,55.40,26.60,32.76,260.00,16.00,0.00,29.81,50.00,25.00,SCT,BKN,   ,None,5000.00,21000.00,M,M,KEDW 231835Z 26016G25KT 50SM SCT050 BKN210 13/M03 A2981 RMK AO2A,
EDW,2010-05-23 18:55:00+00,53.96,26.42,34.27,270.00,16.00,0.00,29.82,50.00,21.00,SCT,BKN,   ,None,5000.00,21000.00,M,M,KEDW 231855Z 27016G21KT 50SM SCT050 BKN210 12/M03 A2982 RMK AO2A SLP094 T01221031,
EDW,2010-05-23 19:55:00+00,55.22,26.06,32.25,270.00,24.00,0.00,29.83,60.00,30.00,FEW,FEW,   ,None,5000.00,25000.00,M,M,KEDW 231955Z 27024G30KT 60SM FEW050 FEW250 13/M03 A2983 RMK AO2A PK WND 27030/1954 SLP099 T01291033,
EDW,2010-05-23 20:55:00+00,55.58,27.50,33.78,270.00,19.00,0.00,29.84,70.00,29.00,FEW,FEW,   ,None,5000.00,25000.00,M,M,KEDW 232055Z 27019G29KT 70SM FEW050 FEW250 13/M02 A2984 RMK AO2A PK WND 27034/2042 SLP102 T01311025 53010,
EDW,2010-05-23 21:55:00+00,55.94,28.04,34.09,260.00,23.00,0.00,29.84,50.00,28.00,FEW,BKN,   ,None,5000.00,25000.00,M,M,KEDW 232155Z 26023G28KT 50SM FEW050 BKN250 13/M02 A2984 RMK AO2A PK WND 27031/2142 SLP101 T01331022,
EDW,2010-05-23 22:55:00+00,57.56,26.96,30.75,260.00,24.00,0.00,29.84,50.00,29.00,FEW,SCT,   ,None,5000.00,25000.00,M,M,KEDW 232255Z 26024G29KT 50SM FEW050 SCT250 14/M03 A2984 RMK AO2A PK WND 26033/2207 SLP102 T01421028,
EDW,2010-05-23 23:55:00+00,57.92,26.42,29.69,270.00,18.00,0.00,29.84,50.00,29.00,FEW,SCT,   ,None,5000.00,25000.00,M,M,KEDW 232355Z 27018G29KT 50SM FEW050 SCT250 14/M03 A2984 RMK AO2A PK WND 28031/2323 SLP104 T01441031 10147 20111 58002,
EDW,2010-05-24 00:55:00+00,57.74,27.50,31.24,260.00,19.00,0.00,29.84,70.00,25.00,FEW,FEW,   ,None,5000.00,25000.00,M,M,KEDW 240055Z 26019G25KT 70SM FEW050 FEW250 14/M02 A2984 RMK AO2A PK WND 27027/0033 SLP105 T01431025,
EDW,2010-05-24 01:55:00+00,56.12,27.86,33.62,270.00,17.00,0.00,29.86,70.00,27.00,FEW,   ,   ,None,5000.00,M,M,M,KEDW 240155Z 27017G27KT 70SM FEW050 13/M02 A2986 RMK AO2A SLP111 T01341023,
EDW,2010-05-24 02:55:00+00,54.32,27.86,35.89,270.00,20.00,0.00,29.88,70.00,M,FEW,   ,   ,None,5000.00,M,M,M,KEDW 240255Z 27020KT 70SM FEW050 12/M02 A2988 RMK AO2A PK WND 28026/0201 SLP119 T01241023 53014,
EDW,2010-05-24 03:55:00+00,52.52,27.86,38.34,250.00,10.00,0.00,29.90,30.00,M,CLR,   ,   ,None,M,M,M,M,KEDW 240355Z 25010KT 30SM CLR 11/M02 A2990 RMK AO2A SLP124 T01141023,
EDW,2010-05-24 04:55:00+00,51.62,26.42,37.35,240.00,12.00,0.00,29.91,30.00,M,CLR,   ,   ,None,M,M,M,M,KEDW 240455Z 24012KT 30SM CLR 11/M03 A2991 RMK AO2A SLP127 T01091031,
EDW,2010-05-24 05:55:00+00,52.52,23.72,32.29,230.00,9.00,0.00,29.92,10.00,M,CLR,   ,   ,None,M,M,M,M,KEDW 240555Z AUTO 23009KT 10SM CLR 11/M05 A2992 RMK AO2 SLP127 T01141046 10146 20106 51011,
EDW,2010-05-24 06:55:00+00,50.72,24.26,35.30,190.00,9.00,0.00,29.92,10.00,M,CLR,   ,   ,None,M,M,M,M,KEDW 240655Z AUTO 19009KT 10SM CLR 10/M04 A2992 RMK AO2 SLP127 T01041043,
EDW,2010-05-24 07:55:00+00,51.80,25.88,36.28,250.00,15.00,0.00,29.92,10.00,M,CLR,   ,   ,None,M,M,M,M,KEDW 240755Z AUTO 25015KT 10SM CLR 11/M03 A2992 RMK AO2 SLP125 T01101034 401470059,
EDW,2010-05-24 08:55:00+00,49.82,26.60,40.22,200.00,13.00,0.00,29.93,10.00,M,CLR,   ,   ,None,M,M,M,M,KEDW 240855Z AUTO 20013KT 10SM CLR 10/M03 A2993 RMK AO2 SLP128 T00991030 53003,
EDW,2010-05-24 09:55:00+00,47.66,25.88,42.33,200.00,9.00,0.00,29.93,10.00,M,CLR,   ,   ,None,M,M,M,M,KEDW 240955Z AUTO 20009KT 10SM CLR 09/M03 A2993 RMK AO2 SLP132 T00871034,
EDW,2010-05-24 10:55:00+00,45.68,26.60,46.99,200.00,9.00,0.00,29.94,10.00,M,CLR,   ,   ,None,M,M,M,M,KEDW 241055Z AUTO 20009KT 10SM CLR 08/M03 A2994 RMK AO2 SLP135 T00761030,
EDW,2010-05-24 11:55:00+00,44.60,26.96,49.69,170.00,7.00,0.00,29.95,10.00,M,CLR,   ,   ,None,M,M,M,M,KEDW 241155Z AUTO 17007KT 10SM CLR 07/M03 A2995 RMK AO2 SLP138 T00701028 10121 20066 53006,
EDW,2010-05-24 12:55:00+00,46.22,29.66,52.20,200.00,8.00,0.00,29.96,80.00,M,FEW,SCT,   ,None,18000.00,21000.00,M,M,KEDW 241255Z 20008KT 80SM FEW180 SCT210 08/M01 A2996 RMK AO2A ACSL SW-NW SLP142 T00791013,
EDW,2010-05-24 13:55:00+00,49.82,33.62,53.51,200.00,10.00,0.00,29.99,90.00,M,FEW,FEW,SCT,None,15000.00,18000.00,21000.00,M,KEDW 241355Z COR 20010KT 90SM FEW150 FEW180 SCT210 10/01 A2999 RMK AO2A ACSL DSNT SW-NW SLP148 RADAT 43074 T00990009,
EDW,2010-05-24 13:55:00+00,49.82,33.62,53.51,200.00,10.00,0.00,29.99,90.00,M,FEW,FEW,SCT,None,15000.00,18000.00,21000.00,M,KEDW 241355Z COR 20010KT 90SM FEW150 FEW180 SCT210 10/01 A2999 RMK AO2A ACSL DSNT SW-NW SLP148 RADAT 43074 T00990009,
EDW,2010-05-24 13:55:00+00,49.82,33.62,53.51,200.00,10.00,0.00,29.99,90.00,M,FEW,FEW,SCT,None,15000.00,18000.00,21000.00,M,KEDW 241355Z 20010KT 90SM FEW150 FEW180 SCT210 10/01 A2999 RMK AO2A SLP148 T00990009,
EDW,2010-05-24 13:55:00+00,49.82,33.62,53.51,200.00,10.00,0.00,29.99,90.00,M,FEW,FEW,SCT,None,15000.00,18000.00,21000.00,M,KEDW 241355Z COR 20010KT 90SM FEW150 FEW180 SCT210 10/01 A2999 RMK AO2A ACSL DSNT SW-NW SLP148 RADAT 43074 T00990009,
EDW,2010-05-24 14:55:00+00,53.78,32.36,43.96,220.00,12.00,0.00,29.99,90.00,M,FEW,FEW,SCT,None,12000.00,15000.00,18000.00,M,KEDW 241455Z COR 22012KT 90SM FEW120 FEW150 SCT180 BKN210 12/00 A2999 RMK AO2A ACSL DSNT NE AND SE AND SW-NW SLP151 T01210002 51015 COR 1815,
EDW,2010-05-24 14:55:00+00,53.78,32.36,43.96,220.00,12.00,0.00,29.99,90.00,M,FEW,FEW,SCT,None,12000.00,15000.00,18000.00,M,KEDW 241455Z COR 22012KT 90SM FEW120 FEW150 SCT180 BKN210 12/00 A2999 RMK AO2A ACSL DSNT NE AND SE AND SW-NW SLP151 T01210002 51015 COR 1815,
EDW,2010-05-24 14:55:00+00,53.78,32.36,43.96,220.00,12.00,0.00,29.99,90.00,M,FEW,FEW,SCT,None,12000.00,15000.00,18000.00,M,KEDW 241455Z COR 22012KT 90SM FEW120 FEW150 SCT180 BKN210 12/00 A2999 RMK AO2A ACSL DSNT NE AND SE AND SW-NW SLP151 T01210002 51015 COR 1815,
EDW,2010-05-24 14:55:00+00,53.78,32.36,43.96,220.00,12.00,0.00,29.99,90.00,M,FEW,FEW,SCT,None,12000.00,15000.00,18000.00,M,KEDW 241455Z 22012KT 90SM FEW120 FEW150 SCT180 BKN210 12/00 A2999 RMK AO2A SLP151 ACSL DSNT NE AND SE AND SW-NW T01210002 51015,
EDW,2010-05-24 15:55:00+00,58.46,29.12,32.53,270.00,8.00,0.00,29.99,90.00,M,FEW,FEW,SCT,None,10000.00,15000.00,18000.00,M,KEDW 241555Z COR 27008KT 90SM FEW100 FEW150 SCT180 BKN210 15/M02 A2999 RMK AO2A ACSL DSNT SE AND SW-NW SLP150 T01471016 COR 1826,
EDW,2010-05-24 15:55:00+00,58.46,29.12,32.53,270.00,8.00,0.00,30.00,90.00,M,FEW,FEW,SCT,None,10000.00,15000.00,18000.00,M,KEDW 241555Z 27008KT 90SM FEW100 FEW150 SCT180 BKN210 15/M02 A3000 RMK AO2A SLP150 ACSL DSNT SE AND SW-NW T01471016,
EDW,2010-05-24 15:55:00+00,58.46,29.12,32.53,270.00,8.00,0.00,29.99,90.00,M,FEW,FEW,SCT,None,10000.00,15000.00,18000.00,M,KEDW 241555Z COR 27008KT 90SM FEW100 FEW150 SCT180 BKN210 15/M02 A2999 RMK AO2A ACSL DSNT SE AND SW-NW SLP150 T01471016 COR 1826,
EDW,2010-05-24 15:55:00+00,58.46,29.12,32.53,270.00,8.00,0.00,29.99,90.00,M,FEW,FEW,SCT,None,10000.00,15000.00,18000.00,M,KEDW 241555Z COR 27008KT 90SM FEW100 FEW150 SCT180 BKN210 15/M02 A2999 RMK AO2A ACSL DSNT SE AND SW-NW SLP150 T01471016 COR 1826,
EDW,2010-05-24 16:55:00+00,60.26,28.94,30.28,250.00,9.00,0.00,30.00,90.00,15.00,FEW,FEW,SCT,None,10000.00,15000.00,18000.00,M,KEDW 241655Z 25009G15KT 90SM FEW100 FEW150 SCT180 BKN210 16/M02 A3000 RMK AO2A SLP151 ACSL DSNT SE-SW-NW T01571017,
EDW,2010-05-24 17:55:00+00,62.42,26.78,25.67,M,5.00,0.00,29.99,90.00,M,FEW,FEW,FEW,None,5000.00,12000.00,18000.00,M,KEDW 241755Z VRB05KT 90SM FEW050 FEW120 FEW180 SCT210 BKN330 17/M03 A2999 RMK AO2A ACSL DSNT SE-SW-NW SLP146 T01691029 10171 20068 50001,
EDW,2010-05-24 18:55:00+00,66.02,20.48,17.38,260.00,11.00,0.00,29.99,90.00,M,FEW,FEW,FEW,None,5000.00,12000.00,18000.00,M,KEDW 241855Z 26011KT 90SM FEW050 FEW120 FEW180 SCT210 BKN330 19/M06 A2999 RMK AO2A ACSL DSNT SE-SW-NW SLP140 CONTRAILS T01891064,
EDW,2010-05-24 19:55:00+00,66.92,21.02,17.24,260.00,8.00,0.00,29.96,90.00,17.00,FEW,FEW,BKN,None,5000.00,12000.00,22000.00,M,KEDW 241955Z 26008G17KT 90SM FEW050 FEW120 BKN220 19/M06 A2996 RMK AO2A SLP133 T01941061,
EDW,2010-05-24 20:55:00+00,69.62,21.56,16.07,200.00,13.00,0.00,29.95,90.00,19.00,FEW,FEW,SCT,None,5000.00,15000.00,22000.00,M,KEDW 242055Z 20013G19KT 90SM FEW050 FEW150 SCT220 21/M06 A2995 RMK AO2A SLP127 T02091058 58015,
EDW,2010-05-24 21:29:00+00,71.60,21.20,14.80,200.00,11.00,0.00,29.93,90.00,21.00,FEW,FEW,SCT,None,5000.00,15000.00,22000.00,M,KEDW 242129Z 20011G21KT 90SM FEW050 FEW150 SCT220 22/M06 A2993 RMK AO2A WSHFT 2114,
EDW,2010-05-24 21:55:00+00,71.42,23.90,16.68,240.00,12.00,0.00,29.92,90.00,19.00,FEW,FEW,FEW,None,5000.00,15000.00,22000.00,M,KEDW 242155Z 24012G19KT 90SM FEW050 FEW150 FEW220 22/M04 A2992 RMK AO2A PK WND 22028/2140 WSHFT 2114 SLP119 T02191045,
EDW,2010-05-24 22:55:00+00,70.52,32.00,23.99,210.00,13.00,0.00,29.91,90.00,25.00,FEW,FEW,   ,None,5000.00,15000.00,M,M,KEDW 242255Z 21013G25KT 90SM FEW050 FEW150 21/00 A2991 RMK AO2A PK WND 22026/2237 SLP115 T02140000,
EDW,2010-05-24 23:55:00+00,69.98,29.48,22.06,230.00,14.00,0.00,29.90,60.00,M,FEW,   ,   ,None,5000.00,M,M,M,KEDW 242355Z 23014KT 60SM FEW050 21/M01 A2990 RMK AO2A SLP114 T02111014 10224 20169 56014,
EDW,2010-05-25 00:55:00+00,68.36,29.48,23.32,240.00,19.00,0.00,29.90,45.00,25.00,FEW,   ,   ,None,5000.00,M,M,M,KEDW 250055Z 24019G25KT 45SM FEW050 20/M01 A2990 RMK AO2A PK WND 25027/0037 SLP114 T02021014,
EDW,2010-05-25 01:55:00+00,65.66,29.84,25.98,260.00,17.00,0.00,29.91,45.00,21.00,FEW,   ,   ,None,5000.00,M,M,M,KEDW 250155Z 26017G21KT 45SM FEW050 19/M01 A2991 RMK AO2A SLP117 T01871012,
EDW,2010-05-25 02:55:00+00,61.52,26.24,25.92,260.00,14.00,0.00,29.93,45.00,19.00,FEW,   ,   ,None,4500.00,M,M,M,KEDW 250255Z 26014G19KT 45SM FEW045 16/M03 A2993 RMK AO2A SLP122 T01641032 53007,
EDW,2010-05-25 03:55:00+00,58.82,25.16,27.28,240.00,12.00,0.00,29.95,30.00,M,CLR,   ,   ,None,M,M,M,M,KEDW 250355Z 24012KT 30SM CLR 15/M04 A2995 RMK AO2A SLP126 T01491038,
EDW,2010-05-25 04:55:00+00,55.58,27.68,34.03,210.00,12.00,0.00,29.96,30.00,M,CLR,   ,   ,None,M,M,M,M,KEDW 250455Z 21012KT 30SM CLR 13/M02 A2996 RMK AO2A SLP135 T01311024,
EDW,2010-05-25 05:55:00+00,52.88,26.96,36.46,210.00,9.00,0.00,29.97,10.00,M,CLR,   ,   ,None,M,M,M,M,KEDW 250555Z AUTO 21009KT 10SM CLR 12/M03 A2997 RMK AO2 SLP138 T01161028 10211 20116 51014,
EDW,2010-05-25 06:55:00+00,51.26,26.06,37.29,210.00,11.00,0.00,29.97,10.00,M,CLR,   ,   ,None,M,M,M,M,KEDW 250655Z AUTO 21011KT 10SM CLR 11/M03 A2997 RMK AO2 SLP135 T01071033,
EDW,2010-05-25 07:55:00+00,48.74,26.60,41.88,220.00,7.00,0.00,29.97,10.00,M,CLR,   ,   ,None,M,M,M,M,KEDW 250755Z AUTO 22007KT 10SM CLR 09/M03 A2997 RMK AO2 SLP136 T00931030 402240066,
EDW,2010-05-25 08:55:00+00,48.92,30.02,47.86,180.00,9.00,0.00,29.95,10.00,M,CLR,   ,   ,None,M,M,M,M,KEDW 250855Z AUTO 18009KT 10SM CLR 09/M01 A2995 RMK AO2 SLP128 T00941011 58006,
EDW,2010-05-25 09:55:00+00,48.20,28.22,45.68,210.00,6.00,0.00,29.94,10.00,M,CLR,   ,   ,None,M,M,M,M,KEDW 250955Z AUTO 21006KT 10SM CLR 09/M02 A2994 RMK AO2 SLP125 T00901021,
EDW,2010-05-25 10:55:00+00,46.04,29.66,52.56,190.00,7.00,0.00,29.93,10.00,M,CLR,   ,   ,None,M,M,M,M,KEDW 251055Z AUTO 19007KT 10SM CLR 08/M01 A2993 RMK AO2 SLP122 T00781013,
EDW,2010-05-25 11:55:00+00,44.24,26.42,49.27,210.00,7.00,0.00,29.94,10.00,M,CLR,   ,   ,None,M,M,M,M,KEDW 251155Z AUTO 21007KT 10SM CLR 07/M03 A2994 RMK AO2 SLP128 T00681031 10120 20067 55003,
EDW,2010-05-25 12:55:00+00,42.62,26.78,53.21,170.00,5.00,0.00,29.96,90.00,M,FEW,   ,   ,None,32000.00,M,M,M,KEDW 251255Z 17005KT 90SM FEW320 06/M03 A2996 RMK AO2A SLP137 RADAT 20112 T00591029,
EDW,2010-05-25 13:55:00+00,45.32,28.76,52.06,240.00,3.00,0.00,29.97,90.00,M,FEW,   ,   ,None,32000.00,M,M,M,KEDW 251355Z 24003KT 90SM FEW320 07/M02 A2997 RMK AO2A SLP141 T00741018,
EDW,2010-05-25 14:55:00+00,52.52,31.82,45.04,230.00,5.00,0.00,29.98,90.00,M,FEW,   ,   ,None,32000.00,M,M,M,KEDW 251455Z 23005KT 90SM FEW320 11/M00 A2998 RMK AO2A SLP141 CONTRAILS T01141001 51012,
EDW,2010-05-25 15:55:00+00,57.74,31.28,36.45,200.00,3.00,0.00,29.98,80.00,M,BKN,   ,   ,None,28000.00,M,M,M,KEDW 251555Z 20003KT 80SM BKN280 14/M00 A2998 RMK AO2A SLP137 CONTRAILS RADAT 20109 T01431004,
EDW,2010-05-25 16:55:00+00,61.52,29.48,29.61,180.00,6.00,0.00,29.98,85.00,M,SCT,BKN,   ,None,28000.00,36000.00,M,M,KEDW 251655Z 18006KT 85SM SCT280 BKN360 16/M01 A2998 RMK AO2A SLP139 CONTRAILS T01641014,
EDW,2010-05-25 17:55:00+00,64.76,28.76,25.65,0.00,0.00,0.00,29.97,85.00,M,SCT,BKN,   ,None,28000.00,36000.00,M,M,KEDW 251755Z 00000KT 85SM SCT280 BKN360 18/M02 A2997 RMK AO2A SLP135 CONTRAILS T01821018 10182 20056 58003,
EDW,2010-05-25 18:55:00+00,66.92,27.50,22.60,M,6.00,0.00,29.96,85.00,M,SCT,BKN,   ,None,28000.00,36000.00,M,M,KEDW 251855Z VRB06KT 85SM SCT280 BKN360 19/M02 A2996 RMK AO2A SLP130 CONTRAILS T01941025,
EDW,2010-05-25 19:55:00+00,70.88,26.96,19.30,180.00,7.00,0.00,29.95,80.00,M,BKN,   ,   ,None,24000.00,M,M,M,KEDW 251955Z 18007KT 80SM BKN240 22/M03 A2995 RMK AO2A SLP126 CONTRAILS T02161028,
EDW,2010-05-25 20:55:00+00,72.68,26.24,17.62,240.00,2.00,0.00,29.92,80.00,M,BKN,   ,   ,None,24000.00,M,M,M,KEDW 252055Z 24002KT 80SM BKN240 23/M03 A2992 RMK AO2A SLP115 CONTRAILS T02261032 58015,
EDW,2010-05-25 21:55:00+00,74.30,29.66,19.20,230.00,10.00,0.00,29.90,80.00,M,BKN,   ,   ,None,22000.00,M,M,M,KEDW 252155Z 23010KT 80SM BKN220 23/M01 A2990 RMK AO2A SLP108 T02351013,
EDW,2010-05-25 22:55:00+00,76.28,28.94,17.45,230.00,16.00,0.00,29.89,85.00,25.00,BKN,   ,   ,None,22000.00,M,M,M,KEDW 252255Z 23016G25KT 85SM BKN220 25/M02 A2989 RMK AO2A SLP103 T02461017,
EDW,2010-05-25 23:55:00+00,75.56,30.20,18.82,220.00,14.00,0.00,29.87,80.00,21.00,FEW,BKN,   ,None,15000.00,22000.00,M,M,KEDW 252355Z 22014G21KT 80SM FEW150 BKN220 24/M01 A2987 RMK AO2A SLP097 T02421010 10248 20180 56017,
EDW,2010-05-26 00:55:00+00,71.96,35.42,26.20,230.00,21.00,0.00,29.87,80.00,M,FEW,BKN,   ,None,1500.00,22000.00,M,M,KEDW 260055Z 23021KT 80SM FEW15 BKN220 22/02 A2987 RMK AO2A SLP101 T02220019,
EDW,2010-05-26 01:55:00+00,67.28,37.94,33.96,210.00,14.00,0.00,29.88,80.00,23.00,SCT,BKN,   ,None,15000.00,25000.00,M,M,KEDW 260155Z 21014G23KT 80SM SCT150 BKN250 20/03 A2988 RMK AO2A PK WND 23026/0128 SLP108 T01960033,
EDW,2010-05-26 02:55:00+00,63.32,36.86,37.36,220.00,17.00,0.00,29.89,50.00,28.00,SCT,SCT,   ,None,15000.00,25000.00,M,M,KEDW 260255Z 22017G28KT 50SM SCT150 SCT250 17/03 A2989 RMK AO2A SLP110 T01740027 53007,
EDW,2010-05-26 03:36:00+00,60.80,37.40,41.71,220.00,15.00,0.00,29.90,30.00,22.00,BKN,   ,   ,None,19000.00,M,M,M,KEDW 260336Z 22015G22KT 30SM BKN190 16/03 A2990 RMK AO2A,
EDW,2010-05-26 03:55:00+00,60.44,37.58,42.55,220.00,13.00,0.00,29.91,30.00,M,BKN,   ,   ,None,19000.00,M,M,M,KEDW 260355Z 22013KT 30SM BKN190 16/03 A2991 RMK AO2A PK WND 22026/0300 SLP113 T01580031,
EDW,2010-05-26 04:55:00+00,59.36,36.50,42.37,220.00,12.00,0.00,29.92,30.00,M,BKN,BKN,   ,None,15000.00,19000.00,M,M,KEDW 260455Z 22012KT 30SM BKN150 BKN190 15/03 A2992 RMK AO2A SLP116 T01520025,
EDW,2010-05-26 05:55:00+00,59.00,36.86,43.54,230.00,14.00,0.00,29.91,10.00,19.00,OVC,   ,   ,None,16000.00,M,M,M,KEDW 260555Z AUTO 23014G19KT 10SM OVC160 15/03 A2991 RMK AO2 SLP109 T01500027 10242 20150 50007,
EDW,2010-05-26 06:55:00+00,57.38,38.12,48.49,220.00,19.00,0.00,29.91,10.00,23.00,OVC,   ,   ,None,16000.00,M,M,M,KEDW 260655Z AUTO 22019G23KT 10SM OVC160 14/03 A2991 RMK AO2 SLP109 T01410034,
EDW,2010-05-26 07:20:00+00,57.20,37.40,47.44,220.00,17.00,0.00,29.92,10.00,22.00,SCT,   ,   ,None,16000.00,M,M,M,KEDW 260720Z AUTO 22017G22KT 10SM SCT160 14/03 A2992 RMK AO2 SLP110,
EDW,2010-05-26 07:30:00+00,57.20,37.40,47.44,230.00,18.00,0.00,29.92,10.00,22.00,BKN,   ,   ,None,15000.00,M,M,M,KEDW 260730Z AUTO 23018G22KT 10SM BKN150 14/03 A2992 RMK AO2 SLP110,
EDW,2010-05-26 07:35:00+00,57.20,35.60,44.19,220.00,18.00,0.00,29.92,10.00,22.00,SCT,   ,   ,None,15000.00,M,M,M,KEDW 260735Z AUTO 22018G22KT 10SM SCT150 14/02 A2992 RMK AO2 SLP111,
EDW,2010-05-26 07:43:00+00,57.20,35.60,44.19,230.00,17.00,0.00,29.92,10.00,24.00,SCT,BKN,   ,None,13000.00,15000.00,M,M,KEDW 260743Z AUTO 23017G24KT 10SM SCT130 BKN150 14/02 A2992 RMK AO2 SLP112,
EDW,2010-05-26 07:55:00+00,57.20,36.32,45.46,220.00,16.00,0.00,29.92,10.00,23.00,BKN,BKN,   ,None,13000.00,15000.00,M,M,KEDW 260755Z AUTO 22016G23KT 10SM BKN130 BKN150 14/02 A2992 RMK AO2 SLP109 T01400024 402480056,
EDW,2010-05-26 08:19:00+00,57.20,35.60,44.19,220.00,13.00,0.00,29.92,10.00,M,SCT,   ,   ,None,14000.00,M,M,M,KEDW 260819Z AUTO 22013KT 10SM SCT140 14/02 A2992 RMK AO2 SLP107,
EDW,2010-05-26 08:55:00+00,56.48,35.06,44.39,230.00,16.00,0.00,29.91,10.00,M,CLR,   ,   ,None,M,M,M,M,KEDW 260855Z AUTO 23016KT 10SM CLR 14/02 A2991 RMK AO2 SLP106 T01360017 58001,
EDW,2010-05-26 09:55:00+00,55.94,33.98,43.36,240.00,18.00,0.00,29.90,10.00,M,CLR,   ,   ,None,M,M,M,M,KEDW 260955Z AUTO 24018KT 10SM CLR 13/01 A2990 RMK AO2 SLP100 T01330011,
EDW,2010-05-26 10:55:00+00,54.86,35.78,48.44,230.00,15.00,0.00,29.89,10.00,M,CLR,   ,   ,None,M,M,M,M,KEDW 261055Z AUTO 23015KT 10SM CLR 13/02 A2989 RMK AO2 SLP096 T01270021,
EDW,2010-05-26 11:55:00+00,53.96,37.04,52.61,230.00,14.00,0.00,29.89,10.00,M,CLR,   ,   ,None,M,M,M,M,KEDW 261155Z AUTO 23014KT 10SM CLR 12/03 A2989 RMK AO2 SLP097 T01220028 10149 20122 56007,
EDW,2010-05-26 12:55:00+00,53.42,40.28,60.92,230.00,13.00,0.00,29.90,90.00,M,FEW,SCT,SCT,None,5000.00,25000.00,35000.00,M,KEDW 261255Z 23013KT 90SM FEW050 SCT250 SCT350 12/05 A2990 RMK AO2A SLP103 RADAT 83093 T01190046,
EDW,2010-05-26 13:55:00+00,55.22,41.90,60.73,230.00,14.00,0.00,29.91,90.00,M,FEW,FEW,FEW,None,5000.00,8000.00,12000.00,M,KEDW 261355Z 23014KT 90SM FEW050 FEW080 FEW120 FEW230 13/05 A2991 RMK AO2A SLP110 T01290055,
EDW,2010-05-26 14:55:00+00,58.64,42.44,54.81,230.00,13.00,0.00,29.91,90.00,M,FEW,FEW,FEW,None,5000.00,12000.00,23000.00,M,KEDW 261455Z 23013KT 90SM FEW050 FEW120 FEW230 SCT350 15/06 A2991 RMK AO2A ACSL DSNT NE-SE AND NW SLP111 CONTRAILS T01480058 51007,
EDW,2010-05-26 15:55:00+00,60.80,41.18,48.34,230.00,20.00,0.00,29.91,90.00,25.00,FEW,FEW,FEW,None,5000.00,12000.00,35000.00,M,KEDW 261555Z 23020G25KT 90SM FEW050 FEW120 FEW350 16/05 A2991 RMK AO2A PK WND 23026/1543 ACSL DSNT NE-SE-S SLP111 CONTRAILS T01600051,
EDW,2010-05-26 16:55:00+00,64.04,39.20,39.93,210.00,20.00,0.00,29.91,90.00,26.00,FEW,FEW,SCT,None,5000.00,12000.00,25000.00,M,KEDW 261655Z 21020G26KT 90SM FEW050 FEW120 SCT250 SCT350 18/04 A2991 RMK AO2A PK WND 23027/1639 ACSL DSNT NE-SE-SW SLP112 CONTRAILS T01780040,
EDW,2010-05-26 17:55:00+00,65.84,40.82,39.94,230.00,25.00,0.00,29.90,90.00,30.00,FEW,FEW,SCT,None,5000.00,12000.00,25000.00,M,KEDW 261755Z 23025G30KT 90SM FEW050 FEW120 SCT250 SCT350 19/05 A2990 RMK AO2A PK WND 22032/1742 ACSL DSNT NE-SE-SW SLP106 CONTRAILS T01880049 10190 20116 58002,
EDW,2010-05-26 18:55:00+00,68.54,40.28,35.62,220.00,24.00,0.00,29.90,90.00,30.00,FEW,FEW,FEW,None,5000.00,12000.00,25000.00,M,KEDW 261855Z 22024G30KT 90SM FEW050 FEW120 FEW250 FEW350 20/05 A2990 RMK AO2A PK WND 21033/1843 ACSL DSNT NE-SE-SW SLP105 CONTRAILS T02030046,
EDW,2010-05-26 19:55:00+00,69.62,35.06,27.96,210.00,22.00,0.00,29.90,80.00,32.00,FEW,FEW,FEW,None,4500.00,11000.00,25000.00,M,KEDW 261955Z 21022G32KT 80SM FEW045 FEW110 FEW250 21/02 A2990 RMK AO2A ACSL N-E-S SLP104 T02090017,
EDW,2010-05-26 20:55:00+00,70.52,36.14,28.30,220.00,20.00,0.00,29.89,80.00,28.00,FEW,SCT,SCT,None,5000.00,11000.00,25000.00,M,KEDW 262055Z 22020G28KT 80SM FEW050 SCT110 SCT250 21/02 A2989 RMK AO2A PK WND 24031/2001 ACSL E-S SLP102 T02140023 58003,
EDW,2010-05-26 21:55:00+00,71.06,36.86,28.59,210.00,19.00,0.00,29.89,80.00,30.00,FEW,SCT,SCT,None,5000.00,14000.00,25000.00,M,KEDW 262155Z 21019G30KT 80SM FEW050 SCT140 SCT250 22/03 A2989 RMK AO2A PK WND 23031/2113 ACSL DSNT E-S SLP100 T02170027,
EDW,2010-05-26 22:55:00+00,70.88,33.44,25.11,220.00,19.00,0.00,29.87,80.00,25.00,FEW,FEW,SCT,None,5000.00,14000.00,25000.00,M,KEDW 262255Z 22019G25KT 80SM FEW050 FEW140 SCT250 22/01 A2987 RMK AO2A PK WND 19029/2200 ACSL DSNT E-S AND W-NW SLP093 CONTRAILS T02160008,
EDW,2010-05-26 23:55:00+00,69.98,34.70,27.23,220.00,20.00,0.00,29.86,80.00,33.00,FEW,FEW,SCT,None,5000.00,13000.00,25000.00,M,KEDW 262355Z 22020G33KT 80SM FEW050 FEW130 SCT250 21/02 A2986 RMK AO2A PK WND 21033/2348 ACSL DSNT SE-SW-NW SLP091 CONTRAILS T02110015 10219 20187 56010,
EDW,2010-05-27 00:55:00+00,68.00,35.24,29.77,210.00,21.00,0.00,29.86,80.00,29.00,FEW,FEW,SCT,None,5000.00,13000.00,25000.00,M,KEDW 270055Z 21021G29KT 80SM FEW050 FEW130 SCT250 20/02 A2986 RMK AO2A PK WND 22031/0011 ACSL DSNT NE-SE AND W-N SLP094 CONTRAILS T02000018,
EDW,2010-05-27 01:55:00+00,65.30,34.16,31.32,220.00,17.00,0.00,29.87,80.00,24.00,FEW,FEW,FEW,None,5000.00,13000.00,25000.00,M,KEDW 270155Z 22017G24KT 80SM FEW050 FEW130 FEW250 19/01 A2987 RMK AO2A PK WND 22029/0108 ACSL DSNT NE-E AND W-N SLP097 T01850012,
EDW,2010-05-27 02:55:00+00,61.34,40.10,45.48,210.00,18.00,0.00,29.88,80.00,22.00,FEW,FEW,SCT,None,5000.00,12000.00,25000.00,M,KEDW 270255Z 21018G22KT 80SM FEW050 FEW120 SCT250 16/05 A2988 RMK AO2A PK WND 21028/0213 ACSL DSNT NE-E AND W-N SLP101 T01630045 53006,
EDW,2010-05-27 03:55:00+00,58.82,39.92,49.40,220.00,15.00,0.00,29.89,40.00,22.00,FEW,SCT,BKN,None,5000.00,11000.00,25000.00,M,KEDW 270355Z 22015G22KT 40SM FEW050 SCT110 BKN250 15/04 A2989 RMK AO2A SLP107 T01490044,
EDW,2010-05-27 04:55:00+00,57.38,40.46,53.12,220.00,14.00,0.00,29.90,40.00,20.00,FEW,BKN,   ,None,5000.00,12000.00,M,M,KEDW 270455Z 22014G20KT 40SM FEW050 BKN120 14/05 A2990 RMK AO2A SLP108 T01410047,
EDW,2010-05-27 05:55:00+00,55.94,38.12,51.08,220.00,12.00,0.00,29.91,10.00,M,OVC,   ,   ,None,11000.00,M,M,M,KEDW 270555Z AUTO 22012KT 10SM OVC110 13/03 A2991 RMK AO2 SLP110 T01330034 10209 20133 52008,
EDW,2010-05-27 06:55:00+00,55.22,38.12,52.43,230.00,17.00,0.00,29.90,10.00,M,CLR,   ,   ,None,M,M,M,M,KEDW 270655Z AUTO 23017KT 10SM CLR 13/03 A2990 RMK AO2 SLP104 T01290034,
EDW,2010-05-27 07:09:00+00,55.40,39.20,54.34,240.00,17.00,0.00,29.90,10.00,M,BKN,   ,   ,None,10000.00,M,M,M,KEDW 270709Z AUTO 24017KT 10SM BKN100 13/04 A2990 RMK AO2 SLP105,
EDW,2010-05-27 07:55:00+00,55.04,38.84,54.28,220.00,19.00,0.00,29.89,10.00,23.00,BKN,   ,   ,None,10000.00,M,M,M,KEDW 270755Z AUTO 22019G23KT 10SM BKN100 13/04 A2989 RMK AO2 SLP103 T01280038 402190116,
EDW,2010-05-27 08:55:00+00,53.06,40.28,61.72,230.00,16.00,0.00,29.89,10.00,M,SCT,   ,   ,None,10000.00,M,M,M,KEDW 270855Z AUTO 23016KT 10SM SCT100 12/05 A2989 RMK AO2 SLP102 T01170046 56004,
EDW,2010-05-27 09:55:00+00,51.80,40.64,65.56,240.00,13.00,0.00,29.90,10.00,M,SCT,   ,   ,None,10000.00,M,M,M,KEDW 270955Z AUTO 24013KT 10SM SCT100 11/05 A2990 RMK AO2 SLP107 T01100048,
EDW,2010-05-27 09:56:00+00,51.80,41.00,66.48,240.00,14.00,0.00,29.90,10.00,M,BKN,   ,   ,None,10000.00,M,M,M,KEDW 270956Z AUTO 24014KT 10SM BKN100 11/05 A2990 RMK AO2 SLP107,
EDW,2010-05-27 10:55:00+00,52.52,41.54,66.11,240.00,13.00,0.00,29.91,10.00,M,BKN,OVC,   ,None,4700.00,5500.00,M,M,KEDW 271055Z AUTO 24013KT 10SM BKN047 OVC055 11/05 A2991 RMK AO2 SLP110 T01140053,
EDW,2010-05-27 11:55:00+00,53.24,41.18,63.49,220.00,15.00,0.00,29.91,10.00,M,OVC,   ,   ,None,4300.00,M,M,M,KEDW 271155Z AUTO 22015KT 10SM OVC043 12/05 A2991 RMK AO2 SLP112 T01180051 10133 20110 53006,
EDW,2010-05-27 12:55:00+00,52.88,41.90,66.15,230.00,11.00,0.00,29.92,45.00,M,FEW,BKN,BKN,None,4000.00,4800.00,6000.00,M,KEDW 271255Z 23011KT 45SM FEW040 BKN048 BKN060 12/06 A2992 RMK AO2A SLP115 RADAT 78095 T01160055,
EDW,2010-05-27 13:55:00+00,52.88,42.62,68.01,230.00,11.00,0.00,29.94,45.00,M,FEW,SCT,BKN,None,3300.00,4800.00,7000.00,M,KEDW 271355Z 23011KT 45SM FEW033 SCT048 BKN070 BKN080 12/06 A2994 RMK AO2A SLP124 T01160059,
EDW,2010-05-27 14:55:00+00,55.04,44.24,66.87,230.00,14.00,0.00,29.95,45.00,18.00,SCT,BKN,BKN,None,3100.00,4700.00,7000.00,M,KEDW 271455Z 23014G18KT 45SM SCT031 BKN047 BKN070 13/07 A2995 RMK AO2A SLP128 SHRA DSNT SW T01280068 52012,
EDW,2010-05-27 15:24:00+00,55.40,44.60,66.91,230.00,16.00,0.00,29.95,40.00,M,SCT,BKN,   ,None,3100.00,4600.00,M,M,KEDW 271524Z 23016KT 40SM -DZ SCT031 BKN046 13/07 A2995 RMK AO2A,
EDW,2010-05-27 15:33:00+00,55.40,44.60,66.91,240.00,16.00,0.00,29.95,40.00,M,SCT,BKN,   ,None,3100.00,4400.00,M,M,KEDW 271533Z 24016KT 40SM SCT031 BKN044 13/07 A2995 RMK AO2A,
EDW,2010-05-27 15:55:00+00,56.66,44.60,63.93,230.00,15.00,0.00,29.96,40.00,M,SCT,BKN,   ,None,3100.00,4500.00,M,M,KEDW 271555Z 23015KT 40SM SCT031 BKN045 14/07 A2996 RMK AO2A SLP133 P0000 T01370070,
EDW,2010-05-27 16:55:00+00,58.46,43.52,57.50,240.00,14.00,0.00,29.95,40.00,M,SCT,BKN,   ,None,3000.00,5000.00,M,M,KEDW 271655Z 24014KT 40SM SCT030 BKN050 15/06 A2995 RMK AO2A SLP132 T01470064,
EDW,2010-05-27 17:55:00+00,60.44,44.96,56.60,240.00,14.00,0.00,29.95,40.00,18.00,FEW,BKN,   ,None,3300.00,4800.00,M,M,KEDW 271755Z 24014G18KT 40SM FEW033 BKN048 16/07 A2995 RMK AO2A SLP126 60000 T01580072 10158 20116 58001,
EDW,2010-05-27 18:55:00+00,62.78,44.96,52.10,240.00,16.00,0.00,29.94,40.00,22.00,FEW,BKN,BKN,None,3800.00,4500.00,25000.00,M,KEDW 271855Z 24016G22KT 40SM FEW038 BKN045 BKN250 17/07 A2994 RMK AO2A SLP123 CONTRAILS T01710072,
EDW,2010-05-27 19:55:00+00,66.56,45.68,46.92,230.00,22.00,0.00,29.93,50.00,29.00,FEW,BKN,   ,None,4000.00,5500.00,M,M,KEDW 271955Z 23022G29KT 50SM FEW040 BKN055 19/08 A2993 RMK A02A SLP117 SHRA DSNT S T01920076,
EDW,2010-05-27 20:52:00+00,66.20,46.40,48.83,240.00,20.00,0.00,29.93,50.00,28.00,FEW,SCT,BKN,None,4000.00,5500.00,25000.00,M,KEDW 272052Z 24020G28KT 50SM FEW040 SCT055 BKN250 19/08 A2993 RMK AO2A SHRA DSNT S OMTNS,
EDW,2010-05-27 20:55:00+00,66.38,46.22,48.19,250.00,22.00,0.00,29.92,50.00,28.00,FEW,SCT,BKN,None,4000.00,5500.00,25000.00,M,KEDW 272055Z 25022G28KT 50SM FEW040 SCT055 BKN250 19/08 A2992 RMK AO2A SLP114 SHRA DSNT S OMTNS T01910079 56009,
EDW,2010-05-27 21:55:00+00,67.28,46.22,46.72,230.00,22.00,0.00,29.92,50.00,30.00,FEW,SCT,BKN,None,4000.00,8000.00,25000.00,M,KEDW 272155Z 23022G30KT 50SM FEW040 SCT080 BKN250 20/08 A2992 RMK AO2A PK WND 24032/2132 SLP118 T01960079,
EDW,2010-05-27 22:55:00+00,66.56,46.04,47.57,220.00,20.00,0.00,29.91,50.00,28.00,FEW,FEW,BKN,None,4000.00,8000.00,25000.00,M,KEDW 272255Z 22020G28KT 50SM FEW040 FEW080 BKN250 19/08 A2991 RMK AO2A PK WND 22030/2155 SLP115 T01920078,
EDW,2010-05-27 23:55:00+00,64.76,47.30,53.11,230.00,20.00,0.00,29.91,50.00,29.00,FEW,FEW,SCT,None,4000.00,8000.00,25000.00,M,KEDW 272355Z 23020G29KT 50SM FEW040 FEW080 SCT250 18/08 A2991 RMK AO2A PK WND 23031/2329 SLP115 T01820085 10196 20160 58002,
EDW,2010-05-28 00:55:00+00,63.86,46.04,52.26,220.00,21.00,0.00,29.90,50.00,27.00,FEW,FEW,SCT,None,4000.00,8000.00,25000.00,M,KEDW 280055Z 22021G27KT 50SM FEW040 FEW080 SCT250 18/08 A2990 RMK AO2A PK WND 23028/0002 SLP111 T01770078,
EDW,2010-05-28 01:55:00+00,61.34,44.78,54.44,210.00,18.00,0.00,29.91,50.00,26.00,FEW,FEW,   ,None,4000.00,25000.00,M,M,KEDW 280155Z 21018G26KT 50SM FEW040 FEW250 16/07 A2991 RMK AO2A PK WND 21029/0058 SLP115 T01630071,
EDW,2010-05-28 02:55:00+00,58.46,44.42,59.51,210.00,17.00,0.00,29.91,40.00,24.00,FEW,FEW,SCT,None,4000.00,12000.00,25000.00,M,KEDW 280255Z 21017G24KT 40SM FEW040 FEW120 SCT250 15/07 A2991 RMK AO2A PK WND 20028/0201 SLP118 T01470069 53001,
EDW,2010-05-28 03:55:00+00,56.30,45.14,66.11,210.00,15.00,0.00,29.93,30.00,20.00,FEW,SCT,   ,None,8000.00,25000.00,M,M,KEDW 280355Z 21015G20KT 30SM FEW080 SCT250 13/07 A2993 RMK AO2A SLP122 T01350073,
EDW,2010-05-28 04:55:00+00,54.50,44.24,68.20,220.00,13.00,0.00,29.93,30.00,M,FEW,SCT,   ,None,8000.00,25000.00,M,M,KEDW 280455Z 22013KT 30SM FEW080 SCT250 12/07 A2993 RMK AO2A SLP124 T01250068,
EDW,2010-05-28 05:55:00+00,52.70,42.98,69.42,240.00,12.00,0.00,29.94,10.00,M,CLR,   ,   ,None,M,M,M,M,KEDW 280555Z AUTO 24012KT 10SM CLR 12/06 A2994 RMK AO2 SLP127 T01150061 10183 20115 52008,
EDW,2010-05-28 06:55:00+00,51.26,41.54,69.26,240.00,11.00,0.00,29.95,10.00,M,CLR,   ,   ,None,M,M,M,M,KEDW 280655Z AUTO 24011KT 10SM CLR 11/05 A2995 RMK AO2 SLP130 T01070053,
EDW,2010-05-28 07:55:00+00,50.90,38.12,61.44,240.00,11.00,0.00,29.96,10.00,M,FEW,   ,   ,None,6500.00,M,M,M,KEDW 280755Z AUTO 24011KT 10SM FEW065 11/03 A2996 RMK AO2 SLP131 T01050034 401960105,
EDW,2010-05-28 08:18:00+00,51.80,37.40,57.77,240.00,12.00,0.00,29.96,10.00,M,BKN,   ,   ,None,6000.00,M,M,M,KEDW 280818Z AUTO 24012KT 10SM BKN060 11/03 A2996 RMK AO2 SLP131,
EDW,2010-05-28 08:55:00+00,52.52,38.66,59.11,250.00,10.00,0.00,29.96,10.00,M,OVC,   ,   ,None,5500.00,M,M,M,KEDW 280855Z AUTO 25010KT 10SM OVC055 11/04 A2996 RMK AO2 SLP131 T01140037 51006,
EDW,2010-05-28 09:55:00+00,51.62,39.56,63.29,260.00,13.00,0.00,29.95,10.00,M,BKN,   ,   ,None,5500.00,M,M,M,KEDW 280955Z AUTO 26013KT 10SM BKN055 11/04 A2995 RMK AO2 SLP128 T01090042,
EDW,2010-05-28 10:09:00+00,51.80,39.20,61.99,260.00,12.00,0.00,29.95,10.00,M,SCT,   ,   ,None,5500.00,M,M,M,KEDW 281009Z AUTO 26012KT 10SM SCT055 11/04 A2995 RMK AO2 SLP129,
EDW,2010-05-28 10:55:00+00,49.82,38.48,64.86,250.00,12.00,0.00,29.96,10.00,M,FEW,   ,   ,None,5500.00,M,M,M,KEDW 281055Z AUTO 25012KT 10SM FEW055 10/04 A2996 RMK AO2 SLP131 T00990036,
EDW,2010-05-28 11:55:00+00,49.10,37.58,64.32,260.00,14.00,0.00,29.97,10.00,M,FEW,   ,   ,None,6000.00,M,M,M,KEDW 281155Z AUTO 26014KT 10SM FEW060 10/03 A2997 RMK AO2 SLP137 T00950031 10115 20095 53003,
EDW,2010-05-28 12:55:00+00,48.02,37.22,66.03,260.00,11.00,0.00,29.99,85.00,M,FEW,FEW,   ,None,6500.00,25000.00,M,M,KEDW 281255Z 26011KT 85SM FEW065 FEW250 09/03 A2999 RMK AO2A SLP147 T00890029,
EDW,2010-05-28 13:55:00+00,49.82,37.22,61.73,270.00,14.00,0.00,30.01,85.00,M,FEW,FEW,FEW,None,4000.00,6500.00,30000.00,M,KEDW 281355Z 27014KT 85SM FEW040 FEW065 FEW300 10/03 A3001 RMK AO2A SLP153 CONTRAILS T00990029,
EDW,2010-05-28 14:46:00+00,51.80,33.80,50.08,280.00,23.00,0.00,30.00,85.00,27.00,FEW,FEW,FEW,None,3500.00,5000.00,30000.00,M,KEDW 281446Z 28023G27KT 85SM FEW035 FEW050 FEW300 11/01 A3000 RMK AO2A CONTRAILS,
EDW,2010-05-28 14:55:00+00,52.88,33.80,48.13,280.00,20.00,0.00,30.01,85.00,27.00,FEW,FEW,FEW,None,3500.00,5000.00,30000.00,M,KEDW 281455Z 28020G27KT 85SM FEW035 FEW050 FEW300 12/01 A3001 RMK AO2A PK WND 28027/1446 SLP153 CONTRAILS T01160010 51012,
EDW,2010-05-28 15:55:00+00,54.86,31.82,41.35,270.00,16.00,0.00,30.02,85.00,24.00,FEW,FEW,FEW,None,3500.00,5000.00,30000.00,M,KEDW 281555Z 27016G24KT 85SM FEW035 FEW050 FEW300 13/M00 A3002 RMK AO2A PK WND 27026/1516 SLP159 CONTRAILS T01271001,
EDW,2010-05-28 16:55:00+00,57.92,30.02,34.41,270.00,14.00,0.00,30.00,85.00,18.00,FEW,BKN,   ,None,4000.00,30000.00,M,M,KEDW 281655Z 27014G18KT 85SM FEW040 BKN300 14/M01 A3000 RMK AO2A SLP152 CONTRAILS T01441011,
EDW,2010-05-28 17:55:00+00,60.08,30.02,31.85,260.00,17.00,0.00,30.00,90.00,M,FEW,BKN,   ,None,4000.00,30000.00,M,M,KEDW 281755Z 26017KT 90SM FEW040 BKN300 16/M01 A3000 RMK AO2A SLP149 CONTRAILS T01561011 10157 20089 58002,
EDW,2010-05-28 18:06:00+00,60.80,30.20,31.28,250.00,19.00,0.00,30.00,90.00,25.00,FEW,BKN,   ,None,4000.00,30000.00,M,M,KEDW 281806Z 25019G25KT 90SM FEW040 BKN300 16/M01 A3000 RMK AO2A CONTRAILS,
EDW,2010-05-28 18:55:00+00,63.68,28.76,26.64,260.00,19.00,0.00,29.99,90.00,26.00,FEW,FEW,SCT,None,4000.00,18000.00,25000.00,M,KEDW 281855Z 26019G26KT 90SM FEW040 FEW180 SCT250 BKN300 18/M02 A2999 RMK AO2A PK WND 26028/1824 SLP146 CONTRAILS T01761018,
EDW,2010-05-28 19:55:00+00,65.30,28.04,24.44,250.00,20.00,0.00,29.98,90.00,28.00,FEW,FEW,SCT,None,4000.00,14000.00,25000.00,M,KEDW 281955Z 25020G28KT 90SM FEW040 FEW140 SCT250 BKN300 19/M02 A2998 RMK AO2A PK WND 24029/1934 SLP141 CONTRAILS T01851022,
EDW,2010-05-28 20:55:00+00,65.66,31.10,27.35,280.00,17.00,0.00,29.97,90.00,28.00,FEW,FEW,BKN,None,4000.00,14000.00,25000.00,M,KEDW 282055Z 28017G28KT 90SM FEW040 FEW140 BKN250 19/M01 A2997 RMK AO2A SLP136 T01871005 57009,
EDW,2010-05-28 21:55:00+00,66.20,31.82,27.63,260.00,19.00,0.00,29.96,80.00,M,FEW,FEW,BKN,None,4000.00,14000.00,25000.00,M,KEDW 282155Z 26019KT 80SM FEW040 FEW140 BKN250 19/M00 A2996 RMK AO2A PK WND 25026/2126 SLP132 T01901001,
EDW,2010-05-28 22:55:00+00,67.10,34.52,29.85,270.00,24.00,0.00,29.95,70.00,28.00,FEW,FEW,SCT,None,4000.00,14000.00,25000.00,M,KEDW 282255Z 27024G28KT 70SM FEW040 FEW140 SCT250 20/01 A2995 RMK AO2A SLP129 T01950014,
EDW,2010-05-28 23:55:00+00,65.30,34.34,31.54,260.00,21.00,0.00,29.95,10.00,31.00,CLR,   ,   ,None,M,M,M,M,KEDW 282355Z AUTO 26021G31KT 10SM CLR 18/01 A2995 RMK AO2 PK WND 24034/2334 SLP130 T01850013 10197 20159 56008,
EDW,2010-05-29 00:55:00+00,65.12,33.80,31.06,260.00,22.00,0.00,29.94,10.00,30.00,CLR,   ,   ,None,M,M,M,M,KEDW 290055Z AUTO 26022G30KT 10SM CLR 18/01 A2994 RMK AO2 PK WND 26033/2355 SLP127 T01840010,
EDW,2010-05-29 01:55:00+00,62.96,33.80,33.50,250.00,24.00,0.00,29.94,10.00,M,CLR,   ,   ,None,M,M,M,M,KEDW 290155Z AUTO 25024KT 10SM CLR 17/01 A2994 RMK AO2 PK WND 25033/0135 SLP128 T01720010,
EDW,2010-05-29 02:55:00+00,60.08,34.70,38.45,250.00,16.00,0.00,29.95,10.00,23.00,CLR,   ,   ,None,M,M,M,M,KEDW 290255Z AUTO 25016G23KT 10SM CLR 16/02 A2995 RMK AO2 PK WND 26032/0202 SLP130 T01560015 53001,
EDW,2010-05-29 03:55:00+00,57.74,35.06,42.42,250.00,15.00,0.00,29.95,10.00,M,CLR,   ,   ,None,M,M,M,M,KEDW 290355Z AUTO 25015KT 10SM CLR 14/02 A2995 RMK AO2 SLP134 T01430017,
EDW,2010-05-29 04:55:00+00,56.66,34.70,43.47,260.00,13.00,0.00,29.96,10.00,M,CLR,   ,   ,None,M,M,M,M,KEDW 290455Z AUTO 26013KT 10SM CLR 14/01 A2996 RMK AO2 SLP134 T01370015,
EDW,2010-05-29 05:55:00+00,55.58,34.34,44.56,260.00,9.00,0.00,29.97,10.00,M,CLR,   ,   ,None,M,M,M,M,KEDW 290555Z AUTO 26009KT 10SM CLR 13/01 A2997 RMK AO2 SLP138 T01310013 10188 20131 53007,
EDW,2010-05-29 06:55:00+00,54.50,32.72,43.44,260.00,6.00,0.00,29.99,10.00,M,CLR,   ,   ,None,M,M,M,M,KEDW 290655Z AUTO 26006KT 10SM CLR 13/00 A2999 RMK AO2 SLP141 T01250004,
EDW,2010-05-29 07:55:00+00,52.16,32.18,46.31,250.00,4.00,0.00,30.00,10.00,M,CLR,   ,   ,None,M,M,M,M,KEDW 290755Z AUTO 25004KT 10SM CLR 11/00 A3000 RMK AO2 SLP146 T01120001 401970089,
EDW,2010-05-29 08:55:00+00,47.48,31.28,53.16,180.00,4.00,0.00,30.02,10.00,M,CLR,   ,   ,None,M,M,M,M,KEDW 290855Z AUTO 18004KT 10SM CLR 09/M00 A3002 RMK AO2 SLP153 T00861004 52014,
EDW,2010-05-29 09:55:00+00,47.66,32.18,54.76,190.00,5.00,0.00,30.03,10.00,M,CLR,   ,   ,None,M,M,M,M,KEDW 290955Z AUTO 19005KT 10SM CLR 09/00 A3003 RMK AO2 SLP157 T00870001,
EDW,2010-05-29 10:55:00+00,44.78,31.64,59.74,200.00,3.00,0.00,30.04,10.00,M,CLR,   ,   ,None,M,M,M,M,KEDW 291055Z AUTO 20003KT 10SM CLR 07/M00 A3004 RMK AO2 SLP163 T00711002,
EDW,2010-05-29 11:55:00+00,42.62,31.46,64.42,0.00,0.00,0.00,30.04,10.00,M,CLR,   ,   ,None,M,M,M,M,KEDW 291155Z AUTO 00000KT 10SM CLR 06/M00 A3004 RMK AO2 SLP168 T00591003 10131 20055 51008,
EDW,2010-05-29 12:55:00+00,40.46,30.74,68.01,140.00,4.00,0.00,30.06,90.00,M,CLR,   ,   ,None,M,M,M,M,KEDW 291255Z 14004KT 90SM CLR 05/M01 A3006 RMK AO2A SLP173 T00471007,
EDW,2010-05-29 13:55:00+00,45.68,30.38,54.86,0.00,0.00,0.00,30.07,90.00,M,CLR,   ,   ,None,M,M,M,M,KEDW 291355Z 00000KT 90SM CLR 08/M01 A3007 RMK AO2A SLP178 T00761009,
EDW,2010-05-29 14:55:00+00,50.36,33.08,51.33,160.00,6.00,0.00,30.09,80.00,M,CLR,   ,   ,None,M,M,M,M,KEDW 291455Z 16006KT 80SM CLR 10/01 A3009 RMK AO2A SLP182 T01020006 53016,
EDW,2010-05-29 15:55:00+00,57.02,32.36,39.07,190.00,3.00,0.00,30.09,90.00,M,CLR,   ,   ,None,M,M,M,M,KEDW 291555Z 19003KT 90SM CLR 14/00 A3009 RMK AO2A SLP180 T01390002,
EDW,2010-05-29 16:55:00+00,63.86,28.58,26.28,40.00,3.00,0.00,30.08,90.00,M,CLR,   ,   ,None,M,M,M,M,KEDW 291655Z 04003KT 90SM CLR 18/M02 A3008 RMK AO2A SLP170 T01771019,
EDW,2010-05-29 17:55:00+00,70.88,26.60,19.01,350.00,5.00,0.00,30.07,90.00,M,CLR,   ,   ,None,M,M,M,M,KEDW 291755Z 35005KT 90SM CLR 22/M03 A3007 RMK AO2A SLP162 T02161030 10216 20045 58008,
EDW,2010-05-29 18:55:00+00,75.92,22.10,13.30,20.00,14.00,0.00,30.04,90.00,20.00,CLR,   ,   ,None,M,M,M,M,KEDW 291855Z 02014G20KT 90SM CLR 24/M05 A3004 RMK AO2A SLP148 T02441055,
EDW,2010-05-29 19:55:00+00,78.08,18.50,10.62,50.00,13.00,0.00,30.03,90.00,21.00,CLR,   ,   ,None,M,M,M,M,KEDW 291955Z 05013G21KT 90SM CLR 26/M07 A3003 RMK AO2A SLP145 T02561075,
EDW,2010-05-29 20:55:00+00,80.06,17.24,9.42,30.00,11.00,0.00,30.01,90.00,20.00,CLR,   ,   ,None,M,M,M,M,KEDW 292055Z 03011G20KT 90SM CLR 27/M08 A3001 RMK AO2A SLP138 T02671082 57020,
EDW,2010-05-29 21:55:00+00,80.24,17.96,9.66,20.00,10.00,0.00,29.98,90.00,M,CLR,   ,   ,None,M,M,M,M,KEDW 292155Z 02010KT 90SM CLR 27/M08 A2998 RMK AO2A SLP130 T02681078,
EDW,2010-05-29 22:55:00+00,81.50,15.26,8.25,310.00,5.00,0.00,29.96,90.00,M,CLR,   ,   ,None,M,M,M,M,KEDW 292255Z 31005KT 90SM CLR 27/M09 A2996 RMK AO2A SLP126 T02751093,
EDW,2010-05-29 23:55:00+00,82.76,13.10,7.21,60.00,7.00,0.00,29.94,90.00,M,CLR,   ,   ,None,M,M,M,M,KEDW 292355Z 06007KT 030V100 90SM CLR 28/M11 A2994 RMK AO2A SLP120 T02821105 10283 20219 56019,
EDW,2010-05-30 00:55:00+00,81.86,8.96,6.17,20.00,5.00,0.00,29.93,90.00,M,CLR,   ,   ,None,M,M,M,M,KEDW 300055Z 02005KT 90SM CLR 28/M13 A2993 RMK AO2A SLP118 CONTRAILS T02771128,
EDW,2010-05-30 01:55:00+00,80.60,8.06,6.18,20.00,6.00,0.00,29.93,90.00,M,CLR,   ,   ,None,M,M,M,M,KEDW 300155Z 02006KT 90SM CLR 27/M13 A2993 RMK AO2A SLP116 T02701133,
EDW,2010-05-30 02:55:00+00,74.30,35.96,24.73,280.00,13.00,0.00,29.94,90.00,M,CLR,   ,   ,None,M,M,M,M,KEDW 300255Z 28013KT 90SM CLR 23/02 A2994 RMK AO2A SLP118 T02350022 55002,
EDW,2010-05-30 03:55:00+00,69.62,36.50,29.61,280.00,13.00,0.00,29.94,30.00,M,CLR,   ,   ,None,M,M,M,M,KEDW 300355Z 28013KT 30SM CLR 21/02 A2994 RMK AO2A SLP119 T02090025,
EDW,2010-05-30 04:55:00+00,66.92,37.22,33.42,290.00,8.00,0.00,29.96,30.00,M,CLR,   ,   ,None,M,M,M,M,KEDW 300455Z 29008KT 30SM CLR 19/03 A2996 RMK AO2A SLP119 T01940029,
EDW,2010-05-30 05:55:00+00,61.34,36.14,38.93,220.00,4.00,0.00,29.97,10.00,M,CLR,   ,   ,None,M,M,M,M,KEDW 300555Z AUTO 22004KT 10SM CLR 16/02 A2997 RMK AO2 SLP122 T01630023 10283 20157 53010,
EDW,2010-05-30 06:55:00+00,58.28,35.42,42.20,210.00,6.00,0.00,29.97,10.00,M,CLR,   ,   ,None,M,M,M,M,KEDW 300655Z AUTO 21006KT 10SM CLR 15/02 A2997 RMK AO2 SLP120 T01460019,
EDW,2010-05-30 07:55:00+00,56.30,35.42,45.32,210.00,7.00,0.00,29.96,10.00,M,CLR,   ,   ,None,M,M,M,M,KEDW 300755Z AUTO 21007KT 10SM CLR 14/02 A2996 RMK AO2 SLP117 T01350019 402830045,
EDW,2010-05-30 08:55:00+00,50.90,33.44,51.04,190.00,4.00,0.00,29.97,10.00,M,CLR,   ,   ,None,M,M,M,M,KEDW 300855Z AUTO 19004KT 10SM CLR 10/01 A2997 RMK AO2 SLP121 T01050008 55002,
EDW,2010-05-30 09:55:00+00,50.90,33.98,52.15,210.00,7.00,0.00,29.96,10.00,M,CLR,   ,   ,None,M,M,M,M,KEDW 300955Z AUTO 21007KT 10SM CLR 11/01 A2996 RMK AO2 SLP121 T01050011,
EDW,2010-05-30 10:55:00+00,47.66,28.94,48.01,0.00,0.00,0.00,29.97,10.00,M,CLR,   ,   ,None,M,M,M,M,KEDW 301055Z AUTO 00000KT 10SM CLR 09/M02 A2997 RMK AO2 SLP125 T00871017,
EDW,2010-05-30 11:55:00+00,46.04,31.28,56.13,190.00,3.00,0.00,29.97,10.00,M,CLR,   ,   ,None,M,M,M,M,KEDW 301155Z AUTO 19003KT 10SM CLR 08/M00 A2997 RMK AO2 SLP125 T00781004 10157 20067 52001,
EDW,2010-05-30 12:55:00+00,45.32,29.30,53.22,0.00,0.00,0.00,29.98,90.00,M,CLR,   ,   ,None,M,M,M,M,KEDW 301255Z 00000KT 90SM CLR 07/M01 A2998 RMK AO2A SLP128 T00741015,
EDW,2010-05-30 13:55:00+00,50.00,32.54,50.90,0.00,0.00,0.00,30.00,90.00,M,CLR,   ,   ,None,M,M,M,M,KEDW 301355Z 00000KT 90SM CLR 10/00 A3000 RMK AO2A SLP134 T01000003,
EDW,2010-05-30 14:55:00+00,58.64,34.16,39.62,0.00,0.00,0.00,30.01,90.00,M,CLR,   ,   ,None,M,M,M,M,KEDW 301455Z 00000KT 90SM CLR 15/01 A3001 RMK AO2A SLP137 T01480012 53014,
EDW,2010-05-30 15:55:00+00,64.40,34.34,32.55,0.00,0.00,0.00,30.02,90.00,M,CLR,   ,   ,None,M,M,M,M,KEDW 301555Z 00000KT 90SM CLR 18/01 A3002 RMK AO2A SLP140 T01800013,
EDW,2010-05-30 16:55:00+00,70.70,30.92,22.83,0.00,0.00,0.00,30.02,90.00,M,CLR,   ,   ,None,M,M,M,M,KEDW 301655Z 00000KT 90SM CLR 22/M01 A3002 RMK AO2A SLP136 T02151006,
EDW,2010-05-30 17:55:00+00,77.00,27.14,15.83,0.00,0.00,0.00,30.01,90.00,M,FEW,   ,   ,None,30000.00,M,M,M,KEDW 301755Z 00000KT 90SM FEW300 25/M03 A3001 RMK AO2A SLP130 T02501027 10250 20074 58001,
EDW,2010-05-30 18:55:00+00,80.42,29.30,15.45,70.00,3.00,0.00,29.99,90.00,M,FEW,   ,   ,None,25000.00,M,M,M,KEDW 301855Z 07003KT 90SM FEW250 27/M02 A2999 RMK AO2A SLP123 T02691015,
EDW,2010-05-30 19:55:00+00,82.94,23.36,11.13,40.00,7.00,0.00,29.96,90.00,M,FEW,   ,   ,None,25000.00,M,M,M,KEDW 301955Z 04007KT 90SM FEW250 28/M05 A2996 RMK AO2A SLP113 T02831048,
EDW,2010-05-30 20:55:00+00,84.38,22.64,10.31,320.00,3.00,0.00,29.94,90.00,M,FEW,   ,   ,None,25000.00,M,M,M,KEDW 302055Z 32003KT 90SM FEW250 29/M05 A2994 RMK AO2A SLP110 T02911052 56021,
EDW,2010-05-30 21:55:00+00,86.18,21.56,9.30,M,3.00,0.00,29.92,90.00,M,FEW,   ,   ,None,25000.00,M,M,M,KEDW 302155Z VRB03KT 90SM FEW250 30/M06 A2992 RMK AO2A SLP104 T03011058,
EDW,2010-05-30 22:55:00+00,86.90,19.40,8.29,M,4.00,0.00,29.90,90.00,M,FEW,   ,   ,None,25000.00,M,M,M,KEDW 302255Z VRB04KT 90SM FEW250 31/M07 A2990 RMK AO2A SLP097 T03051070,
EDW,2010-05-30 23:55:00+00,87.44,19.76,8.28,0.00,0.00,0.00,29.89,90.00,M,FEW,   ,   ,None,25000.00,M,M,M,KEDW 302355Z 00000KT 90SM FEW250 31/M07 A2989 RMK AO2A SLP094 T03081068 10310 20248 56017,
